name_google,name_foursquare,ratio_name,address_google,address_foursquare,ratio_address
Taste 'n Toast,Taste,90,"5516 New Utrecht Avenue, Brooklyn",brooklyn,90
Kim Ess Doo,Hong Doo Ke Restaurant,86,"5507 13th Avenue, Brooklyn",brooklyn,90
Cafe Pobeda,Stars Cafe & Restaurant,86,"5610 New Utrecht Avenue #4631, Brooklyn",5610 New Utrecht Ave,90
Gobo's Cafe,Theresa's Polish American Restaurant,86,"5421 New Utrecht Avenue, Brooklyn",brooklyn,90
"Luzee Takeout, Kosher Deli, Catering",Club Deli Restaurant,86,"5421 New Utrecht Avenue # A, Brooklyn",brooklyn,90
Gobo's Cafe,Theresa's Polish American Restaurant,86,"5421 New Utrecht Avenue, Brooklyn",brooklyn,90
Meisner's Take Home Food,Theresa's Polish American Restaurant,86,"5410 New Utrecht Avenue, Brooklyn",brooklyn,90
MASBIA of Boro Park,Ranch Restaurant and Bar of Guyana,86,"5402 New Utrecht Avenue, Brooklyn",brooklyn,90
Panino Toasty Delicious,Deli,90,"5401 13th Avenue, Brooklyn",brooklyn,90
Schnitzi,Schnitzi Food Truck,90,"5326 New Utrecht Avenue, Brooklyn",brooklyn,90
Ess&Bentch Boro Park,Miller's Ale House - Rego Park,86,"5326 13th Avenue, Brooklyn",brooklyn,90
Dips,Paradise Restaurant,68,"5315 13th Avenue, Brooklyn",brooklyn,90
Yossi's Sweet House,Yossi's,90,"5304 New Utrecht Avenue, Brooklyn",brooklyn,90
Urbana,Urban Market By Key Food,78,"1305 53rd Street, Brooklyn",brooklyn,90
Sub Express,Cam Tak Express Restaurant,86,"5217 13th Avenue, Brooklyn",brooklyn,90
Deli 52,Deli,90,"5120 13th Avenue, Brooklyn",brooklyn,90
Sushi Meshuna,Ginpachi Sushi Restaurant,86,"5115 13th Avenue, Brooklyn",brooklyn,90
J2 Pizza,Pizza Pizza,95,"5114 13th Avenue, Brooklyn",brooklyn,90
El Buffalito Grill,Golden Krust Caribbean Bakery and Grill,86,"6012 New Utrecht Avenue, Brooklyn",6012 New Utrecht Ave,90
Le Buffet,Fine Style Buffet Jamaican Food,90,"5501 17th Avenue, Brooklyn",7th Ave,90
JII Pizza,Pizza Pizza,95,"5502 18th Avenue, Brooklyn",18th Avenue,90
Vaad Hachnosas Orchim Guest,Oaks,68,"1733 52nd Street, Brooklyn",brooklyn,90
Veggies Inc,Sunshine Restaurant Food & Catering Inc,86,"5301 18th Avenue, Brooklyn",18th Avenue,90
Glatt A La Carte,Arte,90,"5123 18th Avenue, Brooklyn",18th Avenue,90
MSL Estates,Taste,72,"1725 51st Street, Brooklyn",brooklyn,90
Kaff Kafe,Kaff's Bake Shop,86,"5320 16th Avenue, Brooklyn",brooklyn,90
Big Fleishig's Express,Theresa's Polish American Restaurant,86,"5508 16th Avenue, Brooklyn",brooklyn,90
City cafe kosher,Cafe 47,86,"4923 18th Avenue, Brooklyn",18th Avenue,90
Sushi Glatt,Ginpachi Sushi Restaurant,86,"5009 16th Avenue, Brooklyn",brooklyn,90
Moti's,Moti's,100,"5007 16th Avenue, Brooklyn",5007 16th Ave,90
Hadar Geulah,Fada,68,"5914 18th Avenue, Brooklyn",18th Avenue,90
Bh Food Corporation,Food Corp,90,"1914 53rd Street, Brooklyn",brooklyn,90
Dagan Dairy,Dagan Pizza & Dairy Restaurant,86,"4820 16th Avenue, Brooklyn",4820 16th Ave,90
Lieberman Luncheonette,One & One,86,"4801 16th Avenue, Brooklyn",brooklyn,90
A & L Pizza Restaurant,Pizza Restaurant,95,"6024 18th Avenue, Brooklyn",18th Avenue,90
Anita's,marianita's restaurant,90,"6100 16th Avenue, Brooklyn",brooklyn,90
Good Day,Good Day Seafood Restaurant,90,"6202 18th Avenue, Brooklyn",6202 18th Ave,90
Like Cafe,Stars Cafe & Restaurant,86,"6205 18th Avenue, Brooklyn",6205 18th Ave,90
10AM Breakfast Bar,Bar Sol De Quito Restaurant II,86,"3808 13th Avenue, Brooklyn",3808 13th Ave,90
10am Breakfast Bar,Bar Sol De Quito Restaurant II,86,"3808 13th Avenue, Brooklyn",3808 13th Ave,90
VIP Grill,Golden Krust Caribbean Bakery and Grill,86,"3715 13th Avenue, Brooklyn",brooklyn,90
Sin Fronteras Restaurant,Sin Fronteras Restaurant,100,"3913 13th Avenue, Brooklyn",3913 13th Ave,90
Table 40,Table 40,100,"4001 13th Avenue, Brooklyn",4001 13th Ave,90
El Morro Tecleño,El Morro Restaurant & Bar,86,"4005 13th Avenue, Brooklyn",brooklyn,90
The Loft Steakhouse,The Loft BKNY Restaurant & Lounge,86,"1306 40th Street, Brooklyn",brooklyn,90
The Loft Steakhouse - Party Room,The Pine Restaurant,86,"4009 13th Avenue, Brooklyn",brooklyn,90
Platers & co New York,New Fulin Kwok Seafood Restaurant,86,"4021 13th Avenue, Brooklyn",brooklyn,90
Breadberry Local at Brooklyn Square,At Kazimir Restaurant,86,"3611 14th Avenue, Brooklyn",4th Ave,90
Las Marinas,Las Juanas Restaurant Asadero,86,"4018 14th Avenue, Brooklyn",4th Ave,90
Yi Min,Yi Min Kitchen (Chinese Food Take Out),90,"3821 Fort Hamilton Parkway, Brooklyn",brooklyn,90
Sandwich Express,Cam Tak Express Restaurant,86,"3461 Fort Hamilton Parkway, Brooklyn",brooklyn,90
Mi Barrio,Mi Barrio Taqueria Restaurant,90,"3415 14th Avenue, Brooklyn",3415 14th Ave,90
Welcome chili,Welcome Seafood Restaurant,86,"3806 Fort Hamilton Parkway, Brooklyn",brooklyn,90
First Hand Food,First Hand Food,100,"142-54 Roosevelt Avenue, Flushing",Roosevelt Ave.,90
LKF CAFE 蘭桂坊,Stars Cafe & Restaurant,86,"142-38 Roosevelt Avenue, Flushing",142-38 Roosevelt Ave,90
LKF Group 蘭桂坊,Little Sagion International Restaurant Group 小西龚越南美食集團,86,"142-38 Roosevelt Avenue, Flushing",142-38 Roosevelt Ave,90
Sam Won Gahk,Tong Sam Gyup Goo Yi Restaurant,86,"144-20 Northern Boulevard, Flushing",144-20,90
天府小串城 Tianfu BBQ,Ding BBQ and Hot Pot Restaurant,86,"144-18 Northern Boulevard, Flushing",85-18 Northern Boulevard,88
Tianfulao,Tian Fu Lou,80,"144-18 Northern Boulevard, Queens",85-18 Northern Boulevard,88
San Soo Kap San | Korean BBQ Flushing | Korean Restaurant | 산수갑산 플러싱 맛집,San Soo Kap San,90,"38-13 Union Street, Flushing",Street,90
미선식당 美善饭店 Mei Shan Restaurant,Restaurant,90,"141-41 Northern Boulevard, Flushing",147-18 Northern Blvd,86
树木屋 东北料理,Luna Asian Bistro and Japanese Rooftop Restaurant 日本料理,34,"141-41 Northern Boulevard, Flushing",147-18 Northern Blvd,86
Tacos Bravos,Tacos Puebla Restaurant,86,"146 St &, Northern Boulevard, Flushing",1100 60th St,86
Fried Dumpling Shan Tong,Dumpling House,86,"40 E 4th St, Flushing",1100 60th St,86
Los Marinillos,El Rinconcito De Los Sabores Restaurant & Deli,86,"141-08 Northern Boulevard, Flushing",147-18 Northern Blvd,86
T-swirl crêpe,T&G Restaurant Spot,86,"40 08 Union Street, Flushing",Street,90
Jie Jie Sheng,Yong Sheng Restaurant,86,"40-04 Union Street, Flushing",Street,90
Salty Stew 滷制大师,Salty Dog Bar and Restaurant,86,"4010 Union Street, Flushing",Street,90
Peking Empire,Peking Chinese Restaurant,86,"141-6 Northern Boulevard, Flushing",147-18 Northern Blvd,86
Madina’s Halal Cart,Halal,90,"136-81 39th Avenue, Flushing",39th,90
Haneul Babsang Korean Food,Bonjuk Korean Traditional Porridge Restaurant,86,"151-29 34th Avenue, Flushing",4th Ave,90
El Recuerdo,El Recuerdo Restaurant & Bakery,90,"14605 34th Avenue, Flushing",14605 34th Ave,90
Golden Door,Golden Door Restaurant,90,"14605 34th Avenue, Flushing",14605 34th Ave,90
Dae Bak Restaurant,Restaurant,90,"146-06 34th Avenue, Flushing",4th Ave,90
부뚜막 (Buttumak),Ako,72,"150-05 Northern Boulevard, Flushing",147-18 Northern Blvd,86
CafeVine,Caffeine Caterers Food Truck,79,"150-13 Northern Boulevard, Flushing",147-18 Northern Blvd,86
Northern Wang Mandoo,146-13 Northern Blvd Korean Restaurant,86,"149-44 Northern Boulevard, Flushing",147-18 Northern Blvd,86
Han yang Sushi,Ginpachi Sushi Restaurant,86,"150-51 Northern Boulevard, Flushing",147-18 Northern Blvd,86
Northern King Dumpling 노던 왕만두,King Hing,86,"14944 Northern Boulevard, Flushing",147-18 Northern Blvd,86
New York K-BBQ,New Fulin Kwok Seafood Restaurant,86,"149-06 Northern Boulevard, Flushing",147-18 Northern Blvd,86
Yi Jia Kitchen 忆家馆,Jia Fu Lou Chinese Restaurant,86,"14748 Northern Boulevard, Flushing",147-18 Northern Blvd,86
Gossip House-韩国料理,Gossip,90,"147-46 Northern Boulevard, Flushing",147-18 Northern Blvd,86
Appetizing Grill 串江湖,Golden Krust Caribbean Bakery and Grill,86,"14734B Northern Boulevard, Flushing",147-18 Northern Blvd,86
Kun sohn Noodle House,Dumpling House,86,"3504 154th Street, Flushing",Street,90
Dynasty Chinese Restaurant,Dynasty Chinese Restaurant,100,"147-18 Northern Boulevard, Flushing",85-18 Northern Boulevard,88
X-tra Cheese Pizza,Pizza,90,"14720 Northern Boulevard, Flushing",147-18 Northern Blvd,86
Picnic Garden BBQ BUFFET,Garden 13 Dairy Restaurant and Pizza,86,"154-05 Northern Boulevard, Flushing",147-18 Northern Blvd,86
Byung Chun Soondae,New Chun Feng Chinese Restaurant,86,"15603 Northern Boulevard, Flushing",147-18 Northern Blvd,86
Northern Sushi,146-13 Northern Blvd Korean Restaurant,86,"15314 Northern Boulevard #4, Queens",147-18 Northern Blvd,86
병천자매순대,병천자매순대 (Byun Chung Soon Dae Restaurant) (Byun Chung Soon Dae Restaurant),60,"156-11 Northern Boulevard, Flushing",147-18 Northern Blvd,86
Geo Si Gi,Geo Si Gi Restaurant,90,"15228 Northern Boulevard, Flushing",147-18 Northern Blvd,86
Bonjuk New York,New Fulin Kwok Seafood Restaurant,86,"152-26 Northern Boulevard, Flushing",147-18 Northern Blvd,86
Mr. Soon Tofu,병천자매순대 (Byun Chung Soon Dae Restaurant) (Byun Chung Soon Dae Restaurant),86,"152-22 Northern Boulevard, Flushing",147-18 Northern Blvd,86
New York Kim-Bob NaRa,New Fulin Kwok Seafood Restaurant,86,"153-02 Northern Boulevard, Flushing",147-18 Northern Blvd,86
Dadam,Mi Bella Dama restaurant,72,"152-24 Northern Boulevard, Flushing",147-18 Northern Blvd,86
JJ BAR & BISTRO,El Morro Restaurant & Bar,86,"154-17 Roosevelt Avenue, Flushing",Roosevelt Ave.,90
Green Garden,Green Garden Chinese Restaurant,90,"2220 154th Street, Whitestone",Street,90
Zaiqa Halal Food,Laiqa Halal Food,94,"156-50, 156-0 25th Drive, Flushing",156-28 Northern Blvd,86
Sodam,Moon Soda and Restaurant Suppli,72,"156-50 Northern Boulevard, Flushing",147-18 Northern Blvd,86
Hamburguesas El GORDO,El Mexicano,86,"96-08 31st Avenue, Flushing",1st ave.,90
Cali Aji,Li Li,86,"98-15 Astoria Boulevard, East Elmhurst",10015 Astoria Blvd,86
Cafe Algo Mas,Stars Cafe & Restaurant,86,"9813 Astoria Boulevard, Flushing",10015 Astoria Blvd,86
New King's Garden,New Ming Garden,88,"9606 31st Avenue, East Elmhurst",1st ave.,90
La Kuchara,La Kuchara Ecuadorian Restaurant Bar,90,"95 07 31st Avenue, Queens",95-07 31st Ave,90
Cafe Grill,Stars Cafe & Restaurant,86,"2602 96th Street, East Elmhurst",Street,90
Barzola,Barzola,100,"95-20 Astoria Boulevard, East Elmhurst",144-20,86
Nuevo Barzola Fusion,Barzola,90,"95-20 Astoria Boulevard, East Elmhurst",144-20,86
Lucky's Queens,Lucky,90,"100-11 Astoria Boulevard, Flushing",100-11,90
El Manto,El Morro Restaurant & Bar,86,"100-15 Astoria Boulevard, East Elmhurst",10015 Astoria Blvd,86
Tacos Sante Fe,Tacos Puebla Restaurant,86,"9407 Astoria Boulevard, East Elmhurst",10015 Astoria Blvd,86
Ven Santa Fe,New Santa Ana Restaurant,86,"9407 Astoria Boulevard, East Elmhurst",10015 Astoria Blvd,86
Los Tacos Locos Y Loncheria,J Y R Restaurant,86,"3215 Junction Boulevard, East Elmhurst",3452 Junction Blvd,86
Metro Star Coffee Shop,Metro Coffee Shop,95,"32-11 Junction Boulevard, New York",New York,90
Los Taquitos Del Tio,El Monstro del Sazon Pizzaria & Restaurant,86,"3215 Junction Boulevard, East Elmhurst",3452 Junction Blvd,86
Love Bakery,I Love NY Bakery,95,"32-13 Junction Boulevard, East Elmhurst",147-32 41st Ave,86
Gilda's,Gilda's Peruvian Restaurant,90,"91-15 31st Avenue, East Elmhurst",91-15 31st Ave,90
Pimpollo,Mr. Pollo,71,"32-39 Junction Boulevard, East Elmhurst",147-32 41st Ave,86
Satori Burgers,"Kennedy's Fried Chicken, Pizza & Burgers",86,"9109 31st Avenue, East Elmhurst",1st ave.,90
La Nueva Colombia,La Nueva Colombia Restaurant,90,"9107 31st Avenue, East Elmhurst",1st ave.,90
RJR Yummy Kitchen,Chang Jiang Kitchen Chinese Restaurant,86,"90-21 31st Avenue, East Elmhurst",1st ave.,90
Mobile food supplier ( food cart),Food Cart,90,"99-11 Ditmars Boulevard, Flushing",40-11 150th St,86
LaGuardia Cafe,Stars Cafe & Restaurant,86,"97-02 23rd Avenue, New York",New York,90
Pavilion Grille,Grille De Paris Restaurant,86,"104-04 Ditmars Boulevard, East Elmhurst",823 East 169th Street,86
Crust,CRUST,100,"Terminal C, LaGuardia Airport Entrance, East Elmhurst","Terminal D, near Gate D11",86
86 Express,Cam Tak Express Restaurant,86,East Elmhurst,823 East 169th Street,86
Imran Haider,Dera,68,"198 Hollis Avenue, St. Albans",1100 60th St,86
Chef to Go Cuisine,Annie Chan's Japanese Cuisine Restaurant,86,"198-19 Hollis Avenue, St. Albans",198-19 Hollis Ave,90
Chris & Sons Roti Shop and Bakery,bakery,90,"198-21 Hollis Avenue, Jamaica",45-21 Parsons Blvd,86
Cheung Hing Kitchen,Cheung Hing Kitchen,100,"19914 Hollis Avenue, New York",New York,90
Seamorhen,Sea,90,"190-7 109th Road, Jamaica",100 Jamaica Ave,86
SYEN GRILL,Golden Krust Caribbean Bakery and Grill,86,"199-30 Hollis Avenue, Jamaica",29-30  A Union St,86
FAST BITE,Fast Seafood Restaurant,86,"109-11 Farmers Boulevard, Jamaica",40-11 150th St,86
Queens Fried Chicken,Queen,90,"109-11 Farmers Boulevard, Jamaica",40-11 150th St,86
Pizza Palace,Pizza Palace,100,"10911 Farmers Boulevard, St. Albans",1100 60th St,86
Special Pizza 3,Pizza Pizza,95,"10911 Farmers Boulevard, Jamaica",196 23 Jamaica Avenue,86
Tastee Jerk,Taste,90,"20003 Hollis Avenue, New York",New York,90
Y & H Deli & Grocery Corporation,Deli & Grocery,90,"11052 Farmers Boulevard, St. Albans",1100 60th St,86
B&R Spice,Spice,90,"11106 Farmers Boulevard, New York",New York,90
Kim Po,Kim Fai Restaurant,86,"11006 Farmers Boulevard, St. Albans",1100 60th St,86
Bobby’s Jamaican Restaurant,Restaurant,90,"111-06 Farmers Boulevard, Queens",13030 Farmers Blvd,86
Farmers Pizza,Pizza Pizza,95,"111-36 Farmers Boulevard, St. Albans",1100 60th St,86
Oriental Star Kitchen,Star,90,"11217 Farmers Boulevard, New York",New York,90
Kriss,Brisas Del Caribe Restaurant,72,"112-04 Farmers Boulevard, Queens",13030 Farmers Blvd,86
Xin Xing Chinese Restaurant,Xin Xing Chinese Restaurant,100,"188-13 Jamaica Avenue, Hollis",188-13 Jamaica Ave,90
Markie B's,Theresa's Polish American Restaurant,86,"189-09 Jamaica Avenue, Jamaica",Jamaica ave,90
Karis Deli & Grocery,Deli & Grocery,95,"184-35 Jamaica Avenue, Jamaica",184-35 Jamaica Ave,90
Privilege,AVS Privilege Bakery,90,"184-35 Jamaica Avenue, Jamaica",184-35 Jamaica Ave,90
Macumba,Macumba Bar & Restaurant,90,"184-33 Jamaica Avenue, Queens",Jamaica ave,90
Girasoles Mexican Cuisine,Annie Chan's Japanese Cuisine Restaurant,86,"184-01 Jamaica Avenue, Hollis",Jamaica ave,90
Ho Wah China Wok INC.,China Wok,90,"19519 Jamaica Avenue, Jamaica",19519 Jamaica Ave,90
New Apple,The New Apple Restaurant,90,"18714 Hillside Avenue, Jamaica",18714 Hillside Ave,90
No 1 Halal Kitchen,Halal Kitchen,95,"18714 New York 25, Hollis","New York, New York",95
Ncloud69 Lounge & Restaurant,Lounge & Restaurant,95,"197-15 Jamaica Avenue, Jamaica",Jamaica ave,90
Ncloud Restaurant & lounge,Lounge & Restaurant,95,"197-15 Jamaica Avenue, Jamaica",Jamaica ave,90
No Limit Lounge NYC,Taipan Fusion Restaurant and Hookah Lounge,86,"197-15 Jamaica Avenue, Queens",Jamaica ave,90
A-C Market Grocery and flowers and Sándwich and tacos food Mexica,Ghoroa Sweets and Restaurant,86,"91-32 197th Street, Queens",Street,90
El Palo,El Palo Bar & Restaurant,90,"19625 Jamaica Avenue, Jamaica",19625 Jamaica Ave,90
Safari,Safari Carribean American Restaurant,90,Hollis,19930 Hollis Ave,90
Elena's,Elena's 43,95,"8948 Francis Lewis Boulevard, Queens Village",Cristofordo Columbo Boulevard,86
Jamaican Best,Latty's Jamaican Restaurant,86,"204-08 Hillside Avenue, Queens",Hillside Avenue,90
Nanas Bistro and Catering,Ambrosia Italian and Albanian Restaurant,86,"205-20 Jamaica Avenue, Hollis",Jamaica ave,90
Rosner Kosher Meat,Simon Sez Kosher Restaurant,86,"719 Avenue U, Brooklyn",Avenue U,90
Baku Nights,Late Night Superior Deli,66,"712 Avenue U, Brooklyn",712 Avenue U,90
Fuji Hana,Fuji Hana,100,"512 Avenue U, Brooklyn",512 Avenue U,90
"Lavi Glatt, Inc.",Sunshine Restaurant Food & Catering Inc,86,"805 Avenue U, Brooklyn",Avenue U,90
Guerreros Restaurant,Restaurant,90,"809 Avenue U, Brooklyn",Avenue U,90
Stolovaya,Maya,68,"813 Avenue U, Brooklyn",Avenue U,90
Authentic Soviet Cuisine Cmo Lovar,Amin Indian Cuisine,86,Brooklyn,brooklyn,100
Taam Mevorach,Taam-Tov,86,"815 Avenue U, Brooklyn",Avenue U,90
Holy Schnitzel,Judd's Holy Rollers Food Cart,86,"819 Avenue U, Brooklyn",Avenue U,90
Bistro 613 Steak House,Tokyo Steak,86,"816 Avenue U, Brooklyn",Avenue U,90
Arzu palace,China palace chinese restaurant,86,"2390 Coney Island Avenue, Brooklyn",2390 Coney Island Ave,90
Sweetspot Cafe,Stars Cafe & Restaurant,86,"2376 Coney Island Avenue, Brooklyn",brooklyn,90
Toast Beef,Beef Bar Restaurant牛吧美食坊,86,"2107 East 9th Street, Brooklyn",brooklyn,90
Nirvana,Jazzy West Indian and American Restaurant,64,"2340 Coney Island Avenue, Brooklyn",brooklyn,90
Cafe Gossip,Gossip,90,"2338 Coney Island Avenue, Brooklyn",brooklyn,90
Gurman,Rolf's German Restaurant,75,"2402 Coney Island Avenue, Brooklyn",2402 Coney Island Ave,90
Prince Pizza,Prince of Pizza,95,"1101 Avenue U, Brooklyn",Avenue U,90
Sizzling Wok,King Wok Chinese Restaurant,86,"2421 Coney Island Avenue, Brooklyn",brooklyn,90
Mirage Diner,Diner,90,"717 Kings Highway, Brooklyn",brooklyn,90
Cafe Renaissance,Cafe R,90,"802 Kings Highway, Brooklyn",brooklyn,90
Kosher Hut of Brooklyn,"Golden Forest Chinese Restaurant, Brooklyn Ny",86,"709 Kings Highway, Brooklyn",brooklyn,90
Hummus Points One,Number One Chinese Restaurant,86,"822 Kings Highway, Brooklyn",brooklyn,90
Mabat,Mabat Steak House Kosher,90,"1809 East 7th Street, Brooklyn",brooklyn,90
Bravo Kosher Pizza,Kosher Pizza,90,"902 Kings Highway, Brooklyn",902 Kings Highway,90
Davry Kosher Sports Bar,La Kuchara Ecuadorian Restaurant Bar,86,"722 Kings Highway, Brooklyn",brooklyn,90
Jack Glatt Kosher,Simon Sez Kosher Restaurant,86,"936 Kings Highway, Brooklyn",brooklyn,90
Rondel,Rondel,100,"2006 Coney Island Avenue, Brooklyn",2006 Coney Island Ave,90
Sushi Tokyo,Ginpachi Sushi Restaurant,86,"627 Kings Highway, Brooklyn",brooklyn,90
Village Cafe,Stars Cafe & Restaurant,86,"1968 Coney Island Avenue, Brooklyn",brooklyn,90
Village,Village Restaurant,90,"1964 Coney Island Avenue, Brooklyn",964 Coney Island Ave,90
Fashion Kitchen,Chang Jiang Kitchen Chinese Restaurant,86,"1103 Kings Highway, Brooklyn",brooklyn,90
Myst Lounge,Taipan Fusion Restaurant and Hookah Lounge,86,"2086 Coney Island Avenue, Brooklyn",2086 Coney Island Ave,90
Edo,Toledo Restaurant,90,"2087 Coney Island Avenue, Brooklyn",brooklyn,90
MishMash Gourmet,China Gourmet Chinese Restaurant,86,"1103 Kings Highway, Brooklyn",brooklyn,90
Luna Kings Pizzeria,La Strada Pizzeria & Restaurant,86,"1115 Kings Hwy, Brooklyn, NY 11229, Brooklyn",1115 Kings Hwy,90
Turquoise,Turquoise Kosher Fish Restaurant,90,"189-23 Union Turnpike, Fresh Meadows",2930 Union St,86
Mikhael la Tortia grill house,La Badee Restaurant,86,"190-11 Union Turnpike, Fresh Meadows",40-11 150th St,86
Lucky Fresh Tortillas,Lucky,90,"188-21 Union Turnpike, New York",New York,90
Kin’d,pitkin deli inc.,90,"192-03 Union Turnpike, Fresh Meadows",156-03 Northern Blvd,86
Romeo's,Romeo's Pizza,90,"188-08 Union Turnpike, Flushing",2930 Union St,86
Romeos Pizza,Romeo's Pizza,96,"188-08 Union Turnpike, Queens",2930 Union St,86
Turnpike Cafe,Stars Cafe & Restaurant,86,"187-20 Union Turnpike, Fresh Meadows",144-20,86
Sizzle Falafel Bar,Bar Sol De Quito Restaurant II,86,"Fresh Meadows, 15 Union Turnpike #186, Flushing",2930 Union St,86
Peking House,Peking House,100,"18523 Union Turnpike, Flushing",2930 Union St,86
Dave's Chinese Kitchen,Theresa's Polish American Restaurant,86,"185-24 Union Turnpike, New York",New York,90
Meo Japanese Hibachi,Yan Jing Chinese and Japanese Restaurant,86,"185-01 Union Turnpike, Fresh Meadows",171-01 Northern Blvd,86
Fresh Meadows Pizzeria & Restaurant,Fresh Meadows Pizzeria and Restaurant,95,"195-09 69th Avenue, Fresh Meadows",196 23 Jamaica Avenue,86
Benny's Kosher Pizza,Benny's Kosher Pizza Falafel & Dairy Restaurant,90,"18130 Union Turnpike, Flushing",2930 Union St,86
New Hong Kong Garden,Hong Kong,90,"195-11 69th Avenue, Fresh Meadows",40-11 150th St,86
Fortune Sushi,Ginpachi Sushi Restaurant,86,"181-24 Union Turnpike, Queens",2930 Union St,86
Fortune Glatt Kosher Chinese Take Out,King Chinese Restaurant,86,"180-26 Union Turnpike, Queens",2930 Union St,86
Fitoor Cafe & Grill Lounge,Cafe 47,86,"179-22 Union Turnpike, Fresh Meadows",2930 Union St,86
Sup Thai Kitchen,Mekong Thai & Vietnamese Restaurant,86,"178-19 Union Turnpike, Fresh Meadows",165-19 Northern Blvd,86
Amitabha Vegan,Amitabha Vegetarian Restaurant,86,"6824 Fresh Meadow Lane, Fresh Meadows",6419 Fresh Pond Rd,86
Angelo & Al's Pizzeria,Angelo & Al’s Pizzeria,100,"68-22 Fresh Meadow Lane, New York",New York,90
Queens Kosher Catering,Queen,90,"178-09 Union Turnpike, Fresh Meadows",2930 Union St,86
Cafe Muscat,Cafe Muscat,100,"178-07 Union Turnpike, Fresh Meadows",2930 Union St,86
Acquista Trattoria,Maria's Trattoria Restaurant,86,"178-01 Union Turnpike, Queens",2930 Union St,86
Bakhter Halal Kabab Afghan,Halal,90,"68-16 Fresh Meadow Lane, Flushing",68 Lafayette Ave,86
Nikko Hibachi,Kiraku Hibachi & Sushi,86,"177-21 Union Turnpike, Fresh Meadows",45-21 Parsons Blvd,86
The Hot Spot BBQ & Grill,Golden Krust Caribbean Bakery and Grill,86,"179-08 Union Turnpike, Fresh Meadows",2930 Union St,86
Umi Sushi,Umi Sushi,100,"177-13 Union Turnpike, Flushing",2930 Union St,86
CJ's Cafe,Theresa's Polish American Restaurant,86,"177-15 Union Turnpike, Fresh Meadows",2930 Union St,86
Ganda Sushi Express,Umi Sushi,86,"8008 Surrey Place, Queens",7900 Queens Blvd,86
Pokeworks,Orso,68,"61-24 190th Street, Queens",Street,90
Hooters,Eros,68,"61-09 190th Street, Fresh Meadows",Street,90
Chicken and Rice Guy,Ambrosia Italian and Albanian Restaurant,86,"61-1-61-45 188th Street, Fresh Meadows",Street,90
Häagen-Dazs® Ice Cream,Cream,90,"61-10 188th Street #274, Fresh Meadows",Street,90
Blaze Pizza,Blaze Pizza,100,"187-12 Horace Harding Expressway, New York",187-12 Horace Harding Expressway,95
I Chopsticks,Golden chopsticks,86,"185-20 Horace Harding Expressway, New York",New York,90
Brother's Pizza,Brother's Pizza,100,"185-04 Horace Harding Expressway, Flushing",18422 Horace Harding Expy,86
Pho Choice,First Choice Restaurant,86,"184-22 Horace Harding Expressway, Queens",18422 Horace Harding Expy,86
Paradise Halal Meat & Grill,Halal,90,"184-18 Horace Harding Expressway, Fresh Meadows",147-18 Northern Blvd,86
Tokyo Hibachi Steakhouse & Sushi,Tokyo Steak,86,"184-16 Horace Harding Expressway, New York",New York,90
Shirazi Cafe,Stars Cafe & Restaurant,86,"184-02 Horace Harding Expressway, New York",New York,90
Halal boyz,Halal,90,"183-20 Horace Harding Expressway, Queens",144-20,86
Chicken N Shakes,All Refrigeration 'N Restaurant Equipment,86,"183-16 Horace Harding Expressway, Queens",18422 Horace Harding Expy,86
Vibes 2,Vibes,95,"120-20 Merrick Boulevard, Jamaica",144-20,86
Wild Onion NYC,The NYC Bull - Restaurant & Rotisserie,86,"11908 Merrick Boulevard, Jamaica",196 23 Jamaica Avenue,86
Ochi Jerk Place Inc,Sunshine Restaurant Food & Catering Inc,86,"126-14 Merrick Boulevard store g, Jamaica",196 23 Jamaica Avenue,86
New Hong Kong,Hong Kong,95,"127-1 Merrick Boulevard, Jamaica",1 Worlds Fair Marina,86
Rocky Pizza,Pizza Pizza,95,"127-07 Merrick Boulevard, Jamaica",95-07 31st Ave,86
Farmers Pizza Grill,Pizza,90,"11725 Farmers Boulevard, St. Albans",1100 60th St,86
Springfield Diner,Diner,90,"12813 Merrick Boulevard, Jamaica",196 23 Jamaica Avenue,86
Tienchu Chinese Kitchen,"Golden Forest Chinese Restaurant, Brooklyn Ny",86,"18838 Linden Boulevard, Jamaica",19625 Jamaica Ave,86
Jamaican flavor,Jamaican Flavors Restaurant,90,"117-6-117-8 Farmers Boulevard, St. Albans",1100 60th St,86
Smoke BBQ Pit,Korean BBQ Restaurant,86,"129-21 Merrick Boulevard, Jamaica",45-21 Parsons Blvd,86
Reggae Taste,Taste,90,"129-26 Merrick Boulevard, Jamaica",196 23 Jamaica Avenue,86
Road House health foods market,Health Food,90,"129-32 Merrick Boulevard, Jamaica",147-32 41st Ave,86
The Smokehouse,The Golden Glass Restaurant,86,"18933 Linden Boulevard, Jamaica",19625 Jamaica Ave,86
Fishnet,Fish,90,"19009 Linden Boulevard, Jamaica",19625 Jamaica Ave,86
Cozy Corner,Roti Corner Restaurant,86,"194-01 Linden Boulevard, St. Albans",1100 60th St,86
Town & Country,Country Spice Restaurant,86,"19403 Linden Boulevard, Jamaica",19625 Jamaica Ave,86
Cheung Hing Kitchen,Cheung Hing Kitchen,100,"114-60 Merrick Boulevard, Jamaica",196 23 Jamaica Avenue,86
The Blue Dolphin Fish Market,Blue,90,"172-02 Linden Boulevard, Queens",205-02 Hillside Ave,86
L & K,HAI CHEN  W.L & K.L INC. RESTAURANT,90,"172-06 Linden Boulevard, Jamaica",196 23 Jamaica Avenue,86
Kam Hung,Kam Hung,100,"172-08 Linden Boulevard, Jamaica",109-08 Northern Blvd,86
Jazzy Wings & Southern Cuisine,Amin Indian Cuisine,86,"110-46 Merrick Boulevard, Jamaica",196 23 Jamaica Avenue,86
Royal Fried Chicken,Port Royal Jamaican Restaurant,86,"11701 Guy R Brewer Boulevard, Jamaica",196 23 Jamaica Avenue,86
Rib Shack,Goodfellas Pizza Shack,86,"157-6 Linden Boulevard, Jamaica",19625 Jamaica Ave,86
Bbq Ribs,Korean BBQ Restaurant,86,"15656 Linden Boulevard, Jamaica",19625 Jamaica Ave,86
ofure's kitchen,Theresa's Polish American Restaurant,86,"155-32 114th Road, Queens",147-32 41st Ave,86
J & M Kelly's,Theresa's Polish American Restaurant,86,"118-23 Guy R Brewer Boulevard, Jamaica",196 23 Jamaica Avenue,86
Blaze 718,Blaze Jamaican Restaurant,86,"109-10 Guy R Brewer Boulevard, Jamaica",37-10 114th St,86
Boulevard Pizza,Boulevard Pizza,100,"10901 Guy R Brewer Boulevard, Jamaica",196 23 Jamaica Avenue,86
Rochdale Chicken And Fish,Fish,90,"11829 Guy R Brewer Boulevard, Queens",13861 Queens Blvd,86
Seamorhen,Sea,90,"118-33 Guy R Brewer Boulevard, Jamaica",33-25 Francis Lewis Blvd,86
Gaby's Pizza,Gaby's Pizza,100,"204-23 Hillside Avenue, Queens",Hillside Avenue,90
Shogun Japan,Asho Japanese Restaurant,68,"20505 Hillside Avenue, Hollis",Hillside Avenue,90
Savor Gourmet Market & Cafe,Cafe 47,86,"2925 Avenue P, Brooklyn",5 ave,90
Nosh Express,Cam Tak Express Restaurant,86,"2819 Nostrand Avenue, Brooklyn",Nostrand Avenue,90
Ju Feng,Jeun Ju Korean Restaurant,86,"2809 Nostrand Avenue, Brooklyn",Nostrand Avenue,90
Pizza Nosh,Pizza Nosh,100,"2807 Nostrand Avenue, Brooklyn",Nostrand Avenue,90
Oshi's Cafe,Theresa's Polish American Restaurant,86,"2913 Quentin Road, Brooklyn",brooklyn,90
My Favorite Bagel,"Ave P Pizza, Beer, Lotto, Bagel",86,"3053 Nostrand Avenue, Brooklyn",Nostrand Avenue,90
Quentin Pizza,Quentin Pizza,100,"3211 Quentin Road, Brooklyn",brooklyn,90
Isabella,Isabella Restaurant,90,"3219 Quentin Road, Brooklyn",brooklyn,90
T For Two Grill,Golden Krust Caribbean Bakery and Grill,86,"3223 Quentin Road, Brooklyn",brooklyn,90
T Fusion Steakhouse,Taipan Fusion Restaurant and Hookah Lounge,86,"3223 Quentin Road, Brooklyn",brooklyn,90
Mr Nosh,Mr Triunfel Restaurant,86,"3323 Avenue N, Brooklyn",brooklyn,90
TKO Chicken,Kennedy Fried Chicken,86,"3423 Quentin Road, Brooklyn",brooklyn,90
Tov Umaitiv,Omai,68,"2668 Nostrand Avenue, Brooklyn",Nostrand Avenue,90
Spicy Nonna,Spicy Girl Restaurant,86,"2916 Avenue M, Brooklyn",brooklyn,90
Michael’s of Brooklyn,Theresa's Polish American Restaurant,86,"2929 Avenue R, Brooklyn",brooklyn,90
Buckley's,Buckley's Restaurant and Catering,90,"2926 Avenue S, Brooklyn",2926 Avenue S,90
Big Chef,King's Chef Chinese Restaurant,86,"2948 Avenue S, Brooklyn",brooklyn,90
N & D Pizza East 29,Pizza,90,"2823 Avenue U, Brooklyn",Avenue U,90
Osaka Japanese Restaurant Avenue U,Osaka Japanese restaurant,95,"2805 Avenue U, Brooklyn",2805 Avenue U,90
Kavkazkiy Dvorik,Kavkazkiy Devorik Restaurant,86,"2715 Avenue U, Brooklyn",2715 Avenue U,90
Brennan & Carr,Brennan & Carr,100,"3432 Nostrand Avenue, Brooklyn",3432 Nostrand Ave,90
Simply Sushi,Ginpachi Sushi Restaurant,86,"2818 Avenue U, Brooklyn",Avenue U,90
Safir Bakery,Safir Bakery,100,"2724 Avenue U, Brooklyn",Avenue U,90
Jay & Lloyd's Kosher Deli,Deli,90,"2718 Avenue U, Brooklyn",Avenue U,90
Surf & Turf,Surf Neighborhood Gourmet Food,86,"2954 Avenue U, Brooklyn",Avenue U,90
Poke Sushi,Ginpachi Sushi Restaurant,86,"2706 Avenue U, Brooklyn",Avenue U,90
Di Di,Di Di Chinese Restaurant,90,"2972 Avenue U, Brooklyn",Avenue U,90
Mui Hung D/ Mui Pui H,D&P Restaurant,86,"Brown Street, Brooklyn",brooklyn,90
Pizza D'Amore,Pizza D'Amore,100,"3003 Avenue U, Brooklyn",3003 Avenue U,90
Perry's,Perry St,93,"3482 Nostrand Avenue, Brooklyn",Nostrand Avenue,90
Chun Lin,House Of Lin Chinese Restaurant,86,"2932A Avenue R, Brooklyn",brooklyn,90
Highway Bagels,Kosher Pizza & Bagels,86,"1923 Kings Highway, Brooklyn",brooklyn,90
Wah Lung,Wah Lung Chinese Food,90,"1932 Kings Highway, Brooklyn",brooklyn,90
J & R Pizzeria,J & V Pizzeria,93,"1916 Kings Highway, Brooklyn",brooklyn,90
King's Food,Kwok's Food King,95,"1914 Kings Highway, Brooklyn",brooklyn,90
Nagoya Sushi,Ginpachi Sushi Restaurant,86,"1907 Kings Highway, Brooklyn",brooklyn,90
Memo Shish Kebab - Brooklyn,"Golden Forest Chinese Restaurant, Brooklyn Ny",86,"1821 Kings Highway, Brooklyn",brooklyn,90
Paikin BBQ,Korean BBQ Restaurant,86,"1807 Kings Highway, Brooklyn",brooklyn,90
Kings Grill,Golden Krust Caribbean Bakery and Grill,86,"1807 Kings Highway, Brooklyn",brooklyn,90
Vesuvius Pizzeria,Vesuvius Pizza,90,"1800 Kings Highway, Brooklyn",brooklyn,90
Taste of Georgia,Taste,90,"1637 East 18th Street, Brooklyn",brooklyn,90
Sushi Meshuga,Ginpachi Sushi Restaurant,86,"1637 East 17th Street, Brooklyn",brooklyn,90
Primavera,Primavera Restaurant,90,"623 Church Avenue, Brooklyn",623 Church Ave,90
Uni Thai Bistro,Mekong Thai & Vietnamese Restaurant,86,"265 East 7th Street, Brooklyn",brooklyn,90
La Flor De Santa Ines,La Roja de Todos Restaurant & Bakery,86,"731 Church Avenue, Brooklyn",brooklyn,90
Parade Cafe,Stars Cafe & Restaurant,86,"622 Caton Avenue, Brooklyn",brooklyn,90
Kam Hai,Kam Hai Chinese Food,90,"624 Caton Avenue, Brooklyn",brooklyn,90
Wheated,Wheat & Coffee,71,"905 Church Avenue, Brooklyn",brooklyn,90
Suzy's Roti Parlour,Theresa's Polish American Restaurant,86,"907 Church Avenue, Brooklyn",brooklyn,90
Angelica`s Coffee Shop,Angelica's Coffee Shop,100,"424 Church Avenue, Brooklyn",brooklyn,90
El Catrin Taqueria,Mi Barrio Taqueria Restaurant,86,"507 Coney Island Avenue, Brooklyn",brooklyn,90
Am Thai Bistro,Mekong Thai & Vietnamese Restaurant,86,"1003 Church Avenue, Brooklyn",brooklyn,90
Werkstatt,2 West At The Ritz Carlton,70,"509 Coney Island Avenue, Brooklyn",brooklyn,90
MIA Grocery & Grill,Las Banderas Grocery & Restaurant,86,"511 Coney Island Avenue, Brooklyn",brooklyn,90
Thai Farm Kitchen,Mekong Thai & Vietnamese Restaurant,86,"416 Church Avenue, Brooklyn",brooklyn,90
Polanco Restaurante,Polanco's Restaurant,92,"513 Coney Island Avenue, Brooklyn",brooklyn,90
Super 403,403 Restaurant,86,"403 Church Avenue, Brooklyn",403 Church Ave,90
Asia Harbor,Asia Chinese Restaurant,86,"404 Church Avenue, Brooklyn",brooklyn,90
Sake Sushi,Sake Sushi Restaurant,90,"328 Church Avenue, Brooklyn",brooklyn,90
JW Real Polish Delicatessen,Real Polish Delicatessen,95,"321 Church Avenue, Brooklyn",brooklyn,90
B.k burrito mexican grill,Golden Krust Caribbean Bakery and Grill,86,"3912 Fort Hamilton Parkway, Brooklyn",brooklyn,90
Tamales,Tamale Food Cart- plain silver cart,79,"40th St &, Fort Hamilton Parkway, Brooklyn",brooklyn,90
Tacos Broncos TRUCK,Tacos Puebla,86,"3801-3899 New Utrecht Avenue, Brooklyn",brooklyn,90
Julia's,Julia's Restaurant,90,"3902 New Utrecht Avenue, Brooklyn",brooklyn,90
New Taco King,New Fulin Kwok Seafood Restaurant,86,"61 Church Avenue STE A, Brooklyn",brooklyn,90
El Mirador Restaurant,Mirador Restaurant,95,"59 Church Avenue, Brooklyn",59 Church Ave,90
Madina,Madina Restaurant and Sweets,90,"563 Coney Island Avenue, Brooklyn",563 Coney Island Ave,90
Gyro Cafe,Stars Cafe & Restaurant,86,"580 Coney Island Avenue, Brooklyn",brooklyn,90
Radiance Restaurant,Restaurant,90,"1551 Nostrand Avenue, Brooklyn",Nostrand Avenue,90
J&G Caribbean Cuisine,Bea,90,"1610 Nostrand Avenue, Brooklyn",Nostrand Avenue,90
Cutterz Fish & Chipz,Fish,90,"1610 Nostrand Avenue, Brooklyn",Nostrand Avenue,90
Kam Man,Kam Man Chinese Food,90,"1500 Nostrand Avenue, Brooklyn",Nostrand Avenue,90
SVG Caribbean Bakery & Restaurant,Restaurant,90,"1621 Nostrand Avenue #5574, Brooklyn",Nostrand Avenue,90
Real Caribbean Pot,Bea,90,"3018 Church Avenue, Brooklyn",brooklyn,90
Campbells Kitchen,Chang Jiang Kitchen Chinese Restaurant,86,"2602 Snyder Avenue, Brooklyn",brooklyn,90
Kreyol Flavor,Kreyol Flavor Bakery & Restaurant,90,"2816 Church Avenue, Brooklyn",2816 Church Ave,90
Exquisite Express,Cam Tak Express Restaurant,86,"2847 Church Avenue, Brooklyn",2847 Church Ave,90
New Chung Mee,New Chung Me,96,"3017 Church Avenue, Brooklyn",3017 Church Ave,90
Lenny's Pizza,Lenny's Pizza,100,"3021 Church Avenue, Brooklyn",brooklyn,90
Golden Bird,Golden Bird Chinese Food,90,"1669 Nostrand Avenue, Brooklyn",Nostrand Avenue,90
Rama's Roti Shop,Theresa's Polish American Restaurant,86,"2831 Church Avenue, Brooklyn",brooklyn,90
Spice Island Caribbean Kitchen,Spice,90,"3105 Church Avenue, Brooklyn",3105 Church Ave,90
Sajomita Restaurant,Sajoma Restaurant,94,"854 Rogers Avenue, Brooklyn",brooklyn,90
Leo Buffet,Asian Buffet Restaurant,86,"854 Rogers Avenue, Brooklyn",brooklyn,90
Nio's Roti Shop,Theresa's Polish American Restaurant,86,"2702 Church Avenue, Brooklyn",brooklyn,90
Dougie's Jamaican Cuisine,Moti's,86,"1436 Nostrand Avenue, Brooklyn",Nostrand Avenue,90
Caribbean Vibes,Vibes,90,"1436 Nostrand Avenue, Brooklyn",Nostrand Avenue,90
Twist Pizza Corp,Pizza Pizza,95,"2703 Church Avenue, Brooklyn",brooklyn,90
Green Apple Deli & Juice Bar,Green Apple Deli & Juice Bar,100,"1322 Nostrand Avenue, Brooklyn",Nostrand Avenue,90
Soldier's,Soldier's Restaurant,90,"1278 Nostrand Avenue, Brooklyn",Nostrand Avenue,90
East Coast,East Coast Restaurant,90,"658 Rogers Avenue, Brooklyn",brooklyn,90
Gotham Deli,Gotham Deli,100,"1272 Nostrand Avenue, Brooklyn",Nostrand Avenue,90
Good Friend 1,Good friends,88,"1376 Nostrand Avenue, Brooklyn",Nostrand Avenue,90
Lakay Venus,Ako,60,"637 Rogers Avenue, Brooklyn",637 Rogers Ave,90
Akwaaba,Akwaaba,100,"604 Parkside Avenue, Brooklyn",604 Parkside Ave,90
Image,Primavera Restaurant,72,"700 Parkside Avenue, Brooklyn",brooklyn,90
Best kitchen time,Best China,86,"1250 Nostrand Avenue, Brooklyn",Nostrand Avenue,90
Jing Lung Chinese Restaurant,Xing Lung Chinese Restaurant,96,"1242 Nostrand Avenue, Brooklyn",Nostrand Avenue,90
FWM,Happy Family Restaurant,60,"1231 Nostrand Avenue, Brooklyn",Nostrand Avenue,90
New Look Deli & Grill,new look deli & grill,100,"1420 Nostrand Avenue, Brooklyn",Nostrand Avenue,90
Palooza Kitchen II,Bar Sol De Quito Restaurant II,86,"1222 Nostrand Avenue, Brooklyn",Nostrand Avenue,90
Immaculee,Immaculee Bakery,90,"1227 Nostrand Avenue, Brooklyn",Nostrand Avenue,90
Veggies Natural juice bar and cafe,Cafe 47,86,"1209 Nostrand Avenue, Brooklyn",Nostrand Avenue,90
Supreme Jamaican Restaurant,Taste Supreme Jamaican Restaurant,95,"801 Rogers Avenue, Brooklyn",brooklyn,90
Little Chopsticks Kitchen,Chang Jiang Kitchen Chinese Restaurant,86,"959 Leggett Avenue, The Bronx",311 Avenue X,86
Maggy pizza corp,Pizza Pizza,95,"961 Leggett Avenue, The Bronx",961 Leggett Ave,90
Margarita's,Margarita's Restaurant,90,"915 Avenue Saint John, The Bronx",5 ave,90
Seis Vecinos,Seis Vecinos Restaurant,90,"640 Prospect Avenue, The Bronx",640 Prospect Ave,90
Tacos Los Tigres del Bronx,El Monstro del Sazon Pizzaria & Restaurant,86,"962 Longwood Avenue, The Bronx",962 Longwood Ave,90
Daisy's Pizza,Daisy's Pizza Place,95,"980 Longwood Avenue, The Bronx",980 Longwood Ave,90
Longwood pizza,Longwood Pizza,100,"1000 Longwood Avenue, The Bronx",1000 Longwood Ave,90
Patron Mexican restaurant,Patron Mexican restaurant,100,"835 East 152nd Street #3, The Bronx",52nd Street,90
Tony Pizza Shop,Pizza Pizza,95,"1014 Longwood Avenue, The Bronx",1014 Longwood Ave,90
New Mama's Fried Chicken & Pizza,Pizza,90,The Bronx,"1095 Prospect Ave, Bronx, NY 10459",86
New Red Star,Star,90,"795 Southern Boulevard, The Bronx",795 Flatbush Ave,86
Jamaican Restaurant and Caterers,Restaurant,90,"805 Prospect Avenue, The Bronx",311 Avenue X,86
Kaylah’s Hut,Theresa's Polish American Restaurant,86,"805 Prospect Avenue, The Bronx",311 Avenue X,86
Laileilei Juice & Snack Bar,"Caribbean American Ent. Bar, Lounge & Restaurant",86,"832 Westchester Avenue, The Bronx",Westchester ave,90
BB Pizza & Dine,Pizza Pizza,95,"605 Southern Boulevard, The Bronx",901 Southern Blvd,86
Margherita's Pizza,Margherita Pizza,95,"945 East 163rd Street, The Bronx",Street,90
Morena II Restaurant,Morena Restaurant,95,"935 East 163rd Street, The Bronx",Street,90
Food Bo Garden,Food Bo Garden Chinese Restaurant,90,"934 East 163rd Street, The Bronx",Street,90
Antojitos Elohim,Antojitos Restaurant Corp,86,"971B Westchester Avenue, The Bronx",Westchester ave,90
Georgina,Georgina Restaurant,90,"1003 East 163rd Street, The Bronx",Street,90
Hunts Point,Hunts Point Chinese Restaurant,90,"901 Southern Boulevard, The Bronx",901 Southern Blvd,86
East Star,East star,100,"987 Westchester Avenue # 1, The Bronx",Westchester ave,90
Titones,Pipitone's Pizza & Pasta,77,"918 Southern Boulevard, The Bronx",901 Southern Blvd,86
Caridad Light food Restaurant,Restaurant,90,"967 East 165th Street, The Bronx",65th street,90
Southern Seafood,Sea,90,"Hunts Point Avenue, The Bronx",311 Avenue X,86
Mario's Pizza II,Mario's Pizza,95,"1011 Westchester Avenue, The Bronx",Westchester ave,90
長城 GREAT WALL RESTAURANT,Great Wall Restaurant,95,"991 Prospect Avenue, The Bronx",991 Prospect Ave,90
Great Wall Kitchen,Great Wall,90,"987 Prospect Avenue, The Bronx",311 Avenue X,86
Brianna's Pizzeria & Spanish Food,Spanish Food,90,"969 Prospect Avenue, The Bronx",311 Avenue X,86
La Morena,La Morena Food Restaurant,90,"1151 Tiffany Street, The Bronx",1151 Tiffany St,90
Suga On The Block Chicken & Waffle,The Pine Restaurant,86,The Bronx,"1095 Prospect Ave, Bronx, NY 10459",86
Ace Pizza,Aces Pizza,95,"1011 Westchester Avenue, The Bronx",Westchester ave,90
Sabor Latino Cuchifrito,Sabor Latino Cuchifrito Restaurant,95,"1017 Westchester Avenue, The Bronx",1017 Westchester Ave,90
Come and Get It Fish & Chips,Fish,90,"791 East 163rd Street, The Bronx",Street,90
CENTRO DEPORTIVO MANOGUAYABO,Marisco Centro (Seafood Restaurant & Fish Market),86,"914 Prospect Avenue, The Bronx",311 Avenue X,86
New Peking,New Peking,100,"344 Classon Avenue, Brooklyn",344 Classon Ave,90
The 3 Luigis,The Golden Glass Restaurant,86,"275 Grand Avenue, Brooklyn",brooklyn,90
Peaches Shrimp & Crab,Crab Shanty,86,"285 Grand Avenue, Brooklyn",285 Grand Ave,90
Choice Market,Choice Market,100,"318 Lafayette Avenue, Brooklyn",Lafayette Ave,90
Mekelburg's,Theresa's Polish American Restaurant,86,"293 Grand Avenue, Brooklyn",brooklyn,90
Speedy Romeo,Speedy's Place Restaurant,86,"376 Classon Avenue, Brooklyn",brooklyn,90
Taylor Made Jamaican Eatery,C B Finger Licking Jamaican and West Indian Restaurant,86,"393 Classon Avenue, Brooklyn",brooklyn,90
Clementine Bakery,Clementine Bakery,100,"395 Classon Avenue, Brooklyn",brooklyn,90
Tarachi,Amarachi,80,"222 Greene Avenue, Brooklyn",brooklyn,90
Izzy Rose,Rose Restaurant,86,"214 Greene Avenue, Brooklyn",brooklyn,90
Tony's Pizza Spot,Tony's Pizza Spot,100,"431 Dekalb Avenue # A, Brooklyn",brooklyn,90
The Finch,The Golden Glass Restaurant,86,"212 Greene Avenue, Brooklyn",brooklyn,90
Dannee Thai,Mekong Thai & Vietnamese Restaurant,86,"433 Dekalb Avenue, Brooklyn",brooklyn,90
Taste Korea 232,Taste,90,"232 Taaffe Place, Brooklyn",brooklyn,90
Rustik Tavern,The Porterhouse at Fraunces Tavern,86,"471 Dekalb Avenue, Brooklyn",brooklyn,90
Mike's Coffee Shop,Mike's Coffee Shop,100,"328 Dekalb Avenue, Brooklyn",brooklyn,90
Luigi's Pizzeria,Luigi's Pizzeria,100,"326 Dekalb Avenue, Brooklyn",brooklyn,90
Imperial Chinese Food Kitchen,Chinese Food,90,"1120 Fulton Street, Brooklyn",Fulton,90
Hadja Marley Restaurant,Hadja Marley Restaurant,100,"1139 Fulton Street, Brooklyn",1139 Fulton St,90
Golda,Golden Door Restaurant,72,"504 Franklin Avenue, Brooklyn",brooklyn,90
Hart's,Theresa's Polish American Restaurant,86,"506 Franklin Avenue, Brooklyn",brooklyn,90
Tatanka's Tincture Bar,ATA,90,"557 Classon Avenue, Brooklyn",brooklyn,90
The Fly,The Golden Glass Restaurant,86,"549 Classon Avenue, Brooklyn",brooklyn,90
Malaz West Indian & American Cuisine,C B Finger Licking Jamaican and West Indian Restaurant,86,"1168 Fulton Street, Brooklyn",1168 Fulton St,90
Fuel Juice Bar,El Morro Restaurant & Bar,86,"1183 Fulton Street, Brooklyn",Fulton,90
Halal,Halal,100,"1174 Fulton Street, Brooklyn",Fulton,90
L&A fudge+cake,C&L Of East Ocean Restaurant,86,"92 Lefferts Place, Brooklyn",brooklyn,90
Calaca,El Chalaco Peruvian Restaurant,75,"139 Putnam Avenue, Brooklyn",brooklyn,90
Hamilton's Healthy Haven,Theresa's Polish American Restaurant,86,"634 Classon Avenue, Brooklyn",brooklyn,90
Divine Express Catering,Sunshine Restaurant Food & Catering Inc,86,"992 Atlantic Avenue, Brooklyn",brooklyn,90
Palava Hut,Tropical Hut Restaurant,86,"992 Atlantic Avenue, Brooklyn",brooklyn,90
Tiptop Bar & Grill,Bar Sol De Quito Restaurant II,86,"432 Franklin Avenue, Brooklyn",brooklyn,90
Hartley's,Theresa's Polish American Restaurant,86,"14 Putnam Avenue, Brooklyn",brooklyn,90
Xochitl Taqueria,Mi Barrio Taqueria Restaurant,86,"1015 Fulton Street, Brooklyn",Fulton,90
Cary Cooks Inc,Sunshine Restaurant Food & Catering Inc,86,"70 Downing Street, Brooklyn",brooklyn,90
Masaki Sake and Sushi,Ambrosia Italian and Albanian Restaurant,86,"11 Putnam Avenue, Brooklyn",brooklyn,90
The Atlantic Boat Club,The Loft BKNY Restaurant & Lounge,86,"990 Atlantic Avenue, Brooklyn",brooklyn,90
Bakhtar Afghan Wali Baba Grill,Chili's Grill & Bar,86,"185-10 Hillside Avenue, Jamaica",185-10 Hillside Ave,90
Laverite,La Verite Restaurant,79,"18704 Hillside Avenue, Jamaica",Hillside Avenue,90
Foo On,Foo On Restaurant,90,"18304 Hillside Avenue, Jamaica",18304 Hillside Ave,90
El Patio,El Patio Restaurant,90,"180-05 Jamaica Avenue, Jamaica",Jamaica ave,90
Kaieteur Express II,Kaieteur,90,"8808 183rd Street, Jamaica",Street,90
Halalbee's,Halal,90,"182-26 Hillside Avenue, Jamaica",Hillside Avenue,90
Taste Of Punjab,Taste,90,"95-04 Van Wyck Expressway, South Richmond Hill",95-07 31st Ave,86
Gul M Corp,Incheon Restaurant Corp,86,"138-62 94th Avenue, Jamaica",4th Ave,90
E & J Deli & Grill Corp.,Deli & Grill Corp.,95,"143rd Street, Jamaica",Street,90
O Labrador Rest.,O N Coffee Shop Restaurant,86,"138-40 101st Avenue, Jamaica",1st ave.,90
O Lavrador,O Lavrador,100,"138-40 101st Avenue, Jamaica",1st ave.,90
D’Edge Jamaican Flame,Spring Gardens Jamaican Restaurant,86,"94-14 Sutphin Boulevard, Jamaica",Sutphin,90
G's Homestyle Cooking,G's Home Style Cooking,98,"9508 Sutphin Boulevard, Queens",Sutphin,90
Delicias Calenas,Delicia,90,"94-18 Sutphin Boulevard, Jamaica",Sutphin,90
A Churrasqueira,A Churrasqueira,100,"9529 Sutphin Boulevard, Jamaica",Sutphin,90
Shanghai,Shanghai,100,"95-37 Sutphin Boulevard, Jamaica",Sutphin,90
La Esmeraldita,ALDI,90,"9535 Sutphin Boulevard, Jamaica",Sutphin,90
Sangria,Sangria Tapas Bar & Restaurant,90,"95-41 Sutphin Boulevard, Jamaica",Sutphin,90
Africana,Africana Restaurant,90,"14612 Liberty Avenue, Jamaica",Liberty ave,90
Between the Bun,The Golden Glass Restaurant,86,"131-03 101st Avenue, Queens",1st ave.,90
El Mezcal,El Morro Restaurant & Bar,86,"13931 Jamaica Avenue, Jamaica",Jamaica ave,90
Taco Truck,Mexican Food Taco Truck,90,"143-0 Jamaica Avenue, Jamaica",Jamaica ave,90
La Vega,La Vega Bar and Restaurant,90,"8909 139th Street, Jamaica",9th St,90
El Rinconcito de los Sabores,El Rinconcito De Los Sabores Restaurant & Deli,90,"139-33 89th Avenue, Jamaica",139-33 89th Ave,90
Marina Resturant,Marina Restaurant,97,"144-03 Jamaica Avenue, Jamaica",144-03 Jamaica Ave,90
Cañas Restaurant and Bar,Restaurant,90,"144-07 Jamaica Avenue, Jamaica",144-07 Jamaica Ave,90
Cafe Latino,Stars Cafe & Restaurant,86,"14411 Jamaica Avenue, Jamaica",Jamaica ave,90
Los Almuerzos Mexicanos,El Rinconcito De Los Sabores Restaurant & Deli,86,"138-21 Jamaica Avenue, Jamaica",Jamaica ave,90
Jamaica Noodles,Sparkles Jamaica Restaurant,86,"145-08 Jamaica Avenue, Jamaica",Jamaica ave,90
Nuria's,Theresa's Polish American Restaurant,86,"138-16 Jamaica Avenue, Queens",Jamaica ave,90
Nuriaâs Restaurant Inc,Nuriaâs Restaurant Inc,100,"13816 Jamaica Avenue, Jamaica",13816 Jamaica Ave,90
Jardin de Los sabores deli food,Deli,90,"145-16, Jamaica","207-13 Jamaica Ave, Queens, NY 11428",86
Viña Del Mar,El Monstro del Sazon Pizzaria & Restaurant,86,"89-52 146th Street, Jamaica",46th St,90
La Chapincita,La Strada Pizzeria & Restaurant,86,"14307 Hillside Avenue, Jamaica",Hillside Avenue,90
El Sembrador,El Morro Restaurant & Bar,86,"143-09 Hillside Avenue, Queens",Hillside Avenue,90
Grace Kitchen,Halal Chinese Kitchen,86,"111-56 Van Wyck Expressway, South Ozone Park",16212 South Rd,86
Two Brothers African Cuisine.,Cheffy Two Caribbean & American Restaurant,86,"110-44 Sutphin Boulevard, Jamaica",Sutphin,90
Kelly D Jamaica American Rest,D Zion Restaurant,86,"11050 Sutphin Boulevard, Jamaica",Sutphin,90
China Sing,New China Sing,95,"109-16 Sutphin Boulevard, Queens",Sutphin,90
Halal Food,Halal Food,100,"113-18 Sutphin Boulevard, Jamaica",Sutphin,90
Port Royal,Port Royal Jamaican Restaurant,90,"113-7 Sutphin Boulevard, Jamaica",Sutphin,90
Ebenezer Restaurant & Pizzeria,Ebenezer Pizzeria & Restaurant,95,"11402 Sutphin Boulevard, Jamaica",Sutphin,90
Big Tree,Big Apple Restaurant,86,"114-20 Sutphin Boulevard, Jamaica",Sutphin,90
Vibes,Vibes,100,"143-06 Liberty Avenue, Jamaica",143-06 Liberty Ave,90
The Spot Caribbean Restaurant,Caribbean Restaurant,95,"10650 Sutphin Boulevard, Jamaica",Sutphin,90
G&L Restaurant & Bar,G's Restaurant & Bar,95,"10634 Sutphin Boulevard, Jamaica",Sutphin,90
Nutropia,Utopia,86,"105-02 Merrick Boulevard, Jamaica",196 23 Jamaica Avenue,86
Apple Garden,Apple Garden Chinese Food,90,"108-55 Guy R Brewer Boulevard, Jamaica",196 23 Jamaica Avenue,86
Yogi’s Restaurant,Yogi's Restaurant,100,"108-26 Guy R Brewer Boulevard, Jamaica",196 23 Jamaica Avenue,86
876 Crown Fried Chicken,Crown Fried Chicken,95,"108-10 Guy R Brewer Boulevard, Jamaica",37-10 114th St,86
Agape Christian Ministries Church,Church & Dey,86,"103-23 Merrick Boulevard, Jamaica",196 23 Jamaica Avenue,86
The Nourish Spot,The Golden Glass Restaurant,86,"107-05 Guy R Brewer Boulevard, Jamaica",107-01 37th Ave,86
Jamao Coffee Shop,Jamao Coffee Shop,100,"177-16 Liberty Avenue, Jamaica",Liberty ave,90
Tony's Pier,Tony's Pier Restaurant,90,"1 City Island Avenue, The Bronx",1 City Island Ave,90
Johnny's Reef,Theresa's Polish American Restaurant,86,"2 City Island Avenue, The Bronx",2 City Island Ave,90
Lobster Box Restaurant,Lobster Box,90,"34 City Island Avenue, The Bronx",34 City Island Ave,90
Sammy's Fish Box,Sammy's Fish Box Restaurant,90,"41 City Island Avenue, The Bronx",41 City Island Ave,90
Sammy's Shrimp Box,Sammy's Shrimp Box Restaurant,90,"64 City Island Avenue, The Bronx",64 City Island Ave,90
City Island Chinese Restaurant,City Island Chinese Resturant,98,"84 City Island Avenue, The Bronx",84 City Island Ave,90
Scavello's On The Island,Theresa's Polish American Restaurant,86,"101 City Island Avenue, The Bronx",1 City Island Ave,90
Ray's Cafe And Restaurant,Restaurant And Cafe,95,"205 City Island Avenue, The Bronx",196 23 Jamaica Avenue,86
The Black Whale,The Golden Glass Restaurant,86,"279 City Island Avenue, The Bronx",196 23 Jamaica Avenue,86
City Island Diner,Diner,90,"304 City Island Avenue, The Bronx",196 23 Jamaica Avenue,86
Archie's Tap & Table,Theresa's Polish American Restaurant,86,"536 City Island Avenue, The Bronx",196 23 Jamaica Avenue,86
Loretta's Pizza,Pizza Pizza,95,"3276 Layton Avenue, The Bronx",311 Avenue X,86
Louie & Ernie's Pizza,Pizza,90,"1300 Crosby Avenue, The Bronx",Crosby Avenue,90
Teresa's Gourmet Italian Ices,Teresa's,90,"1298 Crosby Avenue, The Bronx",Crosby Avenue,90
Six Happiness,Six Happiness,100,"1378 Crosby Avenue, The Bronx",Crosby Avenue,90
China Palace Restaurant,China palace chinese restaurant,95,"3014 Middletown Road, The Bronx",Middletown Road,90
Italia Cafè Lounge,Taipan Fusion Restaurant and Hookah Lounge,86,"3009 Middletown Road, The Bronx",Middletown Road,90
Pizza Gusta,Pizza Pizza,95,"2945 Bruckner Boulevard, The Bronx",729 Bruckner Blvd,86
JIMMY RYANS,Brother Jimmy's Nyc Restaurant Holdings,86,"3005 Middletown Road, The Bronx",Middletown Road,90
Sushi Q,Sushi Q,100,"1610 Crosby Avenue, The Bronx",1610 Crosby Ave,90
GOLDEN CHINA,Golden China,100,"2960 Middletown Road, The Bronx",Middletown Road,90
Golden Chef Healthy Food,Healthy Food,90,"1632 Crosby Avenue, The Bronx",Crosby Avenue,90
Lettuce Eat Inc,Sunshine Restaurant Food & Catering Inc,86,"1633 Crosby Avenue #5214, The Bronx",Crosby Avenue,90
Made In Puerto Rico,Step In Lounge and Restaurant,86,"3363 East Tremont Avenue Between Haskin Ave &, Baisley Avenue, The Bronx",403 Church Ave,86
Jenavie's Cafe,Theresa's Polish American Restaurant,86,"2920 Bruckner Boulevard, The Bronx",729 Bruckner Blvd,86
Slice & Co.,Hyco Restaurant Supply Co,86,"3439 East Tremont Avenue, The Bronx",196 23 Jamaica Avenue,86
Porto Prince Star,Star,90,"221-13 Linden Boulevard, Cambria Heights",188-13 Jamaica Ave,86
New Little Rabbit,Little Bandgladesh Restaurant,86,"22011 Linden Boulevard, Cambria Heights",19910 Linden Blvd,86
The Millennium Restaurant and Bakery,M Restaurant,90,"223-18 Linden Boulevard, Cambria Heights",147-18 Northern Blvd,86
Grey Dolphin,Sea Dolphin Kosher Restaurant,86,"223-20 Linden Boulevard, Queens",144-20,86
Meritta's Restaurant,Restaurant,90,"223-15 Linden Boulevard, Cambria Heights",91-15 31st Ave,86
Kam's Kitchen,Kam Luang Kitchen,87,"21709 Linden Boulevard, Queens",19910 Linden Blvd,86
Yummy Kitchen,Yummy Yummy,95,"216-13 Linden Boulevard, Queens",188-13 Jamaica Ave,86
Brasserie Creole,"Duet Brasserie, Bakery & Catering",86,"22702 Linden Boulevard, New York",New York,90
Braz Ritz Creole,2 West At The Ritz Carlton,86,"227-2 Linden Boulevard, Cambria Heights",2-01 50th Ave,86
Happy House,Happy House Seafood Restaurant,90,"116-36 Springfield Boulevard, Cambria Heights",Cristofordo Columbo Boulevard,86
Brooklyn Wing House,"Golden Forest Chinese Restaurant, Brooklyn Ny",86,"227-01 Linden Boulevard, Jamaica",171-01 Northern Blvd,86
Hot Pot,Hot Pot Jamaican & American Restaurant,90,"116-32 Springfield Boulevard, Cambria Heights",Cristofordo Columbo Boulevard,86
Irie Vibes,Vibes,90,"116-32 Springfield Boulevard, Cambria Heights",Cristofordo Columbo Boulevard,86
La P'tite Baguette Shop,La Roja de Todos Restaurant & Bakery,86,"229-24 Linden Boulevard, Cambria Heights",19910 Linden Blvd,86
229 Linden Restaurant,Restaurant,90,"22902 Linden Boulevard, Jamaica",19625 Jamaica Ave,86
T & G Flavors,S&&G Restaurant & Sweets,86,"228-01 Linden Boulevard, Cambria Heights",171-01 Northern Blvd,86
Detoxx Bar,El Morro Restaurant & Bar,86,"234-16 Linden Boulevard, Queens",19910 Linden Blvd,86
Seafood Kingz Inc,Sea,90,"205-41 Linden Boulevard, Queens",41-87 Bowne St,86
O G's,Two G's Coffee,90,"20503 Linden Boulevard, St. Albans",1100 60th St,86
Little Frankie pizza,Pizza,90,"205-01 Linden Boulevard, Jamaica",171-01 Northern Blvd,86
Frankie's Pizzeria,La Strada Pizzeria & Restaurant,86,"205-01 Linden Boulevard, Jamaica",171-01 Northern Blvd,86
CHINA WOK,China Wok,100,"201-05 Linden Boulevard, St. Albans",1100 60th St,86
"1976 Wings, Burgers & More",More Than A Pizza,86,"201-03 Linden Boulevard, Queens",156-03 Northern Blvd,86
Pizza Manna,Pizza Pizza,95,"200-33 Linden Boulevard, Jamaica",196 23 Jamaica Avenue,86
Aksaray,Star,68,"1618 East 16th Street, Brooklyn",brooklyn,90
Xin Xin 28 restaurant,Restaurant,90,"1624A East 16th Street, Brooklyn",brooklyn,90
YUNKEE,Yun Kee,92,"1426 Elm Avenue, Brooklyn",brooklyn,90
Focaccia Kosher Brick Oven Pizza,Focaccia Kosher Brick Oven Pizza,100,"1316 Avenue M, Brooklyn",brooklyn,90
Chap A Nosh,a taberna Portuguese restaurant,86,"1424 Elm Avenue, Brooklyn",brooklyn,90
Jerusalem II Pizza,Jerusalem II Pizza,100,"1424 Avenue M, Brooklyn",brooklyn,90
Hot Bagels,Hot Bagels Deli,90,"1508 Elm Avenue, Brooklyn",brooklyn,90
Glatt Mart,Edna's Glatt Kosher Delicatessen Restaurant,86,"1205 Avenue M, Brooklyn",5 ave,90
Gala Turkish Gyro,"Airways Pizza, Gyro & Restaurant",86,"1620 Avenue M, Brooklyn",brooklyn,90
Pizza Gyro Grill,Pizza Gyro Grill,100,"1620 Avenue M, Brooklyn",brooklyn,90
Wolf and Lamb,Ghoroa Sweets and Restaurant,86,"1635 Coney Island Avenue, Brooklyn",1635 Coney Island Ave,90
Joseph's Dream Burger,Theresa's Polish American Restaurant,86,"1702 Avenue M, Brooklyn",brooklyn,90
Masake,Meske,73,"1704 Avenue M, Brooklyn",brooklyn,90
Feast & Wine - Private Chefs & Events,Wine Restaurant,86,"1638 Coney Island Avenue, Brooklyn",brooklyn,90
Sushi on M,Ginpachi Sushi Restaurant,86,"1710 Avenue M, Brooklyn",brooklyn,90
Falafel Tanami,Benny's Kosher Pizza Falafel & Dairy Restaurant,86,"1305 East 17th Street, Brooklyn",brooklyn,90
Supremacy Hookah lounge,Taipan Fusion Restaurant and Hookah Lounge,86,"1626 Coney Island Avenue, Brooklyn",brooklyn,90
Benny's Brick Oven Pizza,Benny's Brick Oven Pizza,100,"1802 Avenue M, Brooklyn",brooklyn,90
Turkish Express,Turkish Cafe & Restaurant,86,"1013 Avenue H, Brooklyn",brooklyn,90
Sweetness USA,AMD USA (Restaurant Warehouse),86,"1150 Coney Island Avenue, Brooklyn",brooklyn,90
Gourmet Sweets,Gourmet Sweets & Restaurant,90,"1107 Coney Island Avenue, Brooklyn",brooklyn,90
Tandir Express,Cam Tak Express Restaurant,86,"3915 18th Avenue, Brooklyn",18th Avenue,90
"Pizza, Bagel, Burger",Pizza,90,"1117 McDonald Avenue, Brooklyn",brooklyn,90
Ankara,Kar,90,"4106 18th Avenue, Brooklyn",18th Avenue,90
McDonald Avenue Diner,Diner,90,"1111 McDonald Avenue, Brooklyn",brooklyn,90
Gyro King,King Chinese Restaurant,86,"1017 Foster Avenue, Brooklyn",brooklyn,90
Fried Chicken & Pizza,Kennedy Fried Chicken & Pizza,95,"1036 Coney Island Avenue, Brooklyn",brooklyn,90
UpSide Craft Burger,Craft,90,"4102 18th Avenue, Brooklyn",4102 18th Ave,90
Schnitzi,Schnitzi Food Truck,90,"1299 Coney Island Avenue, Brooklyn",brooklyn,90
Kosher Pizza King,Kosher Pizza,95,"3916 18th Avenue, Brooklyn",18th Avenue,90
Pakiza,Pakiza Restaurant,90,"1032 Coney Island Avenue, Brooklyn",1032 Coney Island Ave,90
Green Pavilion Restaurant,Green Pavilion Restaurant,100,"4307 18th Avenue ste a, Brooklyn",4307 18th Ave,90
Lahori Chilli,Lahori Chilli Restaurant and Sweets,90,"1026 Coney Island Avenue, Brooklyn",1026 Coney Island Ave,90
Glatt Kosher Family,Emone Korean Family Restaurant,86,"4305 18th Avenue, Brooklyn",18th Avenue,90
Gyro Hut,"Airways Pizza, Gyro & Restaurant",86,"1043 Coney Island Avenue, Brooklyn",brooklyn,90
First Cook,First Choice Restaurant,86,"2305 Stillwell Avenue, Brooklyn",brooklyn,90
Harway Pizza Gyro Falafel,Harway Pizza Gyro Falafel Restaurant,95,"2863 Harway Avenue, Brooklyn",2863 Harway Ave,90
La Casa Bella,Casa,90,"2579 Cropsey Avenue, Brooklyn",brooklyn,90
China Moon,China Moon,100,"2575 Cropsey Avenue, Brooklyn",brooklyn,90
The Lights of Baku,C&L Of East Ocean Restaurant,86,"2707 86th Street, Brooklyn",brooklyn,90
L&B Spumoni Gardens,L&B Spumoni Gardens,100,"2725 86th Street, Brooklyn",brooklyn,90
Doroj Fried Chicken & Pizza,Pizza Fried Chicken,95,"2637 86th Street, Brooklyn",brooklyn,90
New Double Happiness,New Fulin Kwok Seafood Restaurant,86,"2637 86th Street, Brooklyn",brooklyn,90
Empire Taco China,China Gourmet Chinese Restaurant,86,"2807 Cropsey Avenue, Brooklyn",brooklyn,90
New Taste of China,Taste Of China,95,"2793 86th Street, Brooklyn",brooklyn,90
Cropsey Pizza,Pizza Pizza,95,"2811 Cropsey Avenue, Brooklyn",2811 Cropsey Ave,90
Daddy’s pizza & Mexican Food,Pizza,90,"2625 86th Street, Brooklyn",brooklyn,90
daddy's pizza & pasta,Daddy's Pizza & Pasta,100,"2625 86th Street, Brooklyn",brooklyn,90
John's Deli,John's Deli,100,"2033 Stillwell Avenue, Brooklyn",brooklyn,90
New York Fried Chicken & Pizza,New York Fried Chicken & Pizza,100,"2837 86th Street, Brooklyn",brooklyn,90
United Express Deli & grill,United Express Deli,95,"237 Avenue X, Brooklyn",brooklyn,90
Brother Lico,Brother's II Pizzeria,86,"2837 86th Street, Brooklyn",brooklyn,90
Sushi Avenue X,Avenue A Sushi,88,"241 Avenue X, Brooklyn",brooklyn,90
Papanadas,Empanada Sonata Food Truck,70,"2268 West 7th Street, Brooklyn",brooklyn,90
Metropolitan,Metropolitan Hospital Center,90,"2555 McDonald Avenue, Brooklyn",brooklyn,90
Skyline Billiards & Bar,La Kuchara Ecuadorian Restaurant Bar,86,"2515 McDonald Avenue, Brooklyn",brooklyn,90
Mr Tang Restaurant,TANG,90,"253 Avenue X, Brooklyn",brooklyn,90
Famous,Famous Pollio Restaurant,90,"253 Avenue X, Brooklyn",brooklyn,90
Knapp Pizza II,Knapp Pizza II,100,"261 Avenue X, Brooklyn",brooklyn,90
Hunan Cottage,Ott,90,"293 Avenue X, Brooklyn",brooklyn,90
Dolma restaurant,Restaurant Dolma,95,"311 Avenue X, Brooklyn",311 Avenue X,90
MatchPoint Cafe,Stars Cafe & Restaurant,86,"2781 Shell Road 2nd floor, Brooklyn",brooklyn,90
Deli Pizza Luncheonette Corporation,Pizza,90,"603 Avenue Z, Brooklyn",brooklyn,90
Sunrise,Sunrise Cuisine Restaurants,90,"605 Avenue Z, Brooklyn",5 ave,90
Zee Deli & Grill,Deli & Grill,95,"373 Neptune Avenue, Brooklyn",brooklyn,90
Oriental Kitchen,Chang Jiang Kitchen Chinese Restaurant,86,"2901 Ocean Parkway, Brooklyn",brooklyn,90
Danny's Cafe,Andy's Cafe,87,"Danny's Cafe, 626 Sheepshead Bay Road, Brooklyn",brooklyn,90
718 Bistro,Luna Asian Bistro and Japanese Rooftop Restaurant 日本料理,86,"360 Neptune Avenue, Brooklyn",brooklyn,90
Happy Wok,Happy Wok,100,"2875 West 8th Street #10, Brooklyn",brooklyn,90
Toné,Tony's Pier Restaurant,90,"265 Neptune Avenue, Brooklyn",brooklyn,90
Taqueria El Buen Gusto,El Buen Gusto,90,"277 Neptune Avenue, Brooklyn",277 Neptune Ave,90
Toné Café,Washington Cafe & Pizza Restaurant,90,"265 Neptune Avenue, Brooklyn",brooklyn,90
Ika Sushi,Ikura Sushi,90,"8512 Bay Parkway, Brooklyn",brooklyn,90
86 Fu Kee,Fu Man Lou Restaurant,86,"2211 86th Street, Brooklyn",2211 86th St,90
Superior Wonton Noodles,满粥麵 Wonton Noodle Garden Restaurant,86,"2145 86th Street, Brooklyn",brooklyn,90
Istanbul Bay Turkish Restaurant Bensonhurst,Restaurant,90,"2202 86th Street, Brooklyn",2202 86th St,90
Istanbul Bay Bensonhurst,Istanbul Turkish Fast Food & Restaurant,86,"2202 86th Street, Brooklyn",2202 86th St,90
Tortillas King,King Chinese Restaurant,86,"2238 86th Street, Brooklyn",2238 86th St,90
Bagel Bazaar,Baz Bagel and Restaurant,86,"2208 86th Street, Brooklyn",brooklyn,90
Twisted wings,Wings Chinese Restaurant,86,"8604 Bay Parkway, Brooklyn",brooklyn,90
La Bella Pizza Express,La Bella Pizza Express,100,"2178 86th Street, Brooklyn",2178 86th St,90
Aloha Teriyaki Grill,Golden Krust Caribbean Bakery and Grill,86,"2238 86th Street, Brooklyn",2238 86th St,90
Seafood Palace,Sea,90,"2172 86th Street, Brooklyn",2172 86th St,90
Yue Xin,Yue Xin Restaurant,90,"2172 86th Street, Brooklyn",2172 86th St,90
Sun King Restaurant,Sun Hing Restaurant,95,"2172 86th Street, Brooklyn",2172 86th St,90
Ichi Sushi,Ginpachi Sushi Restaurant,86,"8609 Bay Parkway, Brooklyn",brooklyn,90
Grotta Azzurra Pizzeria & Restaurant,Restaurant,90,"8505 21st Avenue, Brooklyn",8505 21st Ave,90
Ninja Sushi,Ginpachi Sushi Restaurant,86,"2274 86th Street, Brooklyn",2274 86th St,90
Bad Boys Pizza,Bad Boys Pizza,100,"2313 86th Street, Brooklyn",brooklyn,90
Cafe Lily,Stars Cafe & Restaurant,86,"42 Avenue O, Brooklyn",brooklyn,90
Best Pizza & Chicken,Pizza & Chicken,95,"24 Avenue O, Brooklyn",brooklyn,90
Arnor Crepes & Bubble Tea,Sweetwaters Coffee & Tea 5th Ave. Park Slope,86,"1425 West 10th Street, Brooklyn",brooklyn,90
Szechuan Garden,szechuan garden restaurant,90,"84 Avenue O, Brooklyn",brooklyn,90
Ciao Pizza Pasta,Ciao Pizza & Pasta,95,"7116 Bay Parkway, Brooklyn",brooklyn,90
Bay Parkway Cafe,Cafe 47,86,"6812 Bay Parkway, Brooklyn",brooklyn,90
Torre's,Torre's Pizzeria & Italian Restaurant,90,"6808 Bay Parkway, Brooklyn",brooklyn,90
Fugu Sushi,Ginpachi Sushi Restaurant,86,"6804 Bay Parkway, Brooklyn",brooklyn,90
Howong,HoWong Restaurant 好旺,90,"6720 Bay Parkway, Brooklyn",brooklyn,90
Golden Bay Parkway Restaurant,Golden Bay Parkway Restaurant Inc,95,"6712 Bay Parkway, Brooklyn",brooklyn,90
Jing Xin Soon,Wing xin chinese restaurant,86,"6627 Bay Parkway, Brooklyn",brooklyn,90
China City,China City,100,"234 Kings Highway, Brooklyn",brooklyn,90
Royal Garden Tbilisi,Garden 13 Dairy Restaurant and Pizza,86,"230 Kings Highway, Brooklyn",brooklyn,90
Almaz,Almaz Restaurant,90,"238 Kings Highway, Brooklyn",brooklyn,90
Super Taco deli restaurant,Deli Restaurant,90,"261 Kings Highway, Brooklyn",brooklyn,90
La Palina,La Palina,100,"159 Avenue O, Brooklyn",159 Avenue O,90
Pizzeria Di Mola,La Strada Pizzeria & Restaurant,86,"176 Avenue O, Brooklyn",brooklyn,90
Cafe Georgian Resteraunt,Cafe 47,86,"2307 65th Street, Brooklyn",2307 65th St,90
Q.S. Palace,Theresa's Polish American Restaurant,86,"2305 65th Street, Brooklyn",65th street,90
Djerdan Burek,Djerdan Balkan Restaurant In NYC,86,"2283 65th Street, Brooklyn",65th street,90
Arberia,Farmbria Food Center,77,"2325 65th Street, Brooklyn",2325 65th St,90
Nasima's Express,Theresa's Polish American Restaurant,86,Brooklyn,brooklyn,100
Qiu's House,Theresa's Polish American Restaurant,86,"2229 65th Street, Brooklyn",65th street,90
Café 28,The River Café,86,"28 Throop Avenue, Brooklyn",brooklyn,90
Cozzi Pizza,Cozzi Pizza #1,95,"584 Broadway, Brooklyn",brooklyn,90
Chicken Express,Pizza & Chicken Express,90,"582 Broadway, Brooklyn",brooklyn,90
Empanaderia NYC,The NYC Bull - Restaurant & Rotisserie,86,"630 Flushing Avenue, Brooklyn",brooklyn,90
Sheli,Sheikh Umar F. Restaurant,72,"492 Broadway, Brooklyn",492 Broadway,90
Mozzarella Kosher,Simon Sez Kosher Restaurant,86,"264 Lee Avenue, Brooklyn",brooklyn,90
China Express,China Express,100,"192 Union Avenue, Brooklyn",brooklyn,90
Cheesy Kosher,Simon Sez Kosher Restaurant,86,"314 Marcy Avenue, Brooklyn",brooklyn,90
Evil Olive Pizza Bar,Evil Olive Pizza & Bar,95,"198 Union Avenue, Brooklyn",brooklyn,90
Café Au Lee,Lee's,86,"193 Lee Avenue, Brooklyn",brooklyn,90
Habanero Café,Crotona's Café Restaurant,86,"715 Flushing Avenue, Brooklyn",brooklyn,90
Red Ryder,Red Star Chinese Restaurant,86,"685 Broadway, Brooklyn",85 Broadway,90
Melting Pot Cuisine,Annie Chan's Japanese Cuisine Restaurant,86,"685 Broadway, Brooklyn",85 Broadway,90
Sazon Perez,Sazon Perez,100,"417 South 4th Street, Brooklyn",brooklyn,90
Williamsburg Pizza,Williamsburg Pizza,100,"265 Union Avenue, Brooklyn",brooklyn,90
19 Café,Mexico Jophsua 19 Grocery & Restaurant,86,"84 Manhattan Avenue, Brooklyn",brooklyn,90
Brooklyn Ball Factory,"Golden Forest Chinese Restaurant, Brooklyn Ny",86,"95 Montrose Avenue, Brooklyn",brooklyn,90
Fiction Cafe/Bar,El Morro Restaurant & Bar,86,"308 Hooper Street, Brooklyn",brooklyn,90
Nam Nam,Mekong Thai & Vietnamese Restaurant,86,"109 Montrose Avenue, Brooklyn",brooklyn,90
Testo,Whitestone Garden Restaurant,90,"141 Leonard Street, Brooklyn",brooklyn,90
Pica Pica,Pica Pica Restaurant,90,"392 Broadway, Brooklyn",392 Broadway,90
Mexico 2000,Mexico 2000,100,"369 Broadway, Brooklyn",brooklyn,90
Dotory,Cristo's food doctor,75,"353 Broadway, Brooklyn",brooklyn,90
Taco Santana,Mister Taco Mexican Restaurant,86,301 Keap Street,Street,90
Greenfelds,Ehrenfeld's Food Market,72,"128 Lee Avenue, Brooklyn",brooklyn,90
Grill On Lee,Golden Krust Caribbean Bakery and Grill,86,"108 Lee Avenue, Brooklyn",brooklyn,90
Green & Ackerman's,Green and Ackerman Bakery,88,"216 Ross Street, Brooklyn",216 Ross St,90
Rocco Pizza,Rocco Pizza,100,"765 Dekalb Avenue, Brooklyn",brooklyn,90
BKLYN Blend,Total Blend Restaurant,86,"194 Tompkins Avenue, Brooklyn",Tompkins Ave,90
Good Friends Chinese Restaurant,Good Friends Chinese Restaurant,100,"270 A Tompkins Avenue, Brooklyn",Tompkins Ave,90
Guacuco Bed-Stuy,Arepera Guacuco Restaurant,86,"360 Throop Avenue, Brooklyn",brooklyn,90
KLEINBERG'S,Theresa's Polish American Restaurant,86,"165 Tompkins Avenue, Brooklyn",Tompkins Ave,90
Petisco Brazuca,OTB,60,"833 Dekalb Avenue, Brooklyn",brooklyn,90
New Hardee,New Hardee Chinese Restaurant,90,"835 Dekalb Avenue, Brooklyn",835 Dekalb Ave,90
Sally’s,Sally's Restaurant,90,"151 Tompkins Avenue, Brooklyn",Tompkins Ave,90
Willoughby General,Gen,90,"518A Willoughby Avenue, Brooklyn",brooklyn,90
Samurai Papa,Papa Chepe Restaurant,86,"594 Lafayette Avenue, Brooklyn",Lafayette Ave,90
U Like,"""U"" Like",95,"602 Marcy Avenue, Brooklyn",brooklyn,90
"Crown Fried Chicken, Coffee Shop & Pizza",Crown Fried Chicken & Pizza,95,"308 Tompkins Avenue, Brooklyn",Tompkins Ave,90
Kennedy Pizza & Chicken,Kennedy Pizza & Chicken,100,"294 Nostrand Avenue #4533, Brooklyn",Nostrand Avenue,90
Khooneye Mahdokht,One & One,86,"2 Pulaski Street, Brooklyn",brooklyn,90
Ho Wah,New Ho Wah,90,"551 Gates Avenue, Brooklyn",brooklyn,90
Cpt. Dan's Good Time Tavern,Moti's,86,"497 Greene Avenue, Brooklyn",7 Greene Ave,90
Linda Asian Kitchen,Chang Jiang Kitchen Chinese Restaurant,86,"882 Dekalb Avenue, Brooklyn",brooklyn,90
"Fermento - caffe’,vino,cucina",Vittorio Cucina Regionale Italiana Restaurant,86,"358 Kosciuszko Street #1412, Brooklyn",brooklyn,90
Due Fratelli Pizza,Due,90,"894 Dekalb Avenue, Brooklyn",brooklyn,90
Mary's Coffee Shop,Mary's Coffee Shop,100,"907 Dekalb Avenue, Brooklyn",brooklyn,90
Sajoma,Sajoma Restaurant,90,"909 Dekalb Avenue, Brooklyn",brooklyn,90
Brooklyn Roots,"Golden Forest Chinese Restaurant, Brooklyn Ny",86,"256 Marcus Garvey Boulevard, Brooklyn",brooklyn,90
Manna Soul Food,Manna's Soul Food,95,"102 Marcus Garvey Boulevard, Brooklyn",brooklyn,90
Fu En,New Fu En Sun Hing Restaurant,90,"104 Marcus Garvey Boulevard, Brooklyn",brooklyn,90
King Kitchen,Peking Kitchen,92,"158 Lewis Avenue, Brooklyn",brooklyn,90
TB Coffee House,TB Coffee House,100,"578 Myrtle Avenue, Brooklyn",brooklyn,90
Ganni's Pizza,Pizza Pizza,95,"652 Myrtle Avenue, Brooklyn",brooklyn,90
Tepango,TANG,73,"568 Myrtle Avenue, Brooklyn",brooklyn,90
Chinantla,Chinantla Restaurant,90,"657 Myrtle Avenue, Brooklyn",657 Myrtle Ave,90
Grace Kitchen,Halal Chinese Kitchen,86,"545 Myrtle Avenue, Brooklyn",brooklyn,90
U-gu,Tien Fu Guong Chinese Restaurant,90,"541-B Myrtle Avenue, Brooklyn",brooklyn,90
Paradise Gourmet Deli & Grill,Paradise Gourmet Deli,95,"155 Park Avenue, Brooklyn",brooklyn,90
Sushi K Bar,El Morro Restaurant & Bar,86,"888 Bedford Avenue, Brooklyn",brooklyn,90
New China Garden,China Garden,95,"679 Myrtle Avenue, Brooklyn",brooklyn,90
La Villa Cafe Restaurant,La Cafe Restaurant,95,"505 Dekalb Avenue, Brooklyn",505 Dekalb Ave,90
Bergen Bagels on Myrtle,Gen,90,"536 Myrtle Avenue, Brooklyn",brooklyn,90
Toad Style,Belky's Home Style Cooking Restaurant,86,"93 Ralph Avenue, Brooklyn",brooklyn,90
Cafe On Ralph,Stars Cafe & Restaurant,86,"86 Ralph Avenue, Brooklyn",brooklyn,90
Indian Curry Heights,C B Finger Licking Jamaican and West Indian Restaurant,86,"125 Ralph Avenue, Brooklyn",brooklyn,90
Bklyn Pizza,Bklyn Pizza,100,"36 Ralph Avenue, Brooklyn",brooklyn,90
Carrizal,Jorge's New Carrizal Restaurant,90,"1346 Broadway, Brooklyn",1346 Broadway,90
Weng's Garden,Feng's Garden,92,"872 Hancock Street, Brooklyn",brooklyn,90
Bed-Stuy Fish Fry,Fish,90,"801 Halsey Street #1, Brooklyn",Halsey,90
Cuts & Slices,Li Li,86,"93 Howard Avenue, Brooklyn",brooklyn,90
The Green Vegan Monsta,The Loft BKNY Restaurant & Lounge,86,"1470 Broadway, Brooklyn",brooklyn,90
Kalina Bar & Grill,Bar Sol De Quito Restaurant II,86,"1476 Broadway, Brooklyn",1476 Broadway,90
El Rey V Restaurant,El Rey Restaurant,95,"1310 Broadway, Brooklyn",1310 Broadway,90
Le Fatima,Le Fatima Bar & Grill Restaurant,90,"1474 Broadway, Brooklyn",1474 Broadway,90
BK Pizza,Pizza Pizza,95,"1491 Broadway, Brooklyn",brooklyn,90
Carpé Vino Tasting Room,Neptune Room Restaurant and Bait Bar,86,"144 Decatur Street, Brooklyn",brooklyn,90
Leon Kitchen,Halal Chinese Kitchen,86,"1610 Fulton Street, Brooklyn",Fulton,90
Fulton China,Fulton China Restaurant,90,"1610 Fulton Street, Brooklyn",Fulton,90
Ocean on Fulton,C&L Of East Ocean Restaurant,86,"1590 Fulton Street, Brooklyn",Fulton,90
Peaches,Peaches Restaurant,90,"393 Lewis Avenue, Brooklyn",393 Lewis Ave,90
b+c restaurants,ABC Restaurant,90,"393 Lewis Avenue, Brooklyn",393 Lewis Ave,90
Blue Cafe,Blue,90,"1563 Fulton Street B, Brooklyn",Fulton,90
ZACA CAFE,Stars Cafe & Restaurant,86,"426 Marcus Garvey Boulevard, Brooklyn",brooklyn,90
swiingz restaurant,Restaurant,90,"1542 Fulton Street, Brooklyn",Fulton,90
TreeHouse BK,The Flat's BK Speed Coffee,86,"417 Marcus Garvey Boulevard, Brooklyn",brooklyn,90
Brooklyn Beso,Brooklyn Beso,100,"370 Lewis Avenue, Brooklyn",370 Lewis Ave,90
Oaxaca Tacos,Tacos Puebla Restaurant,86,"478 Halsey Street, Brooklyn",Halsey,90
Tepache,Food Universe Marketplace,69,"361 Halsey Street, Brooklyn",Halsey,90
LunÀtico,Deli On Atlantic,69,"486 Halsey Street, Brooklyn",Halsey,90
Pizza Chef,Pizza Pizza,95,"1512 Fulton Street, Brooklyn",Fulton,90
Crown Fried Chicken & Burger,Crown Fried Chicken,95,"1519 Fulton Street, Brooklyn",Fulton,90
Essence Bar & Restaurant,Essence Bar & Restaurant,100,"1662 Atlantic Avenue, Brooklyn",1662 Atlantic Ave,90
Ma-n-Pop,All Refrigeration 'N Restaurant Equipment,86,"349 Lewis Avenue, Brooklyn",brooklyn,90
Saraghina,Star,68,"350 Lewis Avenue, Brooklyn",brooklyn,90
Thee Seven Sisters,Sisters,90,"245 Ralph Avenue, Brooklyn",brooklyn,90
Ralph Ocean,Ocean Port Restaurant,86,"241 Ralph Avenue, Brooklyn",241 Ralph Ave,90
Cartaz,Carita Silvio Restaurant,75,"233 Ralph Avenue, Brooklyn",brooklyn,90
Lee's Kitchen,Lee's,90,"1884 Fulton Street, Brooklyn",Fulton,90
Palace On Fulton Pizza & Chicken,"Palace On Fulton Pizza, Chicken, Pasta & Halal",95,"1882 Fulton Street, Brooklyn",Fulton,90
Uncle Fred’s,Theresa's Polish American Restaurant,86,"202 Ralph Avenue, Brooklyn",brooklyn,90
T-Roc Homestyle Cooking,Belky's Home Style Cooking Restaurant,86,"194 Ralph Avenue, Brooklyn",brooklyn,90
Mitchell's Kitchen,Hell's Kitchen,88,"261 Patchen Avenue, Brooklyn",brooklyn,90
Sonora,Sonoma Coffee Cafe,75,"174 Howard Avenue, Brooklyn",brooklyn,90
DABAKH-KINE,Africa Kine Restaurant,86,"1933 Fulton Street, Brooklyn",Fulton,90
Indian Deli Heights,Deli,90,"159-141 Howard Avenue, Brooklyn",brooklyn,90
Greedi Kitchen / Greedi Vegan Bed Stuy,Halal Chinese Kitchen,86,"180 Ralph Avenue, Brooklyn",brooklyn,90
Mama Kitchen NY,"Golden Forest Chinese Restaurant, Brooklyn Ny",86,"7 Rochester Avenue, Brooklyn",brooklyn,90
Island Chef Cuisine,Annie Chan's Japanese Cuisine Restaurant,86,"7 Rochester Avenue, Brooklyn",brooklyn,90
Triple D's Place,Theresa's Polish American Restaurant,86,"1377 East New York Avenue, Brooklyn",New York,90
odessa beauty and barber salon,Odessa,90,"477 Saratoga Avenue, Brooklyn",brooklyn,90
Kolachi chicken & burgers,Chicken Festival,86,"1476 Pitkin Avenue, Brooklyn",brooklyn,90
Villa Castillo,Villa Castillo,100,"1474 Pitkin Avenue # A, Brooklyn",1474 Pitkin Ave,90
New China Wok,New China,95,"1468 Pitkin Avenue, Brooklyn",brooklyn,90
Lebron,Lebron Restaurant,90,"1567 Pitkin Avenue, Brooklyn",1567 Pitkin Ave,90
Kolachi Chicken & Burger,Chicken Festival,86,"1574 Pitkin Avenue, Brooklyn",brooklyn,90
Crown Fried Chicken And Pizza Shop,Crown Fried Chicken & Pizza,95,"407 Saratoga Avenue, Brooklyn",brooklyn,90
Zhangs Garden,Garden 13 Dairy Restaurant and Pizza,86,"1661 Saint Johns Place, Brooklyn",brooklyn,90
Gerizim Burger Factory,Burger King,86,"560 Ralph Avenue, Brooklyn",brooklyn,90
Mannys,Mannys Food Market,90,"1435 East New York Avenue, Brooklyn",New York,90
Gerizim Cafe,Stars Cafe & Restaurant,86,"560 Ralph Avenue, Brooklyn",brooklyn,90
Deli basket,Deli,90,"1700 Sterling Place, Brooklyn",brooklyn,90
Real jamaican food,famous restaurant Chinese food,86,"1638 Eastern Parkway, Brooklyn",brooklyn,90
Adamz Deli & Grill,Deli,90,Brooklyn,brooklyn,100
Empire Kitchen,Empire Kitchen,100,"1575 Park Place, Brooklyn",brooklyn,90
Ah Yah Suh Nice,Nicey Nice Jamaican Restaurant,86,"258 Buffalo Avenue, Brooklyn",brooklyn,90
Dong Fang Kitchen,Chang Jiang Kitchen Chinese Restaurant,86,"433A Ralph Avenue, Brooklyn",brooklyn,90
Crown Chicken & Pizza,Crown Fried Chicken & Pizza,95,"431 Ralph Avenue, Brooklyn",brooklyn,90
New York Fried Chicken,New York Fried Chicken & Pizza,95,"102 Saratoga Avenue, Brooklyn",102 Saratoga Ave,90
Top Tier Catering,Sunshine Restaurant Food & Catering Inc,86,"638 Decatur Street, Brooklyn",638 Decatur St,90
La Nova Pizza,La Nova Pizza,100,"1636 Broadway, Brooklyn",brooklyn,90
El Burrito Nacho,El Morro Restaurant & Bar,86,"1636 Broadway, Brooklyn",brooklyn,90
Food cart,Food Cart,100,"960 Halsey Street, Brooklyn",Halsey,90
Angie's Breakfast Spot,Theresa's Polish American Restaurant,86,"1637 Broadway, Brooklyn",brooklyn,90
Liberty Soul Food,famous restaurant Chinese food,86,"1639 Broadway, Brooklyn",brooklyn,90
Loma Coffee Shop,Coffee Shop,95,"1571 Broadway, Brooklyn",1571 Broadway,90
Flamin' Chicken & Pizza,Pizza,90,"1595 Broadway, Brooklyn",brooklyn,90
Tandoori Masala Indian Cuisine,C B Finger Licking Jamaican and West Indian Restaurant,86,"1695 Broadway, Brooklyn",brooklyn,90
Pasha Pizza,Pizza Pizza,95,"665 Classon Avenue, Brooklyn",brooklyn,90
Neptune Diner II,Diner,90,"699 Classon Avenue, Brooklyn",brooklyn,90
Puerto Viejo,El Viejo Yayo Restaurant #2,86,"564 Grand Avenue, Brooklyn",564 Grand Ave,90
Nacho Macho Taco,Mister Taco Mexican Restaurant,86,"417 Prospect Place, Brooklyn",brooklyn,90
Deacon Blue Cafe,Blue,90,"417 Prospect Place, Brooklyn",brooklyn,90
Rangoon,TANG,68,"500 Prospect Place, Brooklyn",brooklyn,90
Udom Thai,Udom Thai Restaurant & Bar,90,"661 Washington Avenue, Brooklyn",661 Washington Ave,90
MeMe's Diner,Diner,90,"657 Washington Avenue, Brooklyn",brooklyn,90
Gen,Gen,100,"659 Washington Avenue, Brooklyn",659 Washington Ave,90
Citrico,Ciro,73,"681 Washington Avenue, Brooklyn",brooklyn,90
Muse,Museum of Arts & Design (MAD),90,"689 Washington Avenue, Brooklyn",brooklyn,90
Covenhoven,Bus Stop Convenience Store,63,"730 Classon Avenue, Brooklyn",brooklyn,90
Mi Tierra,Mi Tierra Restaurant,90,"732 Classon Avenue, Brooklyn",732 Classon Ave,90
Mexicocina Agaveria,Agra,68,"708 Washington Avenue, Brooklyn",brooklyn,90
Taste of the City Gourmet,Taste,90,"539 Park Place, Brooklyn",brooklyn,90
Brooklyn Subs,Brooklyn Sub,96,"751 Bergen Street, Brooklyn",brooklyn,90
Soulfood Caterers,Jonaki Caterers Restaurant (formerly Steve's Utica Jerk Center),86,"88a Kingston Avenue, Brooklyn",brooklyn,90
New Cheung Lee Kitchen,New Fulin Kwok Seafood Restaurant,86,"108 Kingston Avenue, Brooklyn",brooklyn,90
Seafood Heaven,Sea,90,"88 Kingston Avenue, Brooklyn",brooklyn,90
Crown Chicken and Pizza,Crown chicken and pizza,100,"116 Kingston Avenue, Brooklyn",brooklyn,90
The Bergen,Gen,90,"1299 Bergen Street, Brooklyn",brooklyn,90
MEAT,Continental Meat and Food,90,123 Kingston Avenue,125 Kingston Avenue,95
Cherry Hill Gourmet,China Gourmet Chinese Restaurant,86,"72 Kingston Avenue, Brooklyn",brooklyn,90
Cas West Indian & American Restaurant,Cas West Indian & American Restaurant,100,"135 Kingston Avenue, Brooklyn",135 Kingston Ave,90
Olive garden,Olive Garden,100,Brooklyn,brooklyn,100
Platano Power,ATA,90,Brooklyn,brooklyn,100
Spudz,SALUD,60,"1460 Fulton Street, Brooklyn",Fulton,90
A Gusto,La Gusto Pizza Restaurant,90,"1450 Fulton Street, Brooklyn",Fulton,90
Soldier,Original's Soldier Jamaican Restaurant,90,"1444 Fulton Street, Brooklyn",Fulton,90
Gino's Cucina Brick Oven Pizza,Pizza,90,"723 Washington Avenue, Brooklyn",brooklyn,90
Kimchi Grill,Golden Krust Caribbean Bakery and Grill,86,"766 Washington Avenue, Brooklyn",brooklyn,90
Korean Bbq & More,146-13 Northern Blvd Korean Restaurant,86,"766 Washington Avenue, Brooklyn",brooklyn,90
Tom’s,Tom's Restaurant,90,"782 Washington Avenue, Brooklyn",782 Washington Ave,90
Ogliastro Pizza Bar,Ogliastro Pizza Bar,100,"784 Washington Avenue, Brooklyn",brooklyn,90
Lowerline,Li Li,86,"794 Washington Avenue, Brooklyn",brooklyn,90
Shane's Brooklyn,Theresa's Polish American Restaurant,86,"794 Washington Avenue, Brooklyn",brooklyn,90
Eve's Lounge,Theresa's Polish American Restaurant,86,"769 Washington Avenue, Brooklyn",brooklyn,90
Yummy Chinese Food,Yummy Chinese Food,100,"985 Nostrand Avenue, Brooklyn",Nostrand Avenue,90
Gloria's In & Out,Gloria's,90,"987 Nostrand Avenue, Brooklyn",Nostrand Avenue,90
Veggies,Golden Eggies Food Cart,77,"994 Nostrand Avenue, Brooklyn",Nostrand Avenue,90
La Estrella Del Castillo,La estrella,90,"948 Nostrand Avenue, Brooklyn",Nostrand Avenue,90
Malinche Mexican Restaurant,Malinche Mexican Restaurant,100,"1018 Nostrand Avenue, Brooklyn",Nostrand Avenue,90
Kennedy fried Chicken,Kennedy Fried Chicken,100,"301-305 Sterling Street, Brooklyn",brooklyn,90
ALENBI,Valentino's Pizzeria & Restaurant,75,"887 Nostrand Avenue, Brooklyn",Nostrand Avenue,90
Lenny's Pizza,Lenny's Pizza,100,"1046 Nostrand Avenue #4119, Brooklyn",Nostrand Avenue,90
New Garden,New Garden,100,1060 Nostrand Avenue,Nostrand Avenue,95
Fresh Remedy Health And Juice Bar,Megawash Fresh Meadows,86,"354 Rogers Avenue, Brooklyn",brooklyn,90
Grüit Garden And Eatery,Ambrosia Italian and Albanian Restaurant,86,"252 Empire Boulevard, Brooklyn",brooklyn,90
Vee's,Vee's Jamaican Restaurant,90,"896 Nostrand Avenue, Brooklyn",Nostrand Avenue,90
Empanada City,Green City Restaurant,86,"363 Lincoln Road, Brooklyn",brooklyn,90
Annie 88 Express,Annie Chan's Japanese Cuisine Restaurant,86,"880 Nostrand Avenue, Brooklyn",Nostrand Avenue,90
Bunch-O-Bagels,O N Coffee Shop Restaurant,86,"361 Troy Avenue, Brooklyn",Troy Ave,90
Education Institution Inc,Sunshine Restaurant Food & Catering Inc,86,"1552 Carroll Street, Brooklyn",brooklyn,90
Mermelstein Takeout,Tak king,64,"351 Kingston Avenue, Brooklyn",brooklyn,90
Izzy's BBQ Smokehouse,Theresa's Polish American Restaurant,86,"397 Troy Avenue, Brooklyn",Troy Ave,90
Prime Avenue,Church Avenue Restaurant,86,"377 Kingston Avenue, Brooklyn",brooklyn,90
Holesome Bagels,Kennedy Fried Chicken / Pizza King / Sunrise Bagels,86,"333 Kingston Avenue, Brooklyn",brooklyn,90
Koshertown Supermarket,Food Universe Marketplace Supermarket,86,"469 Albany Avenue, Brooklyn",brooklyn,90
Kingston Pizza (Kosher),Kingston Kosher Pizza,95,"395 Kingston Avenue, Brooklyn",brooklyn,90
Phomen Noodles restaurant,Restaurant,90,"411 Troy Avenue, Brooklyn",Troy Ave,90
Noribar Crown Heights,Nori,90,"326 Kingston Avenue, Brooklyn",brooklyn,90
Kingston Bake Shop,Loma restaurant and coffee shop,86,"380 Kingston Avenue, Brooklyn",brooklyn,90
Ess&Bentch,'Essen,67,"313 Kingston Avenue, Brooklyn",brooklyn,90
Mendy's,Mendy's Kosher Delicatessen,90,"792 Eastern Parkway, Brooklyn",brooklyn,90
Chocolatte,Ashanty Chocolate & Coffee,81,"792 Eastern Parkway, Brooklyn",brooklyn,90
Benny's Brick Oven Pizza,Benny's Brick Oven Pizza,100,"419 Kingston Avenue, Brooklyn",brooklyn,90
Empire Grill,Golden Krust Caribbean Bakery and Grill,86,"597 Empire Boulevard, Brooklyn",brooklyn,90
Sushi Spot,Ginpachi Sushi Restaurant,86,"426 Kingston Avenue, Brooklyn",brooklyn,90
Mon Hing,New Mon Hing Chinese Restaurant,90,"497 Albany Avenue, Brooklyn",497 Albany Ave,90
T & G,El Rincon Restaurant & Grill,90,"505 Albany Avenue, Brooklyn",505 Albany Ave,90
Pikliz Cafe and Lounge,Ambrosia Italian and Albanian Restaurant,86,"903 Franklin Avenue, Brooklyn",brooklyn,90
New Hardee,New Hardee Chinese Restaurant,90,"854 Franklin Avenue, Brooklyn",brooklyn,90
Crown Fried Chicken & Coffee Shop,Crown Fried Chicken& Coffee Shop,98,"848 Franklin Avenue, Brooklyn",brooklyn,90
1Work,No. 1 Wok,72,"1671 Bedford Avenue, Brooklyn",brooklyn,90
Joe & Sal's Pizzeria,Joe's Pizzeria,95,"842 Franklin Avenue, Brooklyn",brooklyn,90
Balboa,Balboa,100,"1655 Bedford Avenue, Brooklyn",1655 Bedford Ave,90
Billy's Pizza & Pasta,Billy's Pizza,90,"1626 Bedford Avenue, Brooklyn",1626 Bedford Ave,90
Safan Deli Inc.,Safan Deli,95,"1671 Bedford Avenue, Brooklyn",brooklyn,90
Lemon Grass jamaican cuisine,C B Finger Licking Jamaican and West Indian Restaurant,86,"843 Franklin Avenue, Brooklyn",843 Franklin Ave,90
New Peking,New Peking,100,"837A Franklin Avenue, Brooklyn",brooklyn,90
J A JamDown Caribbean Restaurant,L & J Caribbean Restaurant,91,"5223 Avenue D, Brooklyn",5223 Avenue D,90
Famous Fish 'N' Chips,Fish,90,"1163 Utica Avenue, Brooklyn",brooklyn,90
Island Grove,Island Grove Restaurant,90,"5600 Clarendon Road, Brooklyn",brooklyn,90
Joyce's,Joyce's West Indian Restaurant,90,"5013 Avenue D, Brooklyn",5013 Avenue D,90
Family Altagracia,Agra,90,"5601 Clarendon Road, Brooklyn",brooklyn,90
Suede,Duende at the Melibea Restaurant,72,"5610 Clarendon Road, Brooklyn",brooklyn,90
Tropical Paradise,Tropical Paradise Restaurant,90,"1252 Utica Avenue, Brooklyn",brooklyn,90
Yolie's,Theresa's Polish American Restaurant,86,"5722 Clarendon Road, Brooklyn",brooklyn,90
Footprints Cafe,Print,90,"5814 Clarendon Road, Brooklyn",brooklyn,90
Faye and King's Express,Ambrosia Italian and Albanian Restaurant,86,"1253 Schenectady Avenue, Brooklyn",1253 Schenectady Ave,90
Boston Jerk City Restaurant,Boston Jerk City,90,"1344 Utica Avenue, Brooklyn",1344 Utica Ave,90
New Wing Cheung Chinese Food,Chinese Food,90,"4621 Avenue D, Brooklyn",4621 Avenue D,90
Tropical Paradise Ballroom & Catering,Paradise Restaurant,86,"1367 Utica Avenue, Brooklyn",brooklyn,90
Mr Chan's,Theresa's Polish American Restaurant,86,"1267 Ralph Avenue, Brooklyn",brooklyn,90
Mom & Me Hot Dog Truck,Hot Pot Jamaican & American Restaurant,86,Brooklyn,brooklyn,100
Tailai Kitchen,Halal Chinese Kitchen,86,"990 Thomas S Boyland Street, Brooklyn",brooklyn,90
Sayf's Jerk Chicken N' Things,Moti's,86,"55 Hegeman Avenue, Brooklyn",brooklyn,90
Papas Halal Crispy Chicken and Gyro,Halal,90,"622 Chester Street, Brooklyn",Hester St,90
Magic Taste Kitchen,Taste,90,"557 Chester Street, Brooklyn",Hester St,90
Miguel's,Miguel's coffee cart,90,"2315 Strauss Street, Brooklyn",brooklyn,90
Paradise 2,Paradise Restaurant,86,"488 East 98th Street, Brooklyn",East 98th street,90
Mister Softee,Mister Taco Mexican Restaurant,86,"101-01 Avenue D, Brooklyn",brooklyn,90
Royal Fried Chicken,Port Royal Jamaican Restaurant,86,"496 Rockaway Parkway #1, Brooklyn",brooklyn,90
Arashi Sushi,Ginpachi Sushi Restaurant,86,"9605 Church Avenue, Brooklyn",brooklyn,90
Maria's,Maria's,100,"1135 Rockaway Avenue, Brooklyn",brooklyn,90
Jojo's Pizza,JoJo's Pizza,100,"9502 Church Avenue, Brooklyn",brooklyn,90
Crown Fried Chicken Menu Near 11212,Crown Fried Chicken,90,"842 Rockaway Avenue, Brooklyn",brooklyn,90
Original Brucee's Patties Cafe,Moti's,86,"9509 Church Avenue, Brooklyn",brooklyn,90
Soul Jam Grill,Golden Krust Caribbean Bakery and Grill,86,"480 Chester Street, Brooklyn",Hester St,90
Jerk Chicken Specialists ( Soul Jam Grill ),Lynx Restaurant Bar & Grill,86,"480 Chester Street, Brooklyn",Hester St,90
Abby's Eatery,Theresa's Polish American Restaurant,86,"1164 Willmohr Street, Brooklyn",brooklyn,90
Comfort Zone,The Restaurant Zone,86,"900 Saratoga Avenue, Brooklyn",brooklyn,90
Mike's Island Grill,Mike's Island Grill,100,"326 East 98th Street, Brooklyn",East 98th street,90
Lems Fishnet,Fish,90,"345 East 98th Street, Brooklyn",East 98th street,90
62,620 on Caton Pizzeria and Restaurant,60,"1101 Clarkson Avenue, Brooklyn",brooklyn,90
Fix-U-Plate,U Like Chinese Restaurant,86,"1139 Clarkson Avenue, Brooklyn",1139 Clarkson Ave,90
Wahdo,Wahdo Restaurant,90,"395 Remsen Avenue, Brooklyn",395 Remsen Ave,90
Mr. Chan's Restaurant,Mr. Chan's Chinese Restaurant,95,"Lenox Road, Brooklyn",brooklyn,90
Krispy Krunchy Chicken - Clarkson Shell,Chicken Festival,86,"1143 Clarkson Avenue, Brooklyn",1143,90
New Mum's Kitchen,New Fulin Kwok Seafood Restaurant,86,"1010 Clarkson Avenue #1010, Brooklyn",brooklyn,90
Villa Maria Pizzeria,La Strada Pizzeria & Restaurant,86,"2440 Eastchester Road, The Bronx",Rutland Road,86
Nora Pizza,Nora Pizza,100,"5916, 5916, 2456 Eastchester Road, The Bronx",Rutland Road,86
Yummy House Chinese,"Golden Forest Chinese Restaurant, Brooklyn Ny",86,"2452 Eastchester Road, The Bronx",Rutland Road,86
Caridad & Louie's Restaurant,Caridad & Louie's Restaurant,100,"1660 East Gun Hill Road, The Bronx",823 East 169th Street,86
Battaglia's Market,Theresa's Polish American Restaurant,86,"2503 Eastchester Road, The Bronx",Rutland Road,86
Fratelli,Fratelli's,95,"2507 Eastchester Road, The Bronx",Rutland Road,86
China Pavillion,China Gourmet Chinese Restaurant,86,"2102 Eastchester Road, The Bronx",Rutland Road,86
Wreck City Deli,Deli,90,"1579 Stillwell Avenue, The Bronx",196 23 Jamaica Avenue,86
Wingstreet,Coffee cart Spring Street,81,"2829 Edson Avenue, The Bronx",Between 39th and 40th street on 13th Avenue,86
Master Wok,Wok Wok,95,"Mall at Bay Plaza, 200 Baychester Avenue, The Bronx",Baychester Avenue,90
Metro Cafe,Stars Cafe & Restaurant,86,"1200 Waters Place, The Bronx",5372 65th Place,86
Golden Star,Golden Star,100,"1384 East Gun Hill Road, The Bronx",823 East 169th Street,86
Nick's,Nick's Restaurant & Pizzeria,90,"1356 East Gun Hill Road, The Bronx",823 East 169th Street,86
Mamma Lorna,Amma,90,"3007 Eastchester Road, The Bronx",Rutland Road,86
Constant Springs Carribean And American Cuisine,Ghoroa Sweets and Restaurant,86,"1344 East Gun Hill Road, The Bronx",823 East 169th Street,86
HoneyBee Bakery,HoneyBee Bakery,100,"1355 East Gun Hill Road, The Bronx",823 East 169th Street,86
Ultimate Grill,Golden Krust Caribbean Bakery and Grill,86,"1345 East Gun Hill Road, The Bronx",823 East 169th Street,86
Central Caribbean Bakery,CENTRAL CARRIBEAN Bakery,96,"1322 East Gun Hill Road, The Bronx",823 East 169th Street,86
Mama G. African Kitchen,Chang Jiang Kitchen Chinese Restaurant,86,"1322A East Gun Hill Road, The Bronx",823 East 169th Street,86
Code Red,Red Star Chinese Restaurant,86,"1320 East Gun Hill Road, The Bronx",823 East 169th Street,86
Chef King,King's Chef,95,"1075 Allerton Avenue, The Bronx",Allerton Ave.,90
Almujtaba Halal Meat & Grocery Shop,Halal,90,"1059 Allerton Avenue, The Bronx",Allerton Ave.,90
Eden Pizza Garden,Pizza Garden,95,"1015 Allerton Avenue, The Bronx",Allerton Ave.,90
Domenick's Pizzeria,Domenick's Pizzeria,100,"1015 Allerton Avenue, The Bronx",Allerton Ave.,90
Alba Bar Cafe,El Morro Restaurant & Bar,86,"2460 Williamsbridge Road, The Bronx",Rutland Road,86
Nuevo Imperial,Nuevo Leon Restaurant,86,"2456 Williamsbridge Road, The Bronx",Rutland Road,86
Prego's Pizza,Prego's Pizza,100,"1011 Mace Avenue, The Bronx",1011 Mace Ave,90
Qebaptore Dardania,Daniel,66,"1009 Mace Avenue, The Bronx",Between 39th and 40th street on 13th Avenue,86
Venezia Pizzeria,La Strada Pizzeria & Restaurant,86,"1115 Astor Avenue, The Bronx",Between 39th and 40th street on 13th Avenue,86
Halal Chandni chowk,Halal,90,"2570 Bronxwood Avenue, The Bronx",Bronxwood Ave,90
Qebaptore Dardania,Daniel,66,"1009 Mace Avenue, The Bronx",Between 39th and 40th street on 13th Avenue,86
Simply Southern NYC,The NYC Bull - Restaurant & Rotisserie,86,"1460 Granville Payne Avenue, Brooklyn",brooklyn,90
Armandos Pizza,Armando's Pizza,97,"1366 Pennsylvania Avenue, Brooklyn",brooklyn,90
Pizza Studio,Pizza Pizza,95,"528 Gateway Drive, Brooklyn",brooklyn,90
New Shun Hing,New Shun Hing Restaurant,90,"1111 Granville Payne Avenue, Brooklyn",brooklyn,90
Yard with Style,Belky's Home Style Cooking Restaurant,86,"10420 Flatlands Avenue, Brooklyn",10420 Flatlands Ave,90
Zeng Fang,Zeng's Restaurant,86,"10416 Flatlands Avenue, Brooklyn",brooklyn,90
Royal,Port Royal Jamaican Restaurant,90,"945 Pennsylvania Avenue # A, Brooklyn",brooklyn,90
Panda Kitchen,Halal Chinese Kitchen,86,"943 Granville Payne Avenue, Brooklyn",brooklyn,90
Hector Restaurant,Hectors Restaurant,97,"3407 Avenue H, Brooklyn",brooklyn,90
Best Wok No.1,No. 1 Wok,95,"3411 Avenue H STE A, Brooklyn",brooklyn,90
Pronto Café,Crotona's Café Restaurant,86,"3105 Avenue H, Brooklyn",5 ave,90
Tacos El Zocalo De Tepango,El Mexicano,86,"1607-1599, Flatbush Avenue, Brooklyn",Flatbush ave,90
Peking Chinese Restaurant,Peking Chinese Restaurant,100,"1581 Flatbush Avenue, Brooklyn",Flatbush ave,90
Deli Pizza,pizza deli,95,"1574 Flatbush Avenue, Brooklyn",Flatbush ave,90
Dynasty Chinese Restaurant Brooklyn,Dynasty Chinese Restaurant,95,"1669 Flatbush Avenue, Brooklyn",Flatbush ave,90
Hong Kong King Palace,Hong Kong,90,"1669 Flatbush Avenue, Brooklyn",Flatbush ave,90
Mothers Seafood & More,Sea,90,"3814 Church Avenue, Brooklyn",brooklyn,90
Bistro1804 Inc,Sunshine Restaurant Food & Catering Inc,86,"3612 Clarendon Road, Brooklyn",brooklyn,90
Delicious Bites Restaurant,Restaurant,90,Brooklyn,brooklyn,100
Taty's Caribbean & American Restaurant,Caribbean American Restaurant,95,"241 East 39th Street, Brooklyn",brooklyn,90
Golden Star,Golden Star,100,"3719 Church Avenue, Brooklyn",3719 Church Ave,90
D Original Limers,Original's Soldier Jamaican Restaurant,86,"574 East 37th Street, Brooklyn",37th,90
solide rocher,Li Li,86,"3901 Church Avenue, Brooklyn",brooklyn,90
Little Ochie Restaurant & Lounge,Restaurant,90,Brooklyn,brooklyn,100
El. Tamalero (Panamanian Spanish Food),Spanish Food,90,"3518 Church Avenue, Brooklyn",brooklyn,90
G T Paradise,Paradise Restaurant,86,"191 East 42nd Street, Brooklyn",brooklyn,90
Brooklyn Jazz and sports club,"Golden Forest Chinese Restaurant, Brooklyn Ny",86,"3523 Church Avenue, Brooklyn",brooklyn,90
Peaches,Peaches Restaurant,90,"4213 Church Avenue, Brooklyn",brooklyn,90
Snatch & Go Internet Cafe & Juice Bar,Stars Cafe & Restaurant,86,"3410 Church Avenue, Brooklyn",brooklyn,90
D & P,Rubulad - Pizzazz Parlor,90,"3405 Church Avenue, Brooklyn",brooklyn,90
Siu's,Siu's Restaurant,90,"4324 Church Avenue, Brooklyn",4324 Church Ave,90
Blake's,Blake's International Restaurant,90,"4311 Church Avenue, Brooklyn",4311 Church Ave,90
China Kitchen,China Kitchen,100,"3312 Church Avenue, Brooklyn",brooklyn,90
Island Cz Lounge,Taipan Fusion Restaurant and Hookah Lounge,86,"1440 Utica Avenue, Brooklyn",1440 Utica Ave,90
The Blessed Kitchen Experience,The Blessed Kitchen Experience,100,"66B Eldert Street, Brooklyn",brooklyn,90
HipHop Burger NYC,The NYC Bull - Restaurant & Rotisserie,86,"1543 Broadway, Brooklyn",brooklyn,90
New Choy Hing,New Fulin Kwok Seafood Restaurant,86,"1201 Bushwick Avenue, Brooklyn",brooklyn,90
Maya Fusion Cafe,Maya,90,"1337 Bushwick Avenue, Brooklyn",1337 Bushwick Ave,90
House Party Cafe & Lounge,Cafe 47,86,"1178 Bushwick Avenue, Brooklyn",1178 Bushwick Ave,90
Win Xin Kitchen,Wing xin chinese restaurant,86,"615 Wilson Avenue, Brooklyn",brooklyn,90
Sabor catracho bar and restaurant,Restaurant,90,"856 Knickerbocker Avenue, Brooklyn",856 Knickerbocker Ave,90
Number One,One & One,95,"824 Knickerbocker Avenue, Brooklyn",824 Knickerbocker Ave,90
Bushwick Taco Company,King Taco Mexican Restaurant & Pizzeria,86,"839 Knickerbocker Avenue, Brooklyn",brooklyn,90
Money Cat Vietnamese Kitchen,Ming Hing Kitchen,86,"554 Wilson Avenue, Brooklyn",brooklyn,90
BARCHAA,Restaurant Chairs And Bar Stools,74,"567 Wilson Avenue, Brooklyn",brooklyn,90
New Texas Chicken and Grill,New Ho Wah,86,"639 Wilson Avenue, Brooklyn",brooklyn,90
Jimmy's Pizza,Jimmy's Pizza,100,"561 Wilson Avenue, Brooklyn",brooklyn,90
Beijing House,Hunan House Chinese Restaurant,86,"553 Wilson Avenue, Brooklyn",brooklyn,90
Halsey Ale House,Hunan House Chinese Restaurant,86,"1204 Halsey Street, Brooklyn",Halsey,90
Azan Deli & Grill,Deli & Grill,95,"1149 Halsey Street, Brooklyn",Halsey,90
