name_google,name_foursquare,ratio_name,address_google,address_foursquare,ratio_address
Delicias Calenas,Delicia,90,"3568 73rd Street, Jackson Heights",Street,90
Dhaka Garden,Garden 13 Dairy Restaurant and Pizza,86,"72-23 37th Avenue, Jackson Heights",7th Ave,90
Bombay Kitchen,Halal Chinese Kitchen,86,"7227 37th Avenue, Jackson Heights",7th Ave,90
Dosa Delight,Deli,90,"35-66 73rd Street, Queens",Street,90
Haat Bazaar Restaurant,Restaurant,90,"3711 73rd Street #73, Queens",Street,90
Pizza Boy,Pizza Boy,100,"7404 37th Avenue, Queens",7th Ave,90
Al Naimat Sweets & Restaurant,Restaurant,90,"3703 74th Street, Jackson Heights",Street,90
Premium Sweets,Premium Sweets & Restaurant,90,"37-14 73rd Street, Flushing",37-14 73rd St,90
Kabir's Bakery,Kabir's Bakery,100,"7404 37th Avenue, Flushing",7th Ave,90
Khaabar Baari,Haab,90,"37-16 73rd Street, Flushing",Street,90
Mustang Thakali Kitchen,TANG,90,"74-14 37th Avenue, New York",7th Ave,90
Sagar Chinese,King Chinese Restaurant,86,"74-19 37th Avenue, New York",7th Ave,90
Afghan Kebab & Grill,Golden Krust Caribbean Bakery and Grill,86,"74-16 37th Avenue, Jackson Heights",7th Ave,90
Romeo´s Italian Restaurant,Rino's Italian Restaurant,90,"74-27 37th Avenue, New York",7th Ave,90
Airways Pizza Gyro & Restaurant,"Airways Pizza, Gyro & Restaurant",98,"90-13 Astoria Boulevard, New York",New York,90
Great Wall Chinese Restaurant,Great Wall Chinese Restaurant,100,"87-12 Astoria Boulevard, East Elmhurst",152-12 Northern Blvd,86
Panorama,Panerama Bakery & Pastry Shop,79,"8710 Astoria Boulevard, Flushing",10015 Astoria Blvd,86
Sweet Basil Thai Restaurant,Restaurant,90,"39-28 61st Street, Woodside",61st Street,90
Kathmandu Fusion Kitchen,Taipan Fusion Restaurant and Hookah Lounge,86,"39-26 61st Street, Woodside",61st Street,90
Puebla restaurant,Puebla Restaurant,100,"39-22 61st Street, Woodside",39-22 61st St,90
Matsuri,Matsu Japanese Restaurant,74,"39-56 61st Street, Woodside",61st Street,90
Taco Truck,Mexican Food Taco Truck,90,"6131 Roosevelt Avenue, Jackson Heights",Roosevelt Ave.,90
Matsuri Japanese Cousine,Yan Jing Chinese and Japanese Restaurant,86,"3956 60th Street, Woodside",Street,90
Zona Rosa Cocina Mexicana,Mexicana,90,"60-21 39th Avenue, Woodside",39th,90
Stop Inn,Sizzle Inn Restaurant,86,"60-22 Roosevelt Avenue, Woodside",Roosevelt Ave.,90
Panda Garden,Panda Garden,100,"5917 Roosevelt Avenue, Flushing",5917 Roosevelt Ave,90
Long Spring Garden,Garden 13 Dairy Restaurant and Pizza,86,"62-05 Roosevelt Avenue, Woodside",Roosevelt Ave.,90
Pizza Boy II,Pizza Boy,95,"58-19 Woodside Avenue, Woodside",165-19 Northern Blvd,86
Jollibee,Li Li,86,"62-29 Roosevelt Avenue, Queens",Roosevelt Ave.,90
FANCY,Fancy pizza (Bruckner Plaza),90,"55-14 37th Avenue, Woodside",7th Ave,90
Peking BBQ,Korean BBQ Restaurant,86,"58-11 Woodside Avenue, Flushing",40-11 150th St,86
Momochai,Ocha,90,"57-16 Woodside Avenue, Woodside",311 Avenue X,86
Chin Chin Thai Kitchen,Chai Thai Kitchen,89,"57-17 Roosevelt Avenue, Flushing",Roosevelt Ave.,90
Sila,Vassilaros Coffee,90,"57-17 Roosevelt Avenue, Woodside",Roosevelt Ave.,90
KhanTong Thai Kitchen,Mekong Thai & Vietnamese Restaurant,86,"57-17 Roosevelt Avenue, Queens",Roosevelt Ave.,90
Café 52,The River Café,86,"5129 43rd Avenue, Woodside",3rd Ave.,90
Lincoln Avenue Deli/Restaurant,Deli Restaurant,90,"51-25 43rd Avenue, Woodside",3rd Ave.,90
Khun Noo Thai Noodle House,Thai 101,86,"51-20 Skillman Avenue, Woodside",Skillman,90
dawa's,Theresa's Polish American Restaurant,86,"51-18 Skillman Avenue, Woodside",Skillman,90
Copper Kettle,The Copper Kettle Bar & Restaurant,90,"50-24 Skillman Avenue, Woodside",Skillman,90
Côté Soleil,Le Soleil Haitian Restaurant,86,"50-12 Skillman Avenue, Woodside",Skillman,90
TJ Asian Bistro,Yang No. 1 Asian Restaurant,86,"50-19 Skillman Avenue, Woodside",Skillman,90
New Szechuan House,New Fulin Kwok Seafood Restaurant,86,"50-08 Skillman Avenue, Woodside",Skillman,90
Sheng li,Sheng Li Chinese Food,90,"389 East 167th Street, The Bronx",167th St.,90
Bohio,El Bohio Restaurant,90,"1155 Webster Avenue, The Bronx",Webster Ave,90
Pizza Kennedy Fried Chicken,Kennedy Fried Chicken,95,"1170A Webster Avenue, The Bronx",Webster Ave,90
Halall Coffee Shop,Halal,90,"1064 College Avenue, The Bronx",311 Avenue X,86
Arka Snack Bar,El Morro Restaurant & Bar,86,"3531 3rd Avenue, The Bronx",3531,90
Jimmy's,Brother Jimmy's Nyc Restaurant Holdings,90,"536 East 168th Street, The Bronx",Street,90
Tiny's Pizza & Pasta,Tony's Pizza & Pasta,95,"1113 Grant Avenue, The Bronx",Between 39th and 40th street on 13th Avenue,86
Papaye,Papaye Restaurant,90,"196 McClellan Street, The Bronx",196 McClellan St,90
Punto And Coma,Ghoroa Sweets and Restaurant,86,"239 East 165th Street, The Bronx",65th street,90
Andrea's II,Theresa's Polish American Restaurant,86,"239 East 165th Street, The Bronx",65th street,90
The Original Dream Cafe,Cafe 47,86,"239 East 165th Street, The Bronx",65th street,90
Doro's,Doro's Jamaican Restaurant,90,"270 East 165th Street, The Bronx",65th street,90
Express Halal African Restaurant,Restaurant,90,"270 East 165th Street, The Bronx",65th street,90
Brother's,Brother's II Pizzeria,90,"993 Morris Avenue, The Bronx",993 Morris Ave,90
Mofongo El Mocano,El TRI MX Restaurant & Bar,86,"985 Morris Avenue, The Bronx",985 Morris Ave,90
Xinglong Chinese restaurant,Xing Lung Chinese Restaurant,95,"553E 169TH ST, The Bronx",9th St,90
Red House,Red House,100,"1229 Franklin Avenue, The Bronx",1229 Franklin Ave,90
Moon Tikka Grill,Tikka Grill,95,"8716 Parsons Boulevard, Jamaica",45-21 Parsons Blvd,86
Smile of the Beyond Restaurant,Restaurant,90,"8614 Parsons Boulevard, Jamaica",45-21 Parsons Blvd,86
Al-Mehran,Al Mehran Restaurant,90,"8746 Parsons Boulevard, Jamaica",45-21 Parsons Blvd,86
Natalie's Pizza,Pizza Pizza,95,"87-56 Parsons Boulevard, Jamaica",45-21 Parsons Blvd,86
Jennifer's,Jennifer's Restaurant,90,"153-41 Hillside Avenue, Jamaica",Hillside Avenue,90
Riko Jamaica,Sparkles Jamaica Restaurant,86,"153-37 Hillside Avenue, Jamaica",Hillside Avenue,90
La Abundancia Bakery & Restaurant,La Abundancia Bakery & Restaurant,100,"153-40 Hillside Avenue, Jamaica",Hillside Avenue,90
Alif Laila Restaurant,Laila,90,"87-69 Parsons Boulevard, Jamaica",45-21 Parsons Blvd,86
Peking Express,Peking Chinese Restaurant,86,"87-71 Parsons Boulevard, Jamaica",45-21 Parsons Blvd,86
Al Barakah Halal Meat (Hand Zabiha),Halal,90,"Inside DeadEnd, 160-02 Hillside Avenue, Jamaica",Hillside Avenue,90
Ni-Na-Ab,Mi Ni Sweet Food,86,"8784 Parsons Boulevard, Jamaica",45-21 Parsons Blvd,86
La Riqueza Restaurant,Restaurant,90,"8784 Parsons Boulevard # 11432, Jamaica",45-21 Parsons Blvd,86
Feng's Garden,Feng's Garden,100,"8826 Parsons Boulevard, Jamaica",45-21 Parsons Blvd,86
Genesis,genesis one jamaican restaurant,90,"162-23 Hillside Avenue, Jamaica",Hillside Avenue,90
Crystal,Crystals Restaurant and Bar,90,"13829 Queens Boulevard, Jamaica",Queens Boulevard,90
Cuzco Peru,CuZco Peruvian Restaurant,90,"13813 Queens Boulevard, Briarwood",Queens Boulevard,90
Corazon Latino,Sabor Latino Cuchifrito Restaurant,86,"138-40 84th Drive, Briarwood",40-11 150th St,86
Chiu's Garden,Theresa's Polish American Restaurant,86,"13844 84th Drive, Briarwood",146 E 84th St,86
Green Valley Gourmet Market,Green Dragon,86,"138-54 84th Drive, Briarwood",54 Rockaway Ave,86
Alba's,Alba's Pizza & Restaurant,90,"13765 Queens Boulevard, Jamaica",Queens Boulevard,90
Ocha Thai Cuisine,Ocha,90,"124-32a Queens Boulevard, Kew Gardens",Queens Boulevard,90
QUEEN COURT,Queen,90,"120-55 Queens Boulevard, Jamaica",Queens Boulevard,90
La Rondine Pizza,Pizza Pizza,95,"120-38 Queens Boulevard, Kew Gardens",Queens Boulevard,90
Eva's Kitchen,Theresa's Polish American Restaurant,86,"12036 Queens Boulevard, Kew Gardens",Queens Boulevard,90
New Shanghai,New Shanghai,100,"125-02 84th Road, Kew Gardens",205-02 Hillside Ave,86
Chicken House,Hunan House Chinese Restaurant,86,"8045 Kew Gardens Road # 7, Kew Gardens",Rutland Road,86
Jamaica Fish Market seafood restaurant,Restaurant,90,"8802 Van Wyck Expressway, Richmond Hill",1381 E. Gun Hill Road,86
Go detox bar juice and grill,Taipan Fusion Restaurant and Hookah Lounge,86,"8824 Van Wyck Expressway, Richmond Hill",1381 E. Gun Hill Road,86
Nelly's Corner Pizzeria Restaurant,Restaurant,90,"89th Avenue, Jamaica",Jamaica avenue,95
Paul Michael's Brick Oven Cafe,Moti's,86,"85-19 126th Street, Kew Gardens",Street,90
El Salvador,El Salvador Restaurant,90,"12522 Jamaica Avenue, Jamaica",12522 Jamaica Ave,90
My Kitchen,My Kitchen Healthy Foods,90,"106-17 Metropolitan Avenue, Forest Hills",Metropolitan Ave.,90
Friend's Coffee Shop,Friend's Coffee Shop,100,"118-17 Queens Boulevard, Forest Hills",Queens Boulevard,90
Poke Station,Jin Long Food Station,86,"118-15 Queens Boulevard, Forest Hills",Queens Boulevard,90
Redwood Deli,Deli,90,"118-18 Queens Boulevard, Queens",Queens Boulevard,90
Gege Express Poke Station,Fresh Tortillas (Tex-Mex Express) & Japanese Restaurant,86,"11815 Queens Boulevard, Queens",Queens Boulevard,90
NY Indian Classical Dance Company,C B Finger Licking Jamaican and West Indian Restaurant,86,"11813 Queens Boulevard, Queens",Queens Boulevard,90
D'Angelo's Pizza & Pasta,Angelo's Pizza,90,"118-07 Queens Boulevard, New York",New York,90
Mehak,Mehak Mughlai Cuisine,90,"83-06 Austin Street, Kew Gardens",83-06 Austin St,90
Austin's Ale House,Austin's Ale House,100,"8270 Austin Street, Kew Gardens",8270 Austin St,90
D & F Italian Deli,Deli,90,"35-17 Broadway, Queens",Broadway,90
PokéWave,Halal Food Cart E 70th And York ave,64,"35 07 Broadway, Astoria",Broadway,90
Mokja,Tomo Japanese Cafe,72,"35 19 Broadway, Queens",Broadway,90
Pye Boat Noodle,满粥麵 Wonton Noodle Garden Restaurant,86,"35-13 Broadway, Astoria",Broadway,90
Caravan Chicken,Crazy Chicken Restaurant & Coffee Shop,86,"35-01 Broadway, Astoria",Broadway,90
Brooklyn Bagel & Coffee Company,Brooklyn Bagel & Coffee Company,100,"35-05 Broadway, Astoria",Broadway,90
Ristorante Bar Italia,La Kuchara Ecuadorian Restaurant Bar,86,"35-03 Broadway, Astoria",Broadway,90
Tortas & Tacos,Tacos Puebla Restaurant,86,"36-10 Broadway, Astoria",Broadway,90
Bartolino's,Theresa's Polish American Restaurant,86,34-15 Broadway,44-15 Broadway,93
Tippin Inn,Sizzle Inn Restaurant,86,"3413 Broadway, Queens",Broadway,90
Bartolino's Pizza,Pizza,90,"34-11 Broadway, Astoria",Broadway,90
The Highwater,The Golden Glass Restaurant,86,"34-20 Broadway, Astoria",Broadway,90
Chicken Shack Astoria,Crazy Chicken Restaurant & Coffee Shop,86,"36-19 Broadway, Queens",Broadway,90
Hero Thai & Izakaya,Mekong Thai & Vietnamese Restaurant,86,"34-16 Broadway, Astoria",Broadway,90
Mama's Taco Truck,Theresa's Polish American Restaurant,86,"36-10 Broadway, Queens",Broadway,90
The Trestle,The Golden Glass Restaurant,86,34-02 Broadway,84-02 Broadway,93
Amylos Taverna,Akrotiri Seafood Taverna Restaurant,86,"33-19 Broadway, Queens",Broadway,90
Bai Sushi,Bai Sushi,100,"37-03 Broadway, Astoria",37-03 Broadway,90
Michael's,Michael's Restaurant,90,"33-17 Broadway, Queens",Broadway,90
Ma LaLa Chinese,King Chinese Restaurant,86,"42-02 30th Avenue, Long Island City",30th Avenue,90
Ma LaLa Chinese,King Chinese Restaurant,86,"42-02 30th Avenue, Astoria",30th Avenue,90
Ddee Thai,Mekong Thai & Vietnamese Restaurant,86,"42-06 30th Avenue, Astoria",30th Avenue,90
Ukus,Silver Krust  Restaurant,68,"4208 30th Avenue, Astoria",30th Avenue,90
De Mole Astoria,Bar Sol De Quito Restaurant II,86,"4220 30th Avenue, Queens",30th Avenue,90
Blackbird's,Blackbird's,100,"41-19 30th Avenue, Astoria",30th Avenue,90
Alnour,The Parlour,75,"41-08 30th Avenue, Astoria",30th Avenue,90
Napoli's bistro,Theresa's Polish American Restaurant,86,"28-51 42nd Street, Astoria",42nd,90
Hangar Astoria,Astoria Restaurant Supply Store,86,"2843 Steinway Street, Astoria",Steinway Street,90
Sorriso,Sorriso Fine Foods,90,"4416 30th Avenue, Astoria",30th Avenue,90
The Boss Of The Taco,The Loft BKNY Restaurant & Lounge,86,"47-7 Broadway, Astoria",Broadway,90
Mansion Supper Club,Supper,90,"4611 Broadway, Astoria",Broadway,90
New Win Shing,New Win Hing,96,"48-06 Broadway, Long Island City",Broadway,90
Roosters Halal Fried Chicken & Pizza,Halal Fried Chicken N Pizza,91,"48-12 Broadway, Astoria",2 Broadway,90
Sweet Habit,Shandar Sweet & Restaurant,86,"45-11 Broadway, New York","New York, New York",95
Ginos Pizzeria and Restaurant,Gino's Pizzeria and Restaurant,98,"43-19 Broadway, Queens",Broadway,90
Luna's,Theresa's Polish American Restaurant,86,"43-13 Broadway A, Astoria",Broadway,90
Luna Japanese Restaurant & Bar,Restaurant,90,"32-72 Steinway Street 6th fl, Queens",Steinway Street,90
Ćevabdžinica Sarajevo,Star,68,"37-18 34th Avenue, Queens",4th Ave,90
Tacos Mexico,Tacos Mexico,100,"32-08 38th Street, Astoria",38th St,90
Mama's Empanadas,Theresa's Polish American Restaurant,86,"32-41 Steinway Street, Queens",Steinway Street,90
Mahmoud's Corner Halal Food Cart,Halal Food,90,"32-90 34th Avenue, Astoria",4th Ave,90
Thonglor Thai Restaurant,Thonglor Thai Restaurant,100,"32-47 Steinway Street, Astoria",Steinway Street,90
Brik Astoria,Astoria Restaurant Supply Store,86,"32-16 Steinway Street, Astoria",Steinway Street,90
Raven's Head Public House,Public House,90,"38-04 Broadway, Astoria",Broadway,90
La Pequeña Colombia,La Pequeña Colombia,100,"3225 Steinway Street, Astoria",Steinway Street,90
Lunera,Lunela Restaurant,75,"32-25 Steinway Street, Astoria",Steinway Street,90
Steinway Coffee Shop,Steinway Coffee Shop,100,"3410 Steinway Street, Long Island City",Steinway Street,90
District Saigon,Miss Saigon Vietnamese Cooking,86,"37-15 Broadway, Astoria",Broadway,90
El Basurero,El Morro Restaurant & Bar,86,"32-17 Steinway Street, Astoria",Steinway Street,90
Oliver's Astoria,Theresa's Polish American Restaurant,86,"37-19 Broadway, Astoria",Broadway,90
Las Margaritas,Las Margaritas Restaurant,90,"38-01 Broadway, Astoria",Broadway,90
現纹鍋邊,403 Restaurant,0,"43-7 Main Street, Flushing",Main Street,90
Luu's Baguette,Theresa's Polish American Restaurant,86,"134 East 26th Street, New York",New York,90
Cousins Maine Lobster,Lobster Box,86,"77 Lexington Avenue, New York",New York,90
Saravanaa Bhavan,Saravanaa Bhavan,100,"81 Lexington Avenue, New York",New York,90
Bao Bao Cafe,Stars Cafe & Restaurant,86,"61 Lexington Avenue, New York",New York,90
Burp Bowl Cafe,Stars Cafe & Restaurant,86,"134 East 27th Street, New York",New York,90
Little Basil,Little Basil Thai Cuisine,90,"153 East 26th Street, New York",New York,90
Tacos Times Square,Tacos Puebla,86,"134 East 27th Street, New York",New York,90
Marty's V Burger,Theresa's Polish American Restaurant,86,"134 East 27th Street, New York",New York,90
THY’s Noodles,Theresa's Polish American Restaurant,86,"97 Lexington Avenue, New York",New York,90
La Vera Pizzeria,La Vera Pizza,90,"350 3rd Avenue, New York","New York, New York",95
Street Taco,38th Street Restaurant & Bakery,86,"358 3rd Avenue, New York","New York, New York",95
Kailash Parbat,Laila,72,"99 lexington, Corner of, East 27th Street, Manhattan",27th Street,90
Bagel Express III,Cam Tak Express Restaurant,86,"340 3rd Avenue, New York","New York, New York",95
Desi Galli,Desi Shad Sweets and Restaurant,86,"101 Lexington Avenue, New York",New York,90
Bhatti Indian Grill,Golden Krust Caribbean Bakery and Grill,86,"100 Lexington Avenue, New York",New York,90
I Trulli,i Trulli,100,"124 East 27th Street, New York",New York,90
Ristoro del Cinghiale,El Monstro del Sazon Pizzaria & Restaurant,86,"122 East 27th Street, New York",New York,90
Flavor House,Hunan House Chinese Restaurant,86,"449 2nd Avenue, New York","New York, New York",95
中街大串-ZLS BBQ INC,Sunshine Restaurant Food & Catering Inc,86,"219 East 23rd Street, New York",New York,90
ZLS BBQ INC 中街大串,Sunshine Restaurant Food & Catering Inc,86,"219 East 23rd Street, New York",New York,90
Mexico Lindo,Mexico Lindo NYC,95,"459 2nd Avenue, New York","New York, New York",95
Taproom No.307,No 1 Chinese Restaurant,86,"307 3rd Avenue, New York","New York, New York",95
Mughlai,Mehak Mughlai Cuisine,90,"329 3rd Avenue, New York","New York, New York",95
The Bluebell Café,Blue,90,"293 3rd Avenue, New York","New York, New York",95
Molly's,Molly's Shebeen,90,"287 3rd Avenue, New York","New York, New York",95
Tivoli Cafe,Stars Cafe & Restaurant,86,"283 3rd Avenue, New York","New York, New York",95
Corbet & Conley,One & One,67,"145 East 17th Street, New York",New York,90
Gramercy Kitchen,Chang Jiang Kitchen Chinese Restaurant,86,"184 3rd Avenue, New York","New York, New York",95
J East,C&L Of East Ocean Restaurant,86,"175 3rd Avenue #1, New York",New York,90
Follia,Sfoglia,77,"179 3rd Avenue, New York","New York, New York",95
Jack's Sliders and Sushi,Ambrosia Italian and Albanian Restaurant,86,"171 3rd Avenue, New York","New York, New York",95
East Way Gourmet,C&L Of East Ocean Restaurant,86,"169 3rd Avenue, New York","New York, New York",95
Yaya Tea Gramercy,Gramercy Park Surgery Center,86,"284 3rd Avenue, New York","New York, New York",95
Lamarca,Lamarca Pasta,90,"161 East 22nd Street, New York",New York,90
Gramercy Ale House,Hunan House Chinese Restaurant,86,"272 3rd Avenue, New York","New York, New York",95
Di An Di,Fontana Di Trevi Restaurant,86,"68 Greenpoint Avenue, Brooklyn",brooklyn,90
Shanghai Lee,Shanghai,90,"157 Franklin Street, Brooklyn",157 Franklin St,90
Brooklyn Label,"Golden Forest Chinese Restaurant, Brooklyn Ny",86,"180 Franklin Street, Brooklyn",brooklyn,90
Franklin Pizza,Pizza Pizza,95,"109 Franklin Street, Brooklyn",brooklyn,90
Vamos Al Tequila,gabriela's restaurant and tequila bar,86,"162 Franklin Street, Brooklyn",brooklyn,90
Franklin Corner Cafe,Cafe 47,86,"210 Franklin Street, Brooklyn",brooklyn,90
Elder Greene,Greene Hill Food Co-op,86,"160 Franklin Street, Brooklyn",brooklyn,90
Anella,La Canela,82,"222 Franklin Street, Brooklyn",brooklyn,90
MADRE,Las Comadres,90,"214 Franklin Street, Brooklyn",brooklyn,90
Magazine Bar,El Morro Restaurant & Bar,86,"130 Franklin Street, Brooklyn",brooklyn,90
Cachapas y mas,Migueleno's Pizza Y Restaurant,86,"120 Franklin Street, Brooklyn",brooklyn,90
Brooklyn Safehouse,"Golden Forest Chinese Restaurant, Brooklyn Ny",86,"120 Franklin Street, Brooklyn",brooklyn,90
Paulie Gee's Slice Shop,Theresa's Polish American Restaurant,86,"110 Franklin Street, Brooklyn",brooklyn,90
Michelle,Michelles Restaurant,90,"125 Avenue D, New York","New York, New York",95
Rooster Boy,Manganaro's Hero Boy,86,"90 Kent Avenue, Brooklyn",brooklyn,90
Mighty Quinn's Barbeque,Theresa's Polish American Restaurant,86,"Smorgasburg Kent Ave &, North 7th Street, Brooklyn",brooklyn,90
Chez Ma Tante,Qiang Ma Seafood Restaurant,86,"90 Calyer Street, Brooklyn",brooklyn,90
Le Gamin,Le Fatima Bar & Grill Restaurant,86,"108 Franklin Street, Brooklyn",brooklyn,90
108 Franklin LLC,Alpha 129 Restaurant LLC,86,"108 Franklin Street, Brooklyn",brooklyn,90
Tuttobene's Pizzeria,La Strada Pizzeria & Restaurant,86,"230 Calyer Street, Brooklyn",brooklyn,90
Royal Falafel & Shawarma,Benny's Kosher Pizza Falafel & Dairy Restaurant,86,"230 Calyer Street, Brooklyn",brooklyn,90
Pueblo Querido Coffee Roasters Cafe de Colombia,Pueblo Querido Coffee Roasters,90,"195 Greenpoint Avenue, Brooklyn",brooklyn,90
Kimchee Market,Seafish Market Seafood Restaurant,86,"191 Greenpoint Avenue, Brooklyn",brooklyn,90
Polish & Slavic Center Cafeteria,Jonaki Caterers Restaurant (formerly Steve's Utica Jerk Center),86,"177 Kent Street, Brooklyn",brooklyn,90
Glasserie,The Golden Glass Restaurant,70,"95 Commercial Street, Brooklyn",brooklyn,90
Greenpoint Beer & Ale Co.,The Triple Crown Ale House & Restaurant,86,"1150 Manhattan Avenue, Brooklyn",brooklyn,90
Ashbox,Sammy's Fish Box Restaurant,75,"1154 Manhattan Avenue, Brooklyn",brooklyn,90
Adelina's,Deli,90,"159 Greenpoint Avenue, Brooklyn",brooklyn,90
Chinese Musician,Chinese Musician Restaurant,90,"151 Greenpoint Avenue, Brooklyn",151 Greenpoint Ave,90
The Brew Inn,The Golden Glass Restaurant,86,"924 Manhattan Avenue, Brooklyn",brooklyn,90
Bread Brothers Bagel Cafe - Greenpoint,Stars Cafe & Restaurant,86,"912 Manhattan Avenue, Brooklyn",brooklyn,90
Friducha,Kennedy Fried Chicken,68,"946 Manhattan Avenue, Brooklyn",brooklyn,90
Piatto,Patio,73,"1-50 50th Avenue, Long Island City",1 Worlds Fair Marina,86
American Brass,Theresa's Polish American Restaurant,86,"Corner of Center Blvd &, 49th Avenue",147-18 Northern Blvd,86
Little Chef Little Cafe,Cafe 47,86,"5-43 48th Avenue, Long Island City",8th Ave.,90
Takumen,Kumo,68,"5-50 50th Avenue, New York","New York, New York",95
Casa Enrique,Casa,90,"5-48 49th Avenue, Long Island City",196 23 Jamaica Avenue,86
Vernon Grille,Grille De Paris Restaurant,86,"48-20 Vernon Boulevard, Queens",144-20,86
P J Leahy's,Theresa's Polish American Restaurant,86,"5002 Vernon Boulevard, Long Island City",2670 Coney Island Ave,86
Tuk Tuk,Thai Street Food by Tuk Tuk Boy,90,"49-06 Vernon Boulevard, Long Island City",2670 Coney Island Ave,86
Tamashii,Awash,72,"47-36 Vernon Boulevard, Long Island City",211-47 Jamaica Ave,86
Bella Via Pizzeria | Restaurant & Catering,Restaurant,90,"47-46 Vernon Boulevard, Long Island City",211-47 Jamaica Ave,86
Bunker,bakery,67,"99 Scott Avenue, Brooklyn",brooklyn,90
Empanada City,Green City Restaurant,86,"321 Starr Street, Brooklyn",brooklyn,90
Grilled Cheese Incident,Food Freaks Grilled Cheese (Central Park),86,"205 Cypress Avenue, Ridgewood",205-02 Hillside Ave,86
Rocco's,Rocco's Pizza Restaurant,90,"5010 Northern Boulevard, Long Island City",147-18 Northern Blvd,86
Taqueria Santa Fe,Mi Barrio Taqueria Restaurant,86,"47-08 47th Avenue, Queens",7th Ave,90
Giovanni,Giovanni's,95,"4559 47th Street, Queens",Street,90
Kabayan Authentic,PARIS Authentic Vietnamese Restaurant,86,"49-12 Queens Boulevard, Flushing",Queens Boulevard,90
Tito Rad's Grill,Tito Rad's Grill & Restaurant,90,"49-10 Queens Boulevard, Queens",Queens Boulevard,90
Luigi's Pizza & Pasta,Luigi's Pizza & Pasta,100,"808 Burke Avenue, The Bronx",808 Burke Ave,90
Lee's Chinese Kitchen,Lee's,90,"806 Burke Avenue, The Bronx",Between 39th and 40th street on 13th Avenue,86
Lash West Indian & American Cuisine,C B Finger Licking Jamaican and West Indian Restaurant,86,"800 Burke Avenue, The Bronx",Between 39th and 40th street on 13th Avenue,86
RICHIE RICH CARIBBEAN & AMERICAN CUISINE,Chris Caribbean Restaurant,86,"769 Burke Avenue, The Bronx",769 Burke Ave,90
La Estrella Tropical,La estrella,90,"744 Burke Avenue, The Bronx",Between 39th and 40th street on 13th Avenue,86
Kwon Wa Chinese Kitchen,"Golden Forest Chinese Restaurant, Brooklyn Ny",86,"727 Burke Avenue, The Bronx",Between 39th and 40th street on 13th Avenue,86
Blue Mountain Cuisine,Blue,90,"3701 Eastchester Road, The Bronx",Rutland Road,86
Les Q Caribbean Restaurant,Caribbean Restaurant,95,"3854 Bronxwood Avenue, The Bronx",Bronxwood Ave,90
Laconia Fish Market,Fish Market,90,The Bronx,"1095 Prospect Ave, Bronx, NY 10459",86
fried fish,Fish,90,"3211 White Plains Road, The Bronx",White Plains Road,90
Kennedy fried chicken,Kennedy Fried Chicken,100,"3211a White Plains Road, The Bronx",White Plains Road,90
Three Boys From Italy,Three Boys From Italy,100,"704 Burke Avenue, The Bronx",704 Burke Ave,90
Blue Mountain Grill,Blue,90,"3257 White Plains Road #6403, The Bronx",White Plains Road,90
Up Top Grill,Golden Krust Caribbean Bakery and Grill,86,"3257 White Plains Road, The Bronx",White Plains Road,90
K Q,Pick Quick KeyFood,90,"706 Burke Avenue, The Bronx",Between 39th and 40th street on 13th Avenue,86
Feroza's Roti,Feroza's Roti Shop,95,"716 Burke Avenue, The Bronx",716 Burke Ave,90
Lammy’s #2,Theresa's Polish American Restaurant,86,"3310 White Plains Road, The Bronx",White Plains Road,90
PR Sazon,El Monstro del Sazon Pizzaria & Restaurant,86,"3285 Westchester Avenue, The Bronx",Westchester ave,90
Happy Land Buffet,Happy Family Chinese Restaurant,86,"2028 Jerome Avenue #1802, The Bronx",2028 Jerome Ave,90
Don Pancholo Lechonera Restaurant,Don Pancholo Lechonera Restaurant,100,"2037 Jerome Avenue, The Bronx",2037 Jerome Ave,90
Top Choice,Top Choice Jamaican Restaurant,90,"686 Nereid Avenue, The Bronx",Between 39th and 40th street on 13th Avenue,86
Kaieteur Restaurant Bronx,Kaieteur Restaurant,95,"4379 White Plains Road, The Bronx",White Plains Road,90
H.I.M. Ital Health Food Market,H.I.M. Ital Health Food Market,100,"4374 White Plains Road, The Bronx",White Plains Road,90
Rincon Latino Restaurant,Rincon Latino Restaurant.,100,"4360 White Plains Road, The Bronx",White Plains Road,90
East Excellent Taste,Taste,90,"4356 White Plains Road, The Bronx",White Plains Road,90
Mistura Peruana,Star,68,"86-6 Jamaica Avenue, Woodhaven",Jamaica ave,90
SANTA FE GRILL,Santa Fe Grill & Bar,95,"86-04 Jamaica Avenue, Jamaica",Jamaica ave,90
Sam's Deli & Grocery,Sam’s Deli & Grocery,100,"87 Jamaica Avenue #8, Jamaica",Jamaica ave,90
Pop’s Cocina & Bar,Theresa's Polish American Restaurant,86,"8522 Jamaica Avenue, Woodhaven",8522 Jamaica Ave,90
Double Happy Chinese Restaurant,Double Chinese Restaurant,95,"8518 Jamaica Avenue, Woodhaven",8518 Jamaica Ave,90
Hong Kong Gourmet,Hong Kong,90,"84-40 Jamaica Avenue, Queens",Jamaica ave,90
G Natural,C and G Restaurant,86,"8816 Jamaica Avenue, Jamaica",Jamaica ave,90
Thailand Kitchen,Chang Jiang Kitchen Chinese Restaurant,86,"86-05 Jamaica Avenue, Jamaica",Jamaica ave,90
Sal's Pizzeria,Sal's Pizzeria,100,"85-07 Jamaica Avenue, Woodhaven",Jamaica ave,90
El Puerto Mexicano,El Puerto,90,"84-28 Jamaica Avenue, Woodhaven",84-28 Jamaica Ave,90
La Hueca Guayaca,La Strada Pizzeria & Restaurant,86,"88-09 Jamaica Avenue, Queens",88-09 Jamaica Ave,90
No.1 Chinese Restaurant,No 1 Chinese Restaurant,100,"88-17 Jamaica Avenue, Woodhaven",88-17 Jamaica Ave,90
NO.1 H Chinese Restaurant,NO.1 H Chinese Restaurant,100,"88-17 Jamaica Avenue, Queens",88-17 Jamaica Ave,90
Ho Wong,Ho Wong Inc,90,"88-17 Jamaica Avenue, Jamaica",88-17 Jamaica Ave,90
Guadalupana Deli Restaurant,Guadalupana Deli Restaurant,100,"84-25 Jamaica Avenue, Woodhaven",Jamaica ave,90
La Oficina Grill & Bar,La Roja de Todos Restaurant & Bakery,86,"84-21 Jamaica Avenue, Jamaica",Jamaica ave,90
Antojitos de San Cecilio,San Soo Kap San,86,"90-04 Jamaica Avenue, Woodhaven",Jamaica ave,90
Mistura Peruana,Star,68,"8423 Jamaica Avenue, Woodhaven",Jamaica ave,90
Asian Garden,Garden 13 Dairy Restaurant and Pizza,86,"84-17 Jamaica Avenue, Woodhaven",Jamaica ave,90
Pizza Pub,Pizza Pizza,95,"John F. Kennedy International Airport, Terminal 1, 500 Terminal Drive, Jamaica",1 Worlds Fair Marina,86
Shiso,genesis one jamaican restaurant,72,"JFK Terminal 2 gate 62, Jamaica",2-01 50th Ave,86
Soy & Sake Asian Eats,Asian Food Ltd.,86,Queens,"207-13 Jamaica Ave, Queens, NY 11428",90
Eat&Go New York/ Istanbul,New Ho Wah,86,"John F. Kennedy International Airport, Terminal 1, JFK Access Road",1 Worlds Fair Marina,86
Tagliare,Li Li,86,"Perimeter Road, Jamaica","207-13 Jamaica Ave, Queens, NY 11428",86
The LOCAL,The Golden Glass Restaurant,86,"john f kennedy airport (JFK), Terminal 1, Jamaica",1 Worlds Fair Marina,86
Due Amici,Due,90,"4 Central Terminal Area, Jamaica",196 23 Jamaica Avenue,86
Taco John's,Theresa's Polish American Restaurant,86,"John F Kennedy Airport Terminal 1, Building 55, Jamaica",1 Worlds Fair Marina,86
PZA,Pyza,86,"John F. Kennedy International Airport Queens, NY 11430 Post Sec - T1 Pre Sec, Jamaica",196 23 Jamaica Avenue,86
Wok & Roll,Wok Wok,95,"John F. Kennedy International Airport Terminal 1, Jamaica",1 Worlds Fair Marina,86
HMS Host,Sterling Concepts Hospitality FoodLab,68,"2 Central Terminal Area #1, Jamaica",1 Worlds Fair Marina,86
The Local,The Golden Glass Restaurant,86,"John F. Kennedy International Airport Van Wyck and JFK Expressway Post Sec - T1, Jamaica",Between 39th and 40th street on 13th Avenue,86
A&R Food Service,famous restaurant Chinese food,86,53 Jfk Intl Airport #3,3 E 48th St,86
Urban Crave,Urban Market By Key Food,86,Jamaica,196 23 Jamaica Avenue,90
Blue Smoke on the Road,Blue,90,"Terminal Drive, Jamaica","207-13 Jamaica Ave, Queens, NY 11428",86
Pizza Vino,Pizza Pizza,95,"Central Terminal Area, Jamaica",19625 Jamaica Ave,86
Angelina’s Metro Market Fine Food of NYC,Moti's,86,"Terminal 8, Jamaica","207-13 Jamaica Ave, Queens, NY 11428",86
Pat LaFrieda’s,Theresa's Polish American Restaurant,86,"123-01 Roosevelt Avenue, Corona",Roosevelt Ave.,90
D NUEZ Restaurant,Restaurant,90,"501 West 133rd Street, New York",New York,90
Mi Casita,mi casita bakery & restaurant,90,"1484 Amsterdam Avenue, New York",Amsterdam avenue,90
Clove,Clove Indian Restaurant & Bar,90,"1592 Amsterdam Avenue, New York",Amsterdam avenue,90
Uncle Tony's Pizza,Pizza,90,"1596 Amsterdam Avenue, New York",Amsterdam avenue,90
Fumo Harlem,El Nuevo Harlem Restaurant,86,"1600 Amsterdam Avenue, New York",Amsterdam avenue,90
Oso,Delicioso Restaurant,90,"1618 Amsterdam Avenue, New York",Amsterdam avenue,90
Salt & Sugar,Salt & Sugar,100,"1625 Amsterdam Avenue, New York",Amsterdam avenue,90
The Grange,The Golden Glass Restaurant,86,"1635 Amsterdam Avenue, New York",Amsterdam avenue,90
U&N Deli Gourmet,Gourmet Deli,95,"1649 Amsterdam Avenue, New York",Amsterdam avenue,90
LightHouse,LightHouse Fish Market & Restaurant,90,"2451 Frederick Douglass Boulevard, New York",New York,90
Charles' Country Pan Fried Chicken,Old Country Diner,86,"2461 Frederick Douglass Boulevard, New York",New York,90
Healthy family,Happy Family Restaurant,86,"301 West 128th Street, New York",New York,90
Hong Cheong Kitchen,Hong Kong Kitchen,89,"2393 Frederick Douglass Boulevard A, New York",New York,90
Smoothie Rey,El Rey Del Bistec Restaurant,86,"1453 Amsterdam Avenue, New York",Amsterdam avenue,90
Rai Rai Ken,Ken Yit Yuen Roy Restaurant,86,"1467 Amsterdam Avenue, New York",Amsterdam avenue,90
Maison Harlem,El Nuevo Harlem Restaurant,86,"341 Saint Nicholas Avenue, New York",New York,90
Roland’s,Theresa's Polish American Restaurant,86,"303 West 127th Street, New York",New York,90
Harlem Bar-B-Q,El Morro Restaurant & Bar,86,"2367 Frederick Douglass Boulevard, New York",New York,90
Ellington in the Park,The Loft BKNY Restaurant & Lounge,86,"Riverside Dr & W 105th St, New York",New York,90
Fumo Upper West Side,C B Finger Licking Jamaican and West Indian Restaurant,86,"2791 Broadway, New York","New York, New York",95
108 Food Dried Hot Pot,108 Food- Dried Hot Pot,98,"2794 Broadway, New York","New York, New York",95
Garden of Eden Marketplace,Pizza Garden,86,"2780 Broadway, New York","New York, New York",95
Himalayan Curry House,Dumpling House,86,"254 West 108th Street, New York",New York,90
Atlas Kitchen,Halal Chinese Kitchen,86,"258 West 109th Street, New York",New York,90
The Halal Paradise Food Truck,The Halal Paradise Food Truck,100,"2828 Broadway, New York","New York, New York",95
Serafina,Serafina Fabulous Pizza,90,"2737 Broadway, New York","New York, New York",95
Calle Ocho,Poco,68,"2756 Broadway, New York","New York, New York",95
Mama's TOO!,Theresa's Polish American Restaurant,86,"2750 Broadway, New York","New York, New York",95
Friedman's,Theresa's Polish American Restaurant,86,"1187 Amsterdam Avenue, New York",Amsterdam avenue,90
Elysian Fields,Jian,68,"1207 Amsterdam Avenue, New York",Amsterdam avenue,90
Subsconscious,Ciro,68,"1213 Amsterdam Avenue, New York",Amsterdam avenue,90
Sliced by Harlem Pizza Co,Pizza,90,"1215 Amsterdam Avenue, New York",Amsterdam avenue,90
Massawa,Massawa,100,"1239 Amsterdam Avenue, New York",Amsterdam avenue,90
Hamilton Deli,Deli,90,"1129 Amsterdam Avenue, New York",Amsterdam avenue,90
"314 - pizza, pasta & wine bar",Pizza,90,"1260 Amsterdam Avenue, New York",Amsterdam avenue,90
Max Caffè,Max,90,"1262 Amsterdam Avenue, New York",Amsterdam avenue,90
Dragon Sushi,Ginpachi Sushi Restaurant,86,"1264 Amsterdam Avenue, New York",Amsterdam avenue,90
"Susan Sez ""Say It With Cake""",Zolita Bakery Dominican Food and Dominican Cake,86,"510 West 123rd Street, New York",New York,90
Dun Huang Upper West,C B Finger Licking Jamaican and West Indian Restaurant,86,"1268 Amsterdam Avenue, New York",Amsterdam avenue,90
Tartina,Tatiana Restaurant,77,"1034 Amsterdam Avenue, New York",Amsterdam avenue,90
V & T,Vi Min Chinese Restaurant,86,"1024 Amsterdam Avenue, New York",Amsterdam avenue,90
Marlow Bistro,Luna Asian Bistro and Japanese Rooftop Restaurant 日本料理,86,"1018 Amsterdam Avenue, New York",Amsterdam avenue,90
Roti Roll Bombay Frankie,Roti Boti,86,"994 Amsterdam Avenue, New York",Amsterdam avenue,90
Lion's Head Tavern,Theresa's Polish American Restaurant,86,"995 Amsterdam Avenue, New York",Amsterdam avenue,90
109 spicy gourmet deli inc,Deli,90,"990 Amsterdam Avenue, New York",Amsterdam avenue,90
West 109 Gourmet Deli,Deli,90,"990 Amsterdam Avenue, New York",Amsterdam avenue,90
Spice,Spice,100,"975 Amsterdam Avenue, New York",Amsterdam avenue,90
St Nicholas Deli,St Nicholas Deli Market,95,"285 Saint Nicholas Avenue, New York",New York,90
iPizzaNY,iPizzaNY,100,"357 West 125th Street, New York",New York,90
Clay,Williamsburg Pizza at Barclays,90,"553 Manhattan Avenue, New York",New York,90
red rooster,Red Star Chinese Restaurant,86,"258-270 Saint Nicholas Avenue, New York",New York,90
Tang Zi Zhong,TANG,90,"306 Saint Nicholas Avenue, New York",306 Saint Nicholas Ave,90
FLAMING GRILL & MODERN BUFFET,Chili's Grill & Bar,86,"301 West 125th Street, New York",New York,90
Presto Fresh Mexican Grill,Golden Krust Caribbean Bakery and Grill,86,"429 West 125th Street, New York",New York,90
Hibachi,Kiraku Hibachi & Sushi,90,"301 Doctor Martin Luther King Junior Boulevard, New York",New York,90
Manna's,Manna's Soul Food Restaurant - Lenox Avenue,90,"2353 Frederick Douglass Boulevard, New York",New York,90
Sido Grill,Golden Krust Caribbean Bakery and Grill,86,"2288 Frederick Douglass Boulevard, New York",New York,90
Savann,Savann,100,"2280 Frederick Douglass Boulevard, New York",New York,90
Beijing,Beijing Garden Chinese Restaurant,90,"1342 Central Avenue, Far Rockaway",Central Ave,90
Manero's Pizza,Pizza Pizza,95,"113 Mulberry Street, New York",New York,90
Luna Ristorante,Nonno's Pizzeria Ristorante,86,"115 Mulberry Street, New York",New York,90
Royal Seafood,Sea,90,"103 Mott Street, New York","New York, New York",95
Tiny Shanghai,Shanghai,90,"122 Mulberry Street, New York",122 Mulberry St,90
Il Cortile,Il Miglio Pizza & Italian Restaurant,86,"125 Mulberry Street, New York",New York,90
Taiyaki NYC,The NYC Bull - Restaurant & Rotisserie,86,"119 Baxter Street, New York",New York,90
The Dough Club,The Golden Glass Restaurant,86,"119 Baxter Street, New York",New York,90
Aux Epices,Spice,72,"121 Baxter Street, New York",New York,90
Casa Bella,Casa,90,"127 Mulberry Street, New York",New York,90
華美排骨快餐,Wah Fung Number 1 Fast Food 華豐快飯店,30,"190 Hester Street, New York",Hester St,90
May Wah Fast Food,Fast Food,90,"190 Hester Street, New York",Hester St,90
Mulberry Meat Market Inc,Sunshine Restaurant Food & Catering Inc,86,"89 Mulberry Street, New York",New York,90
Hoy Wong Restaurant,Hop Wong Restaurant,95,"81 Mott Street, New York","New York, New York",95
Ten Ren's Tea Time,Ten Ren's Tea Time 天仁,95,"75 Mott Street, New York","New York, New York",95
Original Vincent's,Theresa's Polish American Restaurant,86,"119 Mott Street, New York","New York, New York",95
Caffe Napoli,Napoli Pizza & Pasta,86,"191 Hester Street, New York",Hester St,90
Forlini's,Theresa's Polish American Restaurant,86,"93 Baxter Street, New York","New York, New York",95
Puglia,Puglia Restaurant,90,"189 Hester Street, New York",189 Hester St,90
Chikarashi,Kar,90,"227 Canal Street, New York","New York, New York",95
Sweet Moment,Shandar Sweet & Restaurant,86,"106 Mott Street, New York","New York, New York",95
Snacks,Hillside Deli Snack Bar,78,"Unnamed Road, New York","New York, New York",95
City Vineyard,Green City Restaurant,86,"233 West Street, New York","New York, New York",95
The Greek,The Greek Family Restaurant,90,"458 Greenwich Street, New York",New York,90
Estancia 460,Star,68,"460 Greenwich Street, New York",New York,90
The Palm - Tribeca,The Palm,90,"206 West Street Suite 225-226, New York",206 West St,90
Harold's,Theresa's Polish American Restaurant,86,"2 Renwick Street, New York","New York, New York",95
Spring Street Finest Deli,Spring Street Finest Deli,100,"322 Spring Street, New York",New York,90
MAV SOHO,Soho lounge & Restaurant,86,"525 Greenwich Street, New York",New York,90
Adoro Lei,El Salvadoreño Restaurant & Sports Bar,70,"287 Hudson Street, New York",New York,90
Whitmans,Whitmans,100,"261 Hudson Street, New York",New York,90
Tauro,Tauros Bar & Restaurant,90,"284 Hudson Street, New York",284 Hudson St,90
Local & Vine,D'VINE Restaurant & Wine Bar,86,"282 Hudson Street, New York",New York,90
Hudson Food Court,Hudson Food Court,100,"333 Hudson Street # A # A, New York",333 Hudson St,90
Westville Hudson,The Shops & Restaurants at Hudson Yards,86,"333 Hudson Street, New York",333 Hudson St,90
Cuisine K,Annie Chan's Japanese Cuisine Restaurant,86,New York,New York,100
Halal Indian Food and Gyro Truck,Halal,90,"258 Greenwich Street, New York",New York,90
Umar Express Halal Food,Express Halal Food,95,"258 Greenwich Street, New York",New York,90
Great NY Noodletown,"Golden Forest Chinese Restaurant, Brooklyn Ny",86,"28 Bowery, New York","New York, New York",95
88 Lan Zhou Handmade Noodles,Lan King,86,"40 Bowery, New York","New York, New York",95
Joe's Shanghai,Shanghai,90,"46 Bowery, New York","New York, New York",95
Cafe Hong Kong,Hong Kong,90,"51 Bayard Street, New York","New York, New York",95
Famous Sichuan,Famous Pollio Restaurant,86,"10 Pell Street, New York","New York, New York",95
Nakaji,Osaka Japanese restaurant,60,"48 Bowery, New York","New York, New York",95
Yunshang Rice Noodle House,Dumpling House,86,"53 Bayard Street, New York","New York, New York",95
West New Malaysia,New Fulin Kwok Seafood Restaurant,86,"46-48, Bowery, New York","New York, New York",95
Taiwan Bear House,Bea,90,"11 Pell Street, New York","New York, New York",95
57 Bayard Meat Market,Seafish Market Seafood Restaurant,86,"57 Bayard Street A, New York",New York,90
21 Shanghai House,Shanghai,90,"21 Division Street, New York",New York,90
Happy Garden 17 INC,Happy Garden,90,"17 Division Street, New York",New York,90
Shanghai Asian Cuisine 上海小館,Shanghai,90,"14A Elizabeth Street, New York",New York,90
Nice Fish& Noodle House,Fish,90,"14-18 Elizabeth Street #32-33, New York",New York,90
Yue Wong 裕旺大饭店,Duck Wong Wonton Restaurant,86,"60 Bayard Street, New York","New York, New York",95
Jing Fong,Jing Fong Restaurant 金豐大酒樓,90,"20 Elizabeth Street, New York",20 Elizabeth St,90
Thai Diner,Diner,90,"186 Mott Street, New York","New York, New York",95
LuAnne's Wild Ginger,Theresa's Polish American Restaurant,86,"380 Broome Street, New York",New York,90
Unagi (Aburi Ittetsu),Ott,60,"60 Kenmare Street, New York",New York,90
Quan Sushi Grill,Ginpachi Sushi Restaurant,86,"375 Broome Street, New York",New York,90
Kabab Bites,Prince Kabab & Chinese Restaurant,86,"369 Broome Street, New York",369 Broome St,90
Shoo Shoo Nolita,Li Li,86,"371 Broome Street, New York",New York,90
October,Poco,68,"384 Broome Street, New York",New York,90
Pepe Rosso Social,Pepe Joe Pizza and Pasta II,86,"173 Mott Street, New York","New York, New York",95
Saigon Vietnamese Sandwich Deli,Deli,90,"369 Broome Street, New York",369 Broome St,90
Nolita Pizza,Pizza Pizza,95,"68 Kenmare Street, New York",New York,90
Sal's little italy,Sal's Little Italy,100,"384 Broome Street, New York",New York,90
Yakitori Tora,Yakitori Totto,81,"72 Kenmare Street, New York",72 Kenmare St,90
Marcellino,Li Li,86,"178 Mulberry Street, New York",New York,90
百味龍蝦屋,Super Taste (百味蘭州拉面) (Super Taste),36,"72 Kenmare Street, New York",72 Kenmare St,90
Asia Dog,Asia Chinese Restaurant,86,"72 Kenmare Street, New York",72 Kenmare St,90
noodlelove,Elmo,68,"192 Mott Street, New York","New York, New York",95
Egg Shop,O N Coffee Shop Restaurant,86,"151 Elizabeth Street, New York",New York,90
Charley St,St. John's University Hostel,86,"41 Kenmare Street, New York",New York,90
Parisi Bakery,bakery,90,"198 Mott Street, New York","New York, New York",95
Deluxe Green Bo,Deluxe Green Bo Restaurant,90,"66 Bayard Street, New York","New York, New York",95
Canton Lounge,Taipan Fusion Restaurant and Hookah Lounge,86,"70 Mott Street, New York","New York, New York",95
Amazing 66,Amazing Value Restaurant Equipemnt,86,"66 Mott Street, New York","New York, New York",95
Julia Tea & Dim Sum House,Dumpling House,86,"68 Mott Street, New York","New York, New York",95
Happy Veggie Restaurant,Happy Restaurant,95,"76 Mott Street, New York","New York, New York",95
La Caverna,La Caverna,100,"122 Rivington Street, New York",122 Rivington St,90
Charrúa,La Kuchara Ecuadorian Restaurant Bar,75,"131 Essex Street, New York","New York, New York",95
Essex,Essex On Coney,90,"124 Rivington Street, New York",New York,90
Mazaar Lounge,Taipan Fusion Restaurant and Hookah Lounge,86,"137 Essex Street, New York","New York, New York",95
Verlaine,J B Restaurant Entertainment,68,"110 Rivington Street, New York",New York,90
Patacon Pisao,ATA,90,"139 Essex Street, New York","New York, New York",95
The Falafel Guys,The Golden Glass Restaurant,86,"127 Rivington Street, New York",New York,90
Burger People NYC,The NYC Bull - Restaurant & Rotisserie,86,"134 Ludlow Street, New York",New York,90
Iggy's Keltic Lounge,Theresa's Polish American Restaurant,86,"132 Ludlow Street, New York",New York,90
Bel-Fries,Bel Vallagio Restaurant,86,"132 Ludlow Street, New York",New York,90
Tijuana Picnic,Blue Tijuana Restaurant,86,"151 Essex Street, New York","New York, New York",95
Stanton Street Pizza,Anton's,90,"127 Stanton Street, New York",New York,90
El Nuevo Amanecer,El Nuevo Amanecer Restaurant,90,"117 Stanton Street # 1, New York",117 Stanton St,90
San Loco,San Soo Kap San,86,"111 Stanton Street, New York",New York,90
bd pizza,Pizza Pizza,95,"105 Stanton Street, New York",New York,90
Your Wholesome Foods,Wholesome Foods,95,"159 Essex Street, New York","New York, New York",95
Souvlaki GR,Lali,68,"116 Stanton Street, New York",New York,90
El Sombrero,El Sombrero,100,"108 Stanton Street, New York",New York,90
SakaMai,Alma,68,"157 Ludlow Street, New York",New York,90
La Margarita Pizzeria,X-tra Cheese Pizzeria & Restaurant,86,"168 Ludlow Street, New York",New York,90
Bognan,Bonafini,71,"590 East 169th Street, The Bronx",9th St,90
Yang's Good Taste,Good Taste,90,"209 East 183rd Street, The Bronx",Street,90
Cachapa Cachapa,Haab,68,"1903 Bathgate Avenue, The Bronx",311 Avenue X,86
Jimbo's Hamburger,Jimbo's,90,"515 East Tremont Avenue, The Bronx",196 23 Jamaica Avenue,86
Papá Restaurant,Papa restaurant,97,"453B East Tremont Avenue, The Bronx",196 23 Jamaica Avenue,86
Napoli's Best Pizza,Pizza,90,"521 East Tremont Avenue, The Bronx",196 23 Jamaica Avenue,86
Blue Sky Restaurant,Blue Sky Jwy Restaurant,95,"470 East Tremont Avenue, The Bronx",196 23 Jamaica Avenue,86
Famosa Pizza,Pizza Pizza,95,"621 East 187th Street, The Bronx",Street,90
"Healthy Fresh, inc.",Fresh Meadows Pizzeria and Restaurant,86,"621 East 187th Street, The Bronx",Street,90
Lee's,Lee's,100,"626 East 187th Street, The Bronx",Street,90
Tra Di Noi,X-tra Cheese Pizzeria & Restaurant,86,"622 East 187th Street, The Bronx",Street,90
Rancho Estrella,La Estrella Bar & Restaurant,86,"616 East 187th Street #6705, The Bronx",Street,90
MangiPasta,Star,77,"608 East 187th Street, The Bronx",Street,90
Casa Della Mozzarella Italian,Casa,90,"604 East 187th Street, The Bronx",Street,90
Cakor,Ako,90,"632 East 186th Street, The Bronx",86th St.,90
Ajo y Orégano,Migueleno's Pizza Y Restaurant,86,"621 Crescent Avenue, The Bronx",311 Avenue X,86
Karied's Deli Cafe,Kar,90,"634 East 183rd Street, The Bronx",Street,90
Çka Ka Qellu,K <3 Q,68,"2321 Hughes Avenue, The Bronx",2321 Hughes Ave,90
Taco Rey,Taco Rey Restaurant #2,90,"2319 Hughes Avenue, The Bronx",2319 Hughes Ave,90
The Bronx Beer Hall,Zaffran Party Hall & restaurant,86,"2344 Arthur Avenue, The Bronx",2344 Arthur Ave,90
Arthur Avenue Market Pasticceria,The Avenue Restaurant,86,"2344 Arthur Avenue, The Bronx",2344 Arthur Ave,90
Roberto's,Roberto's,100,"603 Crescent Avenue, The Bronx",603 Crescent Ave,90
Kennedy's Chicken & Burgers,"Kennedy's Fried Chicken, Pizza & Burgers",95,"2537 Webster Avenue, The Bronx",Webster Ave,90
Le Chéile,Le Fatima Bar & Grill Restaurant,86,"839 West 181st Street, New York",New York,90
Saggio,Saggio Restaurant,90,"827 West 181st Street, New York",New York,90
Sushi Yu 2,Ginpachi Sushi Restaurant,86,"825 West 181st Street, New York",New York,90
181 Cabrini,Cabo,68,"854 West 181st Street, New York",New York,90
Tung Thong 181,Tung Tung Restaurant Inc,86,"812 West 181st Street, New York",New York,90
Bangkok Heights,Purity Restaurant At Prospect Heights,86,"812 West 181st Street, New York",New York,90
Exclusive Pizza,Exclusive Pizza Bros,95,"810 West 181st Street, New York",New York,90
Aladdin Grill and Rice,Ambrosia Italian and Albanian Restaurant,86,"736 West 181st Street, New York",New York,90
Noel's Pizza 1,Noel's Pizza,95,"94 Nagle Avenue, New York","New York, New York",95
Koko Seafood Salad & Grill,Golden Krust Caribbean Bakery and Grill,86,"92 Nagle Avenue, New York","New York, New York",95
Dos Mares Restaurant Lounge,Lounge & Restaurant,95,"25 Sherman Avenue, New York",New York,90
Rinconcito Vegano,El Rinconcito De Los Sabores Restaurant & Deli,86,"1650 Saint Nicholas Avenue, New York",New York,90
Dyckman Park,Dyckman Bar,87,"39 Sherman Avenue, New York",New York,90
Pica Pollo 809,Pica Pollo Restaurant,86,"1636 Saint Nicholas Avenue, New York",New York,90
Pop & Pour,Pop's Restaurant,86,"200 Dyckman Street, New York",New York,90
Burgos Restaurant cafe,Cafe Restaurant,95,"206 Dyckman Street, New York",206 Dyckman St,90
Dong Shu Ying Restaurant,Restaurant,90,"206 Dyckman Street, New York",206 Dyckman St,90
China Sea,Sea,90,"206 Dyckman Street, New York",206 Dyckman St,90
Roof top Republica,Top Choice Jamaican Restaurant,86,"160 Dyckman Street, New York",New York,90
Ceci's,Ceci's,100,"78 Sherman Avenue, New York",78 Sherman Ave,90
Albert's Mofongo,Theresa's Polish American Restaurant,86,"4762 Broadway, New York","New York, New York",95
International Food House,International Food House,100,"217 Dyckman Street, New York",217 Dyckman St,90
Tryon Public House,Public House,90,"10040, 4740 Broadway, New York",New York,90
Tannat,Puerto Rican Natural Restaurant & Bar,75,"4736 Broadway, New York","New York, New York",95
El Conuco,El Morro Restaurant & Bar,86,"65 Sherman Avenue, New York",65 Sherman Ave,90
Taqueria El gallito,Mi Barrio Taqueria Restaurant,86,"52a Sherman Avenue, New York",New York,90
Cane Natural,Puerto Rican Natural Restaurant & Bar,86,"52a Sherman Avenue, New York",New York,90
BURGERS & GRILL,Golden Krust Caribbean Bakery and Grill,86,"2543 Amsterdam Avenue, New York",Amsterdam avenue,90
Golden City,Golden City Chinese Restaurant,90,"2545 Amsterdam Avenue, New York",Amsterdam avenue,90
Lake Como Pizza,Pizza Pizza,95,"2549 Amsterdam Avenue, New York",Amsterdam avenue,90
Chop Chop,Golden chopsticks,86,"501 West 184th Street, New York",New York,90
Mi Ranchito,Mi Ranchito Resturant,90,"1468 Saint Nicholas Avenue, New York",1468 Saint Nicholas Ave,90
Cañave,Carvel,73,"4716 Broadway, New York","New York, New York",95
M&M Bar&Grill INC.,Bar Sol De Quito Restaurant II,86,New York,New York,100
Cafe Prime Buffet,Cafe 47,86,"4041 Broadway, New York","New York, New York",95
Aquamarina,AquaMarina,100,"4060 Broadway, New York","New York, New York",95
Marilu & Daysi,Marilu & Daysi Restaurant,90,"206 Audubon Avenue, New York",206 Audubon Ave,90
Mambi Restaurant,Mambo Restaurant,94,"1318 Saint Nicholas Avenue, New York",New York,90
Andiamo Cafe,Stars Cafe & Restaurant,86,"1326 Saint Nicholas Avenue, New York",1326 Saint Nicholas Ave,90
Lola Lola,La Villa,71,"1306 Saint Nicholas Avenue, New York",306 Saint Nicholas Ave,90
Happy World Restaurant,Happy Restaurant,95,"1309 Saint Nicholas Avenue, New York",New York,90
Capri,El Capri Restaurant,90,"1342 Saint Nicholas Avenue, New York",1342 Saint Nicholas Ave,90
Makana,Makana Hawaiian & Japanese BBQ Restaurant,90,"1329 Saint Nicholas Avenue, New York",New York,90
Chimi Luisa,El Gran Chimi Deli & Grill,86,"1351 Saint Nicholas Avenue, New York",New York,90
Floridita,Floridita Restaurant,90,"4162 Broadway, New York","New York, New York",95
Sapito's Sports Cantina,Theresa's Polish American Restaurant,86,"4160 Broadway, New York","New York, New York",95
El Conde Nuevo,El Morro Restaurant & Bar,86,"3734, 4139 Broadway, New York",New York,90
SUROSS Thai Bistro,Mekong Thai & Vietnamese Restaurant,86,"4131 Broadway, New York","New York, New York",95
Mi Paso,Mi Barrio Taqueria Restaurant,86,"4129 Broadway, New York","New York, New York",95
La Casa Del Churrasco,Casa,90,"1390 Saint Nicholas Avenue, New York",1390 Saint Nicholas Ave,90
Prestige Cafe and Deli,Prestige Cafe / Deli,95,"228 Fort Washington Avenue, New York",New York,90
New First Choice,New Fulin Kwok Seafood Restaurant,86,"3893 Broadway, New York","New York, New York",95
John's Fried Chicken,Theresa's Polish American Restaurant,86,"3853 Broadway, New York","New York, New York",95
Las Palmas,Las Palmas,100,"3891 Broadway A, New York","New York, New York",95
Latino's Bar & Grill Restaurant,Restaurant,90,New York,New York,100
Latino's Bar And Grill,Ambrosia Italian and Albanian Restaurant,86,"3864 Broadway, New York","New York, New York",95
El Pitallito,El Morro Restaurant & Bar,86,"3854 Broadway, New York","New York, New York",95
Flaco's Pizza,Pizza Pizza,95,"3876 Broadway, New York","New York, New York",95
Silver Palace,Silver Palace,100,"3846 Broadway, New York","New York, New York",95
La Barca Restaurant,La Barca Restaurant,100,"3892 Broadway, New York","New York, New York",95
Taino,Taino Restaurant,90,"2228 Amsterdam Avenue, New York",Amsterdam avenue,90
Empire Noodles,Empire House Chinese Food,86,"501-549 West 172nd Street, New York",New York,90
Tu Sonrisa,Sonrisa Restaurant,86,"132 Audubon Avenue, New York",New York,90
F&J Pine,The Pine Restaurant,86,"1913 Bronxdale Avenue, The Bronx",1913 Bronxdale Ave.,90
La Lupita,La Strada Pizzeria & Restaurant,86,"2058 Wallace Avenue, The Bronx",311 Avenue X,86
Spring Garden,Spring Gardens Jamaican Restaurant,90,"2066 Wallace Avenue, The Bronx",311 Avenue X,86
Grill House,Hunan House Chinese Restaurant,86,"1991 Bronxdale Avenue #3, The Bronx",196 23 Jamaica Avenue,86
Dukagjini Burek,Tajin,72,"758 Lydig Avenue, The Bronx",Between 39th and 40th street on 13th Avenue,86
Top Choice,Top Choice Jamaican Restaurant,90,"746 Lydig Avenue, The Bronx",746 Lydig Ave,90
John & Joe's Pizzeria and Restaurant,V & S Pizzeria and restaurant,91,"749 Lydig Avenue, The Bronx",749 Lydig Ave,90
La Catrina,La Strada Pizzeria & Restaurant,86,"825 Morris Park Avenue, The Bronx",park avenue,90
Boe Lee,Boe Lee Chinese Restaurant,90,"741 Lydig Avenue, The Bronx",741 Lydig Ave,90
Momento,Momento's Coffee Shop And Pizza,90,"900 Morris Park Avenue, The Bronx",900 Morris Park Ave,90
3 Mmm Tree Coffee Deli,Coffee,90,"874B Morris Park Avenue, The Bronx",park avenue,90
900 park/ reginascafe,The Restaurant At 432 Park Avenue,86,"900 Morris Park Avenue, The Bronx",900 Morris Park Ave,90
MX Inside Out & Deli,Deli,90,"1761 Bronxdale Avenue, The Bronx",196 23 Jamaica Avenue,86
Primavera Pizza,Pizza Pizza,95,"761 Morris Park Avenue, The Bronx",761 Morris Park Ave,90
Zerega Little Vienna Delicatessen,'Essen,90,"1130 Zerega Avenue, The Bronx",Zerega,90
Cross Bronx Pizzeria,Cross Bronx Pizzeria,100,"1105 Castle Hill Avenue, The Bronx",196 23 Jamaica Avenue,86
Halal Musa Chinese Food,Halal Musa Chinese Food,100,"2023 Westchester Avenue, The Bronx",2023 Westchester Ave,90
Musa Halal Chinese,Halal Musa Chinese Food,95,"1268 Virginia Avenue, The Bronx",311 Avenue X,86
Khalil Halal Chinese,"Golden Forest Chinese Restaurant, Brooklyn Ny",86,"2062 McGraw Avenue, The Bronx",2062 McGraw Ave,90
David's Chinese Restaurant,Chinese Restaurant,95,"1165 Castle Hill Avenue, The Bronx",1165 Castle Hill Ave,90
Lulu's Coffee Shop,Lulu's Coffee Shop,100,"1191 Castle Hill Avenue, The Bronx",1191 Castle Hill Ave,90
Vegan Grill,Golden Krust Caribbean Bakery and Grill,86,"1201 Castle Hill Avenue, The Bronx",196 23 Jamaica Avenue,86
Brisas del Caribe,Brisas Del Caribe Restaurant,90,"1207 Castle Hill Avenue, The Bronx",1207 Castle Hill Ave,90
La Vecina,La Strada Pizzeria & Restaurant,86,"1144 Castle Hill Avenue, The Bronx",196 23 Jamaica Avenue,86
Wuarache pizza restaurant,Pizza Restaurant,90,"1229 Castle Hill Avenue, The Bronx",196 23 Jamaica Avenue,86
Wuarache Restaurant,Restaurant,90,"1229 Castle Hill Avenue, The Bronx",196 23 Jamaica Avenue,86
Sabrosura,Que Sabrosura Restaurant,90,"1200 Castle Hill Avenue, The Bronx",196 23 Jamaica Avenue,86
Havana Cafe,Havana Cafe,100,"1247 Castle Hill Avenue, The Bronx",196 23 Jamaica Avenue,86
Empire Wok,Empire Wok,100,"1230 Castle Hill Avenue, The Bronx",1230 Castle Hill Ave,90
Delicias Food Deli Cafe,Delicia,90,"2148 Westchester Avenue, The Bronx",Westchester ave,90
Melanie's Roti,Melanie's,90,"1248 Castle Hill Avenue, The Bronx",1248 Castle Hill Ave,90
Lin’s Asian Cuisine,Theresa's Polish American Restaurant,86,"1506 Bronxdale Avenue, The Bronx",196 23 Jamaica Avenue,86
Bronx Trading Co,Hyco Restaurant Supply Co,86,"1375 Seabury Avenue, The Bronx",311 Avenue X,86
KJAK ENTERPRISES,RCL Enterprises Restaurant,86,"1371 Seabury Avenue, The Bronx",311 Avenue X,86
National Diner,National,90,"135 Westchester Square, The Bronx",941A Westchester Ave.,86
Shanghai Red,Shanghai,90,"127 Westchester Avenue, The Bronx",Westchester ave,90
Mose's Pizza II,Pizza Pizza,95,"123 Westchester Avenue, The Bronx",Westchester ave,90
Fresca Pizza & Pasta,Fresco Pizza & Pasta,95,"560 East 149th Street #2812, The Bronx",9th St,90
Los Nisperos,Eros,90,"500 East 149th Street, The Bronx",9th St,90
149 Steam Fish,Fish,90,"500 East 149th Street, The Bronx",9th St,90
Noches Mexicanas,Mexicana,90,"524 Brook Avenue, The Bronx",Between 39th and 40th street on 13th Avenue,86
Mi Romance Ecuatoriano Lucho Barrios,Mi Candileja,86,"524 A Brook Avenue, The Bronx",29-30  A Union St,86
Cocina Latina,Cocina Latina Restaurant Corp,90,"650 Westchester Avenue, The Bronx",Westchester ave,90
La Casa del Pollo,Casa,90,"450 East 149th Street, The Bronx",9th St,90
TACOS APACHi,Tacos Puebla Restaurant,86,"660 East 152nd Street, The Bronx",52nd Street,90
24 Hours Deli Grocery Store,Deli & Grocery Store,95,"726 East 152nd Street, The Bronx",52nd Street,90
El Taquitos,El Taquitos Authentic Mexican Food,90,"138 Brook Avenue, The Bronx",Between 39th and 40th street on 13th Avenue,86
New Wok,New Wok,100,"481 Brook Avenue, The Bronx",481 Brook Ave,90
Ruinas de Copán & Bar,Bar Sol De Quito Restaurant II,86,"483 Brook Avenue, The Bronx",483 McDonald Ave,86
Mexicocina,Mexicana,78,"503 Jackson Avenue, The Bronx",503 Jackson Ave,90
Lechonera La Piraña,La Strada Pizzeria & Restaurant,86,"766 East 152nd Street, The Bronx",52nd Street,90
Xochimilco Family Restaurant,Xochimilco Family Restaurant,100,"653 Melrose Avenue, The Bronx",653 Melrose Ave,90
Chicanito,Chicano's Mexican Restaurant,70,"435 East 153rd Street, The Bronx",53rd street,90
American Grill,Theresa's Polish American Restaurant,86,"2987 3rd Avenue, The Bronx",3rd Ave.,90
Caribbean Hut,Bea,90,"651 Elton Avenue, The Bronx",651 Elton Ave,90
Gar's Pizzeria,Gar's Pizzeria Restaurant,90,"626 Melrose Avenue, The Bronx",626 Melrose Ave,90
Flavor Palace,Caribbean Flavor & American Restaurant,86,"647 Courtlandt Avenue, The Bronx",Courtlandt Avenue,90
Perry's Coffee Shop,Perry Coffee Shop.,95,"2783 3rd Avenue, The Bronx",3rd Ave.,90
Foohing Kitchen,Chang Jiang Kitchen Chinese Restaurant,86,"2706 3rd Avenue, The Bronx",3rd Ave.,90
Jerry's Hamburger Place,Theresa's Polish American Restaurant,86,"473 East 146th Street, The Bronx",46th St,90
Best Italian Pizza,Pizza,90,"412 East 149th Street, The Bronx",9th St,90
El Nuevo Delicioso,Nuevo Delicioso,95,"423 East 149th Street, The Bronx",9th St,90
Sunlight Coffee Shop & Pizza,Sunlight,90,"506 Willis Avenue, The Bronx",Between 39th and 40th street on 13th Avenue,86
99 Cent Hot Pizza,99 cent pizza,95,"526 Willis Avenue, The Bronx",Between 39th and 40th street on 13th Avenue,86
Foodfest,Summer on Sixth Food Fest,79,"500 East 132nd Street, The Bronx",Street,90
Jalisco Tacos,Tacos Puebla Restaurant,86,"214 Saint Ann's Avenue, The Bronx",196 23 Jamaica Avenue,86
Mexican Grocery Don Jose,MEXICAN RESTAURANT RESTAURANTE MEXICANO GUATEMALTECO MEXICAN FOOD,86,"216 Saint Ann's Avenue, The Bronx",196 23 Jamaica Avenue,86
Nick's Truck,Nick's Food Truck,95,"130 Central Road, New York","New York, New York",95
Fish Market,Fish Market,100,"219 Saint Ann's Avenue, The Bronx",196 23 Jamaica Avenue,86
Worship Super Heroes,Super Lucky Seafood Restaurant,86,"570 East 138th Street, The Bronx",38th St,90
El Jaguar Restaurant,Restaurant,90,"536 East 138th Street, The Bronx",38th St,90
Brook Ave Deli & Pizza,Pizza,90,"348 Brook Avenue, The Bronx",Between 39th and 40th street on 13th Avenue,86
Tenares Restaurant,Restaurant,90,"571 East 141st Street, The Bronx",Street,90
Ginbos Hamburger House,Dumpling House,86,"252 Saint Ann's Avenue, The Bronx",196 23 Jamaica Avenue,86
Best 1 Kitchen,Lucky 1 Chinese Restaurant,86,"6005 Fort Hamilton Parkway, Brooklyn",brooklyn,90
Komorebi Full House,Hunan House Chinese Restaurant,86,"6201 11th Avenue, Brooklyn",brooklyn,90
Pho 60,SAPA Pho Vietnamese Restaurant,86,"1001 60th Street, Brooklyn",brooklyn,90
Spring Garden,Spring Gardens Jamaican Restaurant,90,"8706 5th Avenue, Brooklyn",5th Avenue,90
B & A Pork Store,a taberna Portuguese restaurant,86,"7818 13th Avenue, Brooklyn",brooklyn,90
New King Garden INC. Chinese Restaurant,New Garden Chinese Restaurant,95,"7910A 13th Avenue, Brooklyn",brooklyn,90
Taste of China 東陞,Taste Of China,95,"7801 13th Avenue, Brooklyn",brooklyn,90
Blend Salad & Juice Bar,La Kuchara Ecuadorian Restaurant Bar,86,"1310 78th Street, Brooklyn",brooklyn,90
Mario's Pizza & Restaurant,Mario's Pizza Restaurant,96,"6424 14th Avenue, Brooklyn",6424 14th Ave,90
China Royal,China Royal Chinese food to take out,90,"1377 65th Street, Brooklyn",65th street,90
Tacos Oaxaca,Tacos Puebla Restaurant,86,"6426 New Utrecht Avenue, Brooklyn",brooklyn,90
Sabor Andino,Sabor Latino Cuchifrito Restaurant,86,"6314 14th Avenue, Brooklyn",4th Ave,90
Win Xin,Wing xin chinese restaurant,86,"6001 14th Avenue, Brooklyn",6001 14th Ave,90
Elegante Pizzeria,La Strada Pizzeria & Restaurant,86,"6922 5th Avenue, New York","New York, New York",95
Spanglish Eats,Li Li,86,"6917 4th Avenue, Brooklyn",4th Ave,90
China Pagoda,China Gourmet Chinese Restaurant,86,"6918 5th Avenue, Brooklyn",5th Avenue,90
Yemen Cafe,Yemen Cafe,100,"7130 5th Avenue, Brooklyn",5th Avenue,90
Fresh Eats Café,Fresh Meadows Pizzeria and Restaurant,86,"478 72nd Street, Brooklyn",brooklyn,90
Meena House Cafe,Cafe 47,86,"476 Bay Ridge Avenue, Brooklyn",brooklyn,90
Bahary Sea Food,Sea,90,"484 Bay Ridge Avenue, Brooklyn",484 Bay Ridge Ave,90
Hemo's Spot Juice Bar/Cafe,Moti's,86,"486 Bay Ridge Avenue, Brooklyn",brooklyn,90
Alsalam,Alsalam Restaurant and Meat Market,90,"7206 5th Avenue, Brooklyn",5th Avenue,90
Al Aqsa Bakery & Restaurant,Kal's Bakery & Restaurant,92,"6917 5th Avenue, Brooklyn",5th Avenue,90
1 Halal Shish Kebab & Gyro,Halal,90,"487 73rd Street, Brooklyn",brooklyn,90
Original Pizza,Original Pizza,100,"6823 4th Avenue, Brooklyn",4th Ave,90
Tarboosh,Tarboosh,100,"7222 5th Avenue, Brooklyn",5th Avenue,90
Middle Eastern Halal Food 69st Cart (Rite Aid Side),Halal Food,90,"6900 4th Avenue, Brooklyn",4th Ave,90
Hazar Turkish Kebab,Istanbul Turkish Fast Food & Restaurant,86,"7224 5th Avenue, Brooklyn",5th Avenue,90
PC's Bar & Grill,El Morro Restaurant & Bar,86,"7215 5th Avenue, Brooklyn",5th Avenue,90
Emphasis,Emphasis,100,"6822 4th Avenue, Brooklyn",4th Ave,90
El Castillo de Jagua,El Castillo De Jagua,100,"6811 4th Avenue, Brooklyn",4th Ave,90
Gourmet Dell,Gourmet Deli,92,"7223 5th Avenue, Brooklyn",5th Avenue,90
The Leah,The Golden Glass Restaurant,86,"57 MacKay Place, Brooklyn",brooklyn,90
Pier 69 Market,Seafish Market Seafood Restaurant,86,"10 Bay Ridge Avenue, Brooklyn",brooklyn,90
Luliano’s Wood Fired Pizza & Trattoria,Pizza,90,"7902 3rd Avenue, Brooklyn",brooklyn,90
Offshore,Offshore Restautant,90,"7822 3rd Avenue, Brooklyn",7822 3rd Ave,90
Aleli,Valeli Food,90,"7804 3rd Avenue, Brooklyn",brooklyn,90
Samia's,Theresa's Polish American Restaurant,86,"7922 3rd Avenue, Brooklyn",brooklyn,90
Kathy's Dumplings NY,Theresa's Polish American Restaurant,86,"7924 3rd Avenue, Brooklyn",brooklyn,90
Sapporo,Orso,77,"7812 3rd Avenue, Brooklyn",brooklyn,90
Peppino's,Peppino's Italian Family Restaurant,90,"7708 3rd Avenue, Brooklyn",brooklyn,90
Fatty Daddy Taco,Big Daddy's Caribbean Taste Restaurant,86,"7720 3rd Avenue, Brooklyn",brooklyn,90
Bay Sushi,Bai Sushi,89,"29 Bay Ridge Avenue, Brooklyn",brooklyn,90
somethingreek,Something cooler,69,"7616 3rd Avenue, Brooklyn",brooklyn,90
Greenhouse Cafe,Stars Cafe & Restaurant,86,"7717 3rd Avenue, Brooklyn",brooklyn,90
MATTER,Food Matters Again,90,"7604 3rd Avenue, Brooklyn",brooklyn,90
Dragon China,China Gourmet Chinese Restaurant,86,"7917 3rd Avenue, Brooklyn",brooklyn,90
My Thai Cafe,Stars Cafe & Restaurant,86,"7803 3rd Avenue, Brooklyn",7803 3rd Ave,90
Cappuccino Cafe,Stars Cafe & Restaurant,86,"7721 3rd Avenue, Brooklyn",brooklyn,90
Pete's,Pete's Family Restaurant,90,"7522 3rd Avenue, Brooklyn",7522 3rd Ave,90
Ben's Pizzeria,Lenny's Pizzeria,87,"8125 3rd Avenue, Brooklyn",brooklyn,90
Rocky's & Nicky's Pizzeria II,Moti's,86,"6824 Colonial Road #1, Brooklyn",brooklyn,90
Cali Tajadas Colombian Restaurant,Restaurant,90,"241 Bay Ridge Avenue, Brooklyn",241 Bay Ridge Ave,90
Cali Tajadas,Tajadas Bakery Restaurant,86,"241 Bay Ridge Avenue, Brooklyn",241 Bay Ridge Ave,90
Tortas Morelos,Taco Morelos Food Truck,86,"271 Bay Ridge Avenue, Brooklyn",brooklyn,90
Tortas Morelos Authentic Mexican Sandwiches,Chicano's Mexican Restaurant,86,"271 Bay Ridge Avenue, Brooklyn",brooklyn,90
Little Forno,Little Bandgladesh Restaurant,86,"276 Bay Ridge Avenue, Brooklyn",brooklyn,90
Mike's Place,Theresa's Polish American Restaurant,86,"6830 3rd Avenue #1, Brooklyn",brooklyn,90
Bai’dar cafe & Restaurant,Restaurant,90,"6810 3rd Avenue, Brooklyn",brooklyn,90
Coszcal De Allende,Bar Sol De Quito Restaurant II,86,"6824 3rd Avenue, Brooklyn",6824 3rd Ave,90
Grandma's Original Pizza,Grandma's Original Pizza,100,"6918 3rd Avenue, Brooklyn",brooklyn,90
Bayridge Sushi,Ginpachi Sushi Restaurant,86,"6914 3rd Avenue #1, Brooklyn",brooklyn,90
Anopoli,Anopoli,100,"6920 3rd Avenue #1351, Brooklyn",6920 3rd Ave,90
Bay Thai,Mekong Thai & Vietnamese Restaurant,86,"6735 3rd Avenue, Brooklyn",brooklyn,90
Fuel Health Food II,Fuel Health Food,95,"7004 3rd Avenue, Brooklyn",7004 3rd Ave,90
Golden Dragon,Golden Dragon,100,"6815 3rd Avenue, Brooklyn",brooklyn,90
Gourmet Kitchen Wine Bar,La Kuchara Ecuadorian Restaurant Bar,86,"6819 3rd Avenue, Brooklyn",brooklyn,90
Take Away & Cafe,Cafe 47,86,"7006 3rd Avenue, Brooklyn",brooklyn,90
Bombay Grill,Golden Krust Caribbean Bakery and Grill,86,"8716 3rd Avenue, Brooklyn",brooklyn,90
Tuscany Grill,Golden Krust Caribbean Bakery and Grill,86,"8620 3rd Avenue, Brooklyn",brooklyn,90
Ho'Brah,A-HO RESTAURANT,86,"8618 3rd Avenue, Brooklyn",brooklyn,90
The Kettle Black,The Golden Glass Restaurant,86,"8622 3rd Avenue, Brooklyn",brooklyn,90
Chobana,Bann,68,"8602 3rd Avenue, Brooklyn",brooklyn,90
Pegasus,MegaSun Restaurant,64,"8610 3rd Avenue, Brooklyn",brooklyn,90
Cebu,Essence Bar & Restaurant,68,"8801 3rd Avenue, Brooklyn",brooklyn,90
The Pearl Room,The Golden Glass Restaurant,86,"8518 3rd Avenue, Brooklyn",brooklyn,90
Leo's Casa Calamari,Casa,90,"8502 3rd Avenue, Brooklyn",brooklyn,90
Cocoa Grinder,Cocoa West Indian Restaurant and Bakery,86,"8511 3rd Avenue, Brooklyn",brooklyn,90
Angelina's Kitchen,Theresa's Polish American Restaurant,86,"280 Marsh Avenue, Staten Island",311 Avenue X,86
Ono Bowls Staten Island,Island Runnings Jamaican Restaurant,86,"2655 Richmond Avenue, Staten Island",Richmond Avenue,90
Melt Shop,O N Coffee Shop Restaurant,86,"Mall, Space, 2655 Richmond Avenue, Staten Island",Richmond Avenue,90
Bananas Smoothies And Frozen Yogurt,C B Finger Licking Jamaican and West Indian Restaurant,86,"140 Marsh Avenue, Staten Island",311 Avenue X,86
Da Noi,Da Wong Chinese Restaurant,86,"4358 Victory Boulevard, Staten Island",2670 Coney Island Ave,86
Dario The Baker Pizzeria,Gino's Pizzeria,86,"4392 Victory Boulevard, Staten Island",2670 Coney Island Ave,86
Tommy's Tavern + Tap,Tommy's,90,"2655 Richmond Avenue, Staten Island",Richmond Avenue,90
Ami Yummy Cafe Inc,Cafe 47,86,"2655 Richmond Avenue, Staten Island",Richmond Avenue,90
Crepes Du Nord,Hua Du,86,"2655 Richmond Avenue, Staten Island",Richmond Avenue,90
The Manor,The Golden Glass Restaurant,86,"917 Manor Road, Staten Island",591 City Island Ave,86
Tack's Chinese Take Out,Theresa's Polish American Restaurant,86,"11 Holden Boulevard, Staten Island",40-11 150th St,86
G&G American Grill,Theresa's Polish American Restaurant,86,"891 Manor Road, Staten Island",591 City Island Ave,86
Manor Sushi,Ginpachi Sushi Restaurant,86,"878 Manor Road, Staten Island",591 City Island Ave,86
Wing World,Wing xin chinese restaurant,86,"876 Manor Road, Staten Island",591 City Island Ave,86
Max's Es-ca,Max,90,"1559 Richmond Road, Staten Island",2670 Coney Island Ave,86
Sakana Sushi & Hibachi Steakhouse,Sushi Ji Restaurant,86,"1657 Richmond Road, Staten Island",2670 Coney Island Ave,86
East Pacific,C&L Of East Ocean Restaurant,86,"2655 Richmond Avenue, Staten Island",Richmond Avenue,90
Master Wok,Wok Wok,95,"2655 Richmond Avenue, Staten Island",Richmond Avenue,90
Milk N Honey,All Refrigeration 'N Restaurant Equipment,86,"5013 10th Avenue, Brooklyn",brooklyn,90
Bodai kosher vegetarian inc,Benny's Kosher Pizza Falafel & Dairy Restaurant,86,"5015 10th Avenue, Brooklyn",brooklyn,90
La Strada Pizzeria,La Strada Pizzeria & Restaurant,90,"5023 10th Avenue, Brooklyn",5023 10th Ave,90
Jentana's,Jentana's Pizza,90,"5102 Fort Hamilton Parkway, Brooklyn",brooklyn,90
98K KENNEDY HALAL,Halal,90,"4715 8th Avenue, Brooklyn",brooklyn,90
Red Apple,Red Apple,100,"4817 8th Avenue, Brooklyn",brooklyn,90
Mi Yue Lou,Mi Barrio Taqueria Restaurant,86,"4805 8th Avenue, Brooklyn",brooklyn,90
Boat Haus,Banana Boat Restaurant,86,"4807 8th Avenue, Brooklyn",brooklyn,90
Santos,Santos Restaurant,90,"1535 62nd Street, Brooklyn",brooklyn,90
Los Chocomiles,El Rinconcito De Los Sabores Restaurant & Deli,86,"976 McDonald Avenue, Brooklyn",brooklyn,90
U & I,U & I Restaurant,90,"4409 18th Avenue, Brooklyn",18th Avenue,90
Mendelsohn's Pizza,Mendelsohn's Pizza,100,"4418 18th Avenue, Brooklyn",18th Avenue,90
Fallsburg Bagels + Cafe,Cafe 47,86,"4602 16th Avenue, Brooklyn",brooklyn,90
Yanky's Pizza,Pizza Pizza,95,"4502 16th Avenue, Brooklyn",4502 16th Ave,90
Cafe Paris,Stars Cafe & Restaurant,86,"4424 16th Avenue, Brooklyn",brooklyn,90
Progreso,Progreso Restaurant,90,"5303 Fort Hamilton Parkway, Brooklyn",brooklyn,90
KumGangSan,KumGangSan Korean restaurant,90,"138-28 Northern Boulevard, Flushing",147-18 Northern Blvd,86
Hongdae Korean restaurant (POCHA),Korean Restaurant,90,"14909 41st Avenue, Flushing",1st ave.,90
Gupji,Guajillo Restaurant,72,"149-11 41st Avenue, Flushing",1st ave.,90
Panda King,King Chinese Restaurant,86,"149-11 41st Avenue, Flushing",1st ave.,90
Keum Sung,Sung Hing Restaurant,86,"40-07 149th Place, Queens",40-07 149th Pl,90
Chingunae Pocha | Korean Bar Flushing | 法拉盛酒吧 | 朋友酒吧,El Morro Restaurant & Bar,86,"40-03 149th Place, Flushing",40-11 150th St,86
Yamato Sushi,Yamato,90,"33-23 Francis Lewis Boulevard, Flushing",33-25 Francis Lewis Blvd,86
C & W Brother Corporation,C B Finger Licking Jamaican and West Indian Restaurant,86,"3323 Francis Lewis Boulevard, Flushing",33-25 Francis Lewis Blvd,86
Graziella Pizza,Pizza Pizza,95,"33-25 Francis Lewis Boulevard, Flushing",33-25 Francis Lewis Blvd,86
Graziella Restaurant,Graziella Pizza & Restaurant,95,"33-29 Francis Lewis Boulevard, Flushing",33-25 Francis Lewis Blvd,86
Yummy Noodle House 粥麵之家,Dumpling House,86,"33-35 Francis Lewis Boulevard, Queens",33-25 Francis Lewis Blvd,86
57's All American Grill,Theresa's Polish American Restaurant,86,"33-45 Francis Lewis Boulevard, Queens",33-25 Francis Lewis Blvd,86
Kings Box,Sammy's Fish Box Restaurant,86,"33-41 Francis Lewis Boulevard, Queens",33-25 Francis Lewis Blvd,86
Cha Lom Thai Restaurant,Restaurant,90,"33-47 Francis Lewis Boulevard, Queens",33-25 Francis Lewis Blvd,86
Juice for Life,Healthy Juice and Restaurant,86,"34-7 Francis Lewis Boulevard, Flushing",33-25 Francis Lewis Blvd,86
Primo Amore,Nueveo Primo Restaurant,86,"34-33 Francis Lewis Boulevard, Flushing",33-25 Francis Lewis Blvd,86
粤唯鮮 Good Luck Kitchen,Chang Jiang Kitchen Chinese Restaurant,86,"171-03 Northern Boulevard, Flushing",147-18 Northern Blvd,86
Ssam Meat House,Hunan House Chinese Restaurant,86,"171-03 Northern Boulevard, Flushing",147-18 Northern Blvd,86
Nolbu Nolbu New York,New Fulin Kwok Seafood Restaurant,86,"16425 Northern Boulevard, Queens",147-18 Northern Blvd,86
Manul Mandu,Man Do,71,"163-24 Northern Boulevard, Flushing",147-18 Northern Blvd,86
Yong Gung,Yong Sheng Restaurant,86,"163-24 Northern Boulevard, Flushing",147-18 Northern Blvd,86
Rolly Kimbab,Barzola,61,"16316 Northern Boulevard, Flushing",147-18 Northern Blvd,86
Time Flies 童年时代,Pizza Time,86,"163-08 Northern Boulevard, Flushing",147-18 Northern Blvd,86
Pine,The Pine Restaurant,90,"37-10 114th Street, Corona",37-10 114th St,90
Crust,CRUST,100,"LaGuardia Airport, Terminal D, Gates 1-2, LaGuardia Road, Flushing",1 Worlds Fair Marina,86
Taste of Taglaire,Taste,90,"LaGuardia Airport, Terminal D, Food Court, Flushing Bay Promenade, Flushing","Terminal D, near Gate D11",86
Taste of Bisoux,Taste,90,"Terminal D Gates 3-4, Flushing",603 Flushing Ave,86
Sushi MiKasa,Ginpachi Sushi Restaurant,86,"1188 Gravesend Neck Road, Brooklyn",brooklyn,90
New Great Wall,Great Wall,95,"1419 Gravesend Neck Road, Brooklyn",brooklyn,90
Kasai Kosher Hibachi,Turquoise Kosher Fish Restaurant,86,"2524 Coney Island Avenue, Brooklyn",brooklyn,90
Anyway Cafe,Stars Cafe & Restaurant,86,"1602 Gravesend Neck Road, Brooklyn",brooklyn,90
Mitoushi,Mitoushi Japanese Restaurant,90,"2478 Coney Island Avenue, Brooklyn",brooklyn,90
New Li Hing,New Win Hing,87,"304 Avenue U, Brooklyn",Avenue U,90
Foccaceria Palermitana,Palermitana Bakery,72,"289 Avenue U, Brooklyn",Avenue U,90
Joe's of Avenue U,Theresa's Polish American Restaurant,86,"287 Avenue U, Brooklyn",Avenue U,90
Avenue U Bagels,Church Avenue Restaurant,86,"284 Avenue U, Brooklyn",Avenue U,90
Famous Pizza Park,Famous Pizza Park,100,"263 Avenue U, Brooklyn",Avenue U,90
Tasty House,Hunan House Chinese Restaurant,86,"253 Avenue U, Brooklyn",Avenue U,90
Tre Fontane,Tre Stelle Italian Restaurant&Bar,86,"222 Avenue U, Brooklyn",Avenue U,90
Ciccio’s Pizza,Pizza Pizza,95,"207 Avenue U, Brooklyn",Avenue U,90
NY Fried Chicken,Big NY Fried Chicken,95,"13104 Merrick Boulevard, Jamaica",196 23 Jamaica Avenue,86
My second wife Kabab palace,Leslies Palace Caribbean Bar and Restaurant,86,"169-04 Hillside Avenue, Jamaica",Hillside Avenue,90
Sagar Restaurant,Sagar Restaurant,100,"168-25B Hillside Avenue, Queens",Hillside Avenue,90
Dhaka Sweets & Restaurant,Dhaka Sweets And Restaurant,95,"16832 Hillside Avenue, Jamaica",Hillside Avenue,90
Halal Gyro,Halal,90,"87-77 ⛉, 116th Street, Jamaica",Street,90
Tierras Centro Americanas,Marisco Centro (Seafood Restaurant & Fish Market),86,"87-52 168 Street, Jamaica",Street,90
Kennedy Fried Chicken Burger and Pizza,Kennedy Fried Chicken & Pizza,95,"167-19 Hillside Avenue, Jamaica",Hillside Avenue,90
Mannan Bakery,bakery,90,"167-15 Hillside Avenue, Queens",Hillside Avenue,90
Tasty Spot,T&G Restaurant Spot,86,"1911 Avenue U, Brooklyn",Avenue U,90
Sherdor Restaurant,Restaurant,90,"1917 Avenue U, Brooklyn",Avenue U,90
Trio Pizzeria & Restaurant,Pizzeria & Restaurant,95,"1907 Avenue U, Brooklyn",Avenue U,90
Gulchatay Restaurant,Restaurant,90,"1915 Avenue U, Brooklyn",Avenue U,90
Phở Hoài,Phở Hoài Restaurant,90,"1906 Avenue U, Brooklyn",1906 Avenue U,90
Double Fire Gourmet Inc,Sunshine Restaurant Food & Catering Inc,86,"1818 Avenue U, Brooklyn",1818 Avenue U,90
Padishah,Padishah,100,"1920 Avenue U, Brooklyn",Avenue U,90
Sushi Bistro,Ginpachi Sushi Restaurant,86,"2106 East 19th Street, Brooklyn",brooklyn,90
Golden Sands Cafe Inc.,Cafe 47,86,"1924 Avenue U, Brooklyn",Avenue U,90
FalafaLafa Marine Park,The Restaurant At 432 Park Avenue,86,"3113 Avenue U, Brooklyn",Avenue U,90
John Moore's Deli,Deli,90,"830 Coney Island Avenue, Brooklyn",brooklyn,90
Gourmet banquet,World Fair Marina Restaurant & Banquet,86,"786 Coney Island Avenue, Brooklyn",786 Coney Island Ave,90
Gourmet Palace,China Gourmet Chinese Restaurant,86,"786 Coney Island Avenue, Brooklyn",786 Coney Island Ave,90
Grill N Dine,All Refrigeration 'N Restaurant Equipment,86,"786 Coney Island Avenue, Brooklyn",786 Coney Island Ave,90
Los Mariachis,Los Mariachis,100,"805 Coney Island Avenue, Brooklyn",805 Coney Island Ave,90
Mexico Diner,Diner,90,"902 Cortelyou Road, Brooklyn",brooklyn,90
Abdullah,Due,60,"91 Church Avenue, Brooklyn",brooklyn,90
Madhuban Sweets & Restaurent,Restaurant,81,"93 Church Avenue, Brooklyn",93 Church Ave,90
Kabir's Bakery,Kabir's Bakery,100,"97 Church Avenue, Brooklyn",brooklyn,90
Mezbani Sweets & Restaurant,Restaurant,90,"473 McDonald Avenue, Brooklyn",brooklyn,90
Khabar Ghar,Haab,68,"473 McDonald Avenue, Brooklyn",brooklyn,90
Radhuni,Radhuni Restaurant,90,"483 McDonald Avenue, Brooklyn",483 McDonald Ave,90
Beverley Pizza & Cafe,Beverly Pizzeria & Cafe,91,"358 East 2nd Street, Brooklyn",brooklyn,90
Taqueria Maria and Ricardo,Ambrosia Italian and Albanian Restaurant,86,"915 Cortelyou Road, Brooklyn",brooklyn,90
Pizza’s San Miguel,Pizza's San Miguel,100,"760 Coney Island Avenue, Brooklyn",760 Coney Island Ave,90
Mondayoff by Plant Love House,Dumpling House,86,"752 Coney Island Avenue, Brooklyn",brooklyn,90
773 Lounge,Taipan Fusion Restaurant and Hookah Lounge,86,"773 Coney Island Avenue, Brooklyn",brooklyn,90
Lea,Restaurant New Orleans,90,"1022 Cortelyou Road, Brooklyn",brooklyn,90
The Farm on Adderley,620 on Caton Pizzeria and Restaurant,86,"1108 Cortelyou Road, Brooklyn",brooklyn,90
Suncity Caribbean Flavor,Bea,90,"1110 Rogers Avenue, Brooklyn",brooklyn,90
Lotus Vegetarian,the vegetarian restaurant,86,"2249 Church Avenue, Brooklyn",2249 Church Ave,90
Natural Blend Vegetarian Cafe & Juice Bar,Natural Blend,90,"2251 Church Avenue, Brooklyn",brooklyn,90
CJ Cafe Flatbush (formerly C&J Jamaican Restaurant),Restaurant,90,"875 Flatbush Avenue, Brooklyn",875 Flatbush Ave,90
Delectible Edibles,Vibes,72,"2259 Church Avenue #2fl, Brooklyn",59 Church Ave,90
China Thai,Mekong Thai & Vietnamese Restaurant,86,"867 Flatbush Avenue, Brooklyn",Flatbush ave,90
Kitchen Time,Halal Chinese Kitchen,86,"867 Flatbush Avenue, Brooklyn",Flatbush ave,90
Four Seasons Bakery & Juice Bar,Four Seasons Bakery & Juice Bar,100,"2281 Church Avenue, Brooklyn",2281 Church Ave,90
Caribbean Social,Bea,90,"847 Flatbush Avenue, Brooklyn",Flatbush ave,90
Mandeville Bistro,IKEA Bistro,86,"944 Flatbush Avenue, Brooklyn",Flatbush ave,90
No 1 Peking Oishi Buffet,No.1,90,"2008 Church Avenue, Brooklyn",brooklyn,90
Jen’s Roti shop and bakery,bakery,90,"838 Flatbush Avenue, Brooklyn",Flatbush ave,90
PLENTYS RESTAURANT BAR AND LOUNGE,Restaurant,90,"992 Rogers Avenue, Brooklyn",brooklyn,90
Tastee Pattee,Taste,90,"987 Flatbush Avenue, Brooklyn",Flatbush ave,90
Island Express,Long Island Expressway Food Court,90,"998 Flatbush Avenue, Brooklyn",Flatbush ave,90
Denize's Sports Bar,Theresa's Polish American Restaurant,86,"2602 Church Avenue, Brooklyn",brooklyn,90
Creole Corner,Kween Creole Restaurant,86,"2602 Church Avenue, Brooklyn",brooklyn,90
Buffet Buffet,Merry Land Buffet,95,"1323 Flatbush Avenue # A, Brooklyn",Flatbush ave,90
Cafe Crepes,Stars Cafe & Restaurant,86,"1327 Flatbush Avenue, Brooklyn",Flatbush ave,90
Pelican Reef caterers Bar & Lounge,N & J Bar Restaurant,86,"1260 Flatbush Avenue, Brooklyn",Flatbush ave,90
KC Supermarket & Deli,KC Supermarket & Deli,100,"2607 Bedford Avenue, Brooklyn",brooklyn,90
NewKirk Fried Chicken,Crazy Chicken Restaurant & Coffee Shop,86,"1258 Flatbush Avenue, Brooklyn",Flatbush ave,90
Rose Fantasy,Restaurant at Rose Hill,86,"1233 Flatbush Avenue, Brooklyn",Flatbush ave,90
El Charro De Morelos Café & Mexican Grill,El Morro Restaurant & Bar,86,"1228 Flatbush Avenue, Brooklyn",Flatbush ave,90
Tj's Tasty Corner,Theresa's Polish American Restaurant,86,"2225 Tilden Avenue, Brooklyn",brooklyn,90
Fancy Buffet,Asian Buffet Restaurant,86,"1053 Flatbush Avenue, Brooklyn",Flatbush ave,90
Jus Fishy and beyond,Jus Fishy,90,"1059 Flatbush Avenue, Brooklyn",Flatbush ave,90
Los tres Chiflados,El Rinconcito De Los Sabores Restaurant & Deli,86,"1046 Flatbush Avenue, Brooklyn",Flatbush ave,90
China Chef,China Gourmet Chinese Restaurant,86,"1073 Flatbush Avenue #6118, Brooklyn",1073 Flatbush Ave,90
Rodriguez Fried Chicken,Crazy Chicken Restaurant & Coffee Shop,86,"1062 Flatbush Avenue, Brooklyn",Flatbush ave,90
La Cabaña Rodríguez,La Strada Pizzeria & Restaurant,86,"1062 Flatbush Avenue, Brooklyn",Flatbush ave,90
Tropical Twist,Spice Island Tropical Restaurant,86,"1081 Flatbush Avenue, Brooklyn",Flatbush ave,90
Angelo's Pizza,Angelo's Pizza,100,"2117 Cortelyou Road, Brooklyn",brooklyn,90
Soco,Poco,75,"509 Myrtle Avenue, Brooklyn",brooklyn,90
Wray's,Theresa's Polish American Restaurant,86,"503 Myrtle Avenue, Brooklyn",brooklyn,90
Liberty Pizza,Liberty Pizza,100,"482 Myrtle Avenue, Brooklyn",brooklyn,90
Miss Noodle,满粥麵 Wonton Noodle Garden Restaurant,86,"531 Myrtle Avenue, Brooklyn",brooklyn,90
Waza Sushi + Ramen,Umi Sushi,86,"485 Myrtle Avenue, Brooklyn",brooklyn,90
The Halal Spot,Halal,90,"474 Myrtle Avenue, Brooklyn",brooklyn,90
Villa Pancho Taqueria,Villa Castillo,86,"472 Myrtle Avenue, Brooklyn",brooklyn,90
JJ Kitchen,Halal Chinese Kitchen,86,"475b Myrtle Avenue, Brooklyn",brooklyn,90
Yamashiro,Awash,72,"466 Myrtle Avenue, Brooklyn",brooklyn,90
Rosalu Diner,Diner,90,"274 Hall Street, Brooklyn",brooklyn,90
Kum Kau,Kum Kau,100,"463 Myrtle Avenue, Brooklyn",463 Myrtle Ave,90
Da Ciro Brooklyn,Ciro,90,"458 Myrtle Avenue, Brooklyn",brooklyn,90
Five Spot Soul Food,Five Spot,90,"459 Myrtle Avenue, Brooklyn",459 Myrtle Ave,90
Barcklay's Pizza,Pizza Pizza,95,"916 Fulton Street, Brooklyn",Fulton,90
Kitchen Grill Indian Restaurant,Restaurant,90,"914 a Fulton Street, Brooklyn",Fulton,90
Eagle City,Green City Restaurant,86,"914 Fulton Street # B, Brooklyn",Fulton,90
Sisters,Sisters,100,"900 Fulton Street, Brooklyn",Fulton,90
Bergen Bagels on Fulton,Gen,90,"949 Fulton Street, Brooklyn",Fulton,90
Hops Hill,Sugar Hill Restaurant & Supper Club,86,"886 Fulton Street, Brooklyn",Fulton,90
Il Porto Brick Oven Ristorante,Pino's Ristorante,86,"37 Washington Avenue, Brooklyn",brooklyn,90
City Island Seafood,Sea,90,"108 Washington Avenue, Brooklyn",brooklyn,90
Ny Pizza Grill Cafe,NY Pizza Cafe,95,"9108 Sutphin Boulevard, Jamaica",Sutphin,90
Pollo Campero,Pica Pollo Restaurant,86,"146-12 Jamaica Avenue, Jamaica",Jamaica ave,90
Guate Linda,Linda's Restaurant,86,"170-18 Jamaica Avenue, Jamaica",Jamaica ave,90
Full City,Green City Restaurant,86,"170-13 Jamaica Avenue, Jamaica",Jamaica ave,90
Sunny Garden,Sunny Garden Restaurant,90,"17007 Jamaica Avenue, Jamaica",17007 Jamaica Ave,90
Tacos Mexicanos Mary,Tacos Puebla,86,"Jamaica Ave &, 170th Street, Jamaica",Jamaica ave,90
Kassim's,Kassim's Bakery & Restaurant,90,"169-28 Jamaica Avenue a, Jamaica",169 - 28 Jamaica Avenue,95
Bebe Fritay Inc,Sunshine Restaurant Food & Catering Inc,86,"169-24 Jamaica Avenue, Jamaica",169 - 28 Jamaica Avenue,90
Dunkin/Subway,SUBWAY,90,"159-02 Jamaica Avenue, Jamaica",Jamaica ave,90
Plantain Werkes,Tajin,72,"147-21 Jamaica Avenue, Queens",Jamaica ave,90
Mi Tierra,Mi Tierra Restaurant,90,"149-15 Jamaica Avenue, Jamaica",Jamaica ave,90
May Luck Kitchen,Finest Ever Luck Restaurant,86,"14911 Jamaica Avenue, Jamaica",Jamaica ave,90
Esquinita Guatemalteca,Azteca,75,"147-20 Jamaica Avenue, Jamaica",Jamaica ave,90
Rincón Salvadoreño,Rincón Salvadoreño,100,"92-15 149th Street, Jamaica",92 15 149th Street,90
Cafe Energy,Stars Cafe & Restaurant,86,"92-15 149th Street, Jamaica",92 15 149th Street,90
Abdul Halal Food,Halal Food,90,"90-57 Sutphin Boulevard, Jamaica",Sutphin,90
Crown Fried Chicken and Pizza,Crown Fried Chicken And Pizza,100,"90-85 Sutphin Boulevard, Jamaica",Sutphin,90
Beijing Dumpling House,Dumpling House,90,"88-38 Sutphin Boulevard, Jamaica",Sutphin,90
PJ Brady's Bar & Restaurant,Restaurant,90,"3201 Philip Avenue, The Bronx",311 Avenue X,86
The Waffle Box,The Golden Glass Restaurant,86,"1682 Flatbush Avenue, Brooklyn",Flatbush ave,90
Good Hope,Good Hope Restaurant,90,"1683 Flatbush Avenue, Brooklyn",1683 Flatbush Ave,90
Star Fine Food IV,Star,90,"1612 Neptune Avenue, Brooklyn",brooklyn,90
Pops Restaurant,Pop's Restaurant,97,"1511 Neptune Avenue, Brooklyn",1511 Neptune Ave,90
Totonno's,Totonno's Pizzeria Napolitano,90,"1524 Neptune Avenue, Brooklyn",brooklyn,90
Little Saigon Pearl,Little Bandgladesh Restaurant,86,"9 Bay 35th Street, Brooklyn",brooklyn,90
Chikurin,Chikurin Japanese Restaurant,90,"2362 86th Street, Brooklyn",brooklyn,90
Shun Deck,Shun Deck Restaurant,90,"2332 86th Street, Brooklyn",2332 86th St,90
Kowloon Café,Crotona's Café Restaurant,86,"2365 86th Street, Brooklyn",brooklyn,90
NY Noodles,"Golden Forest Chinese Restaurant, Brooklyn Ny",86,"2369 86th Street, Brooklyn",brooklyn,90
Phở Tây Hồ,Phở Hoài Restaurant,86,"2351 86th Street, Brooklyn",brooklyn,90
Duck Wong,Duck Wong Wonton Restaurant,90,"2341 86th Street, Brooklyn",2341 86th St,90
The Juice Theory,The Golden Glass Restaurant,86,"514 Kings Highway, Brooklyn",brooklyn,90
S & P Sport Cafe,Theresa's Polish American Restaurant,86,"172 Avenue S, Brooklyn",brooklyn,90
Milk Money Burger,Burger King,86,"685 Broadway, Brooklyn",85 Broadway,90
Pizzeria Napoletana,La Strada Pizzeria & Restaurant,86,United States,"2578 Broadway, New York, NY 10025, United States",90
Motorino Pizzeria,La Strada Pizzeria & Restaurant,86,"139 Broadway, Brooklyn",brooklyn,90
Meadowsweet,Fresh meadows natural food,66,"149 Broadway, Brooklyn",brooklyn,90
OTB,OTB,100,"141 Broadway, Brooklyn",141 Broadway,90
Spice,Spice,100,"394 Bedford Avenue, Brooklyn",brooklyn,90
Bunny,Bunny Deli 2,90,"449 Nostrand Avenue, Brooklyn",Nostrand Avenue,90
ŻABKA,Żabka Coffee,90,"492 Nostrand Avenue, Brooklyn",Nostrand Avenue,90
LE PARIS DAKAR,Kar,90,"1365 Fulton Street, Brooklyn",Fulton,90
A&A Bake Doubles and Roti,Ambrosia Italian and Albanian Restaurant,86,"1337 Fulton Street, Brooklyn",Fulton,90
Ma's Fish & Chips Plus,Fish,90,"508 Nostrand Avenue, Brooklyn",Nostrand Avenue,90
Tak King,Tak king,100,"1367 Fulton Street, Brooklyn",Fulton,90
Tastee Pattee Ltd,Taste,90,"1371 Fulton Street, Brooklyn",Fulton,90
Le Paris Dakar,Kar,90,"518 Nostrand Avenue, Brooklyn",Nostrand Avenue,90
Pattie Hut & Grill,Golden Krust Caribbean Bakery and Grill,86,"516 Nostrand Avenue, Brooklyn",Nostrand Avenue,90
Peaches HotHouse,ACME,68,"415 Tompkins Avenue, Brooklyn",Tompkins Ave,90
El Rincon de Macon,Bar Sol De Quito Restaurant II,86,"522 Nostrand Avenue, Brooklyn",Nostrand Avenue,90
Eugene & Company,Gen,90,"397 Tompkins Avenue, Brooklyn",Tompkins Ave,90
Wing Cheong,Wing Cheong,100,"1389 Fulton Street, Brooklyn",Fulton,90
Abir Halal Restaurant,Abir Halal Restaurant,100,"526 Nostrand Avenue, Brooklyn",Nostrand Avenue,90
WARUDE,Haru,68,"385 Tompkins Avenue, Brooklyn",Tompkins Ave,90
Wonderful,Wonderful Asian Restaurant,90,"352 Tompkins Avenue, Brooklyn",Tompkins Ave,90
Fish & Amp Chips,Fish,90,"555 Throop Avenue, Brooklyn",brooklyn,90
Bar Camillo,El Morro Restaurant & Bar,86,"333 Tompkins Avenue, Brooklyn",Tompkins Ave,90
Crocus Cafe Juice Bar & Grill,Cafe 47,86,"328 Tompkins Avenue, Brooklyn",Tompkins Ave,90
Rocco Pizza III,Rocco Pizza III,100,"954-348, 330 Halsey Street #2412, Brooklyn",Halsey,90
The Southern Comfort,Southern Comfort,95,"377 Marcus Garvey Boulevard, Brooklyn",brooklyn,90
King Pizza & Fried Chicken,King Pizza & Fried Chicken,100,"1427 Fulton Street, Brooklyn",Fulton,90
El Jeffe,El Morro Restaurant & Bar,86,"1483 Fulton Street, Brooklyn",Fulton,90
Saraghina Tapas Bar,Bar Sol De Quito Restaurant II,86,"348 Lewis Avenue, Brooklyn",brooklyn,90
MAMA FOX,Mama’s Coffee Shop & Restaurant,86,"327 Stuyvesant Avenue, Brooklyn",brooklyn,90
Taj Masala,Tikka Masala Restaurant,86,"256 Malcolm X Boulevard, Brooklyn",brooklyn,90
Trad Room,Living Room Lounge,86,"266 Malcolm X Boulevard, Brooklyn",brooklyn,90
Fingerlicking,Li Li,86,"2017 Fulton Street, Brooklyn",Fulton,90
Karthik's Wing Hut,Kar,90,"1064 Myrtle Avenue, Brooklyn",brooklyn,90
Krazy Pizza and Wings,Pizza,90,"956 Broadway, Brooklyn",956 Broadway,90
Norbert's Pizza,Norbert's Pizza,100,"4 Stuyvesant Avenue, Brooklyn",brooklyn,90
Lé Food Specialist,Korean Food Specialist,89,"990 Broadway, Brooklyn",brooklyn,90
Buntopia,Utopia,86,"994 Broadway, Brooklyn",brooklyn,90
El Paraso Dejeiebecoe,El Mexicano,86,"920 Broadway, Brooklyn",920 Broadway,90
Loma Bar & Grill,El Morro Restaurant & Bar,86,"941 Broadway, Brooklyn",941 Broadway,90
Mi Sabor Cafe,Mi Barrio Taqueria Restaurant,86,"920 Broadway, Brooklyn",920 Broadway,90
Antojitos Mexicanos,Recuerdos Mexicanos Restaurant,86,"926 Broadway, Brooklyn",brooklyn,90
Thai Me,Mekong Thai & Vietnamese Restaurant,86,"918 Broadway, Brooklyn",brooklyn,90
Indika House,Hunan House Chinese Restaurant,86,"943 Broadway, Brooklyn",brooklyn,90
Xing Wang,Xing Wang Restaurant,90,"914 Broadway, Brooklyn",914 Broadway,90
La Lupe Cantina,La Strada Pizzeria & Restaurant,86,"9 Jefferson Street, Brooklyn",brooklyn,90
Betances restaurant,Betances Restaurant,100,"100A Marcus Garvey Boulevard, Brooklyn",brooklyn,90
Little Italy Pizza & Restaurant,Restaurant,90,"876 Broadway, Brooklyn",876 Broadway,90
Soldier's Caribbean Buffet,Moti's,86,"1439 Saint Johns Place #3910, Brooklyn",1439 Saint Johns Pl,90
East Coast Remix,C&L Of East Ocean Restaurant,86,"1457 Saint Johns Place, Brooklyn",brooklyn,90
Tasty Bites,Tasty Delicious Bakery & Restaurant,86,"1456 Saint Johns Place, Brooklyn",brooklyn,90
Pick N pay Caribbean restaurant & bakery,Caribbean Restaurant,90,"267 Utica Avenue, Brooklyn",brooklyn,90
99 cent pizza,99 cent pizza,100,"1127 Eastern Parkway, Brooklyn",brooklyn,90
DA PLACE CUISINE,Annie Chan's Japanese Cuisine Restaurant,86,"1695 President Street, Brooklyn",brooklyn,90
Jiang Asian Express,Jian,90,"315 Utica Avenue, Brooklyn",315 Utica Ave,90
Caribbean kitchen,Bea,90,"286 Utica Avenue, Brooklyn",brooklyn,90
Pitkins Fish & Chicken,Fish,90,"288 Utica Avenue, Brooklyn",brooklyn,90
Not Just Pizza,Not Just Pizza,100,"1286 Fulton Street, Brooklyn",Fulton,90
Beny’s Delice,Deli,90,"501 Nostrand Avenue, Brooklyn",Nostrand Avenue,90
David's Brisket House,Theresa's Polish American Restaurant,86,"533 Nostrand Avenue, Brooklyn",Nostrand Avenue,90
BK lobster,Gold Lobster Restaurant,86,"535 Nostrand Avenue, Brooklyn",Nostrand Avenue,90
Aladdins Shawarma Shack,Alma,68,"537 Nostrand Avenue, Brooklyn",Nostrand Avenue,90
Pattie Hut & Grill,Golden Krust Caribbean Bakery and Grill,86,"543 Nostrand Avenue, Brooklyn",Nostrand Avenue,90
$1 Slice,Lucky 1 Chinese Restaurant,86,"534 Nostrand Avenue, Brooklyn",Nostrand Avenue,90
Smokey Island Grille,Mike's Island Grill Restaurant,86,"1274 Fulton Street, Brooklyn",Fulton,90
Gloria's Caribbean Cuisine,Gloria's Caribbean Cuisine,100,"764 Nostrand Avenue, Brooklyn",Nostrand Avenue,90
Joy & Snook,New Good Joy Take Out Restaurant,86,"762 Nostrand Avenue, Brooklyn",Nostrand Avenue,90
Cocoa Grinder,Cocoa West Indian Restaurant and Bakery,86,"711 Nostrand Avenue, Brooklyn",Nostrand Avenue,90
Brooklyn Pizza Crew,Brooklyn Pizza Crew,100,"758 Nostrand Avenue, Brooklyn",Nostrand Avenue,90
Sha Sha Cultural Boutique,Boutique BK,86,"709 Nostrand Avenue, Brooklyn",Nostrand Avenue,90
Meme's Healthy Nibbles,Theresa's Polish American Restaurant,86,"707 Nostrand Avenue, Brooklyn",Nostrand Avenue,90
Mville Coffee,Coffee,90,"167 Rogers Avenue, Brooklyn",brooklyn,90
El Rinconcito Mix,El TRI MX Restaurant & Bar,86,"774 Saint Johns Place, Brooklyn",brooklyn,90
Coney Island Cathedral,Island Runnings Jamaican Restaurant,86,"1476 Bedford Avenue, Brooklyn",brooklyn,90
Cafe Rue Dix,Cafe R,90,"1451 Bedford Avenue, Brooklyn",brooklyn,90
Harold Diah,Haru,68,"752 Nostrand Avenue, Brooklyn",Nostrand Avenue,90
Taqueria Milear,Mi Barrio Taqueria Restaurant,86,"752 Nostrand Avenue A, Brooklyn",Nostrand Avenue,90
Ruammit Thai,Mekong Thai & Vietnamese Restaurant,86,"742 Nostrand Avenue, Brooklyn",Nostrand Avenue,90
Glou 🍷,WangXiangLou Restaurant,90,"406 Rogers Avenue, Brooklyn",brooklyn,90
BAGUETTE EXPRESS 2,Oliva Paraiso Restaurant No 2,86,"250 Kingston Avenue, Brooklyn",brooklyn,90
Kingston Kosher Falafel,Benny's Kosher Pizza Falafel & Dairy Restaurant,86,"250 Kingston Avenue # A, Brooklyn",brooklyn,90
Kingston Pizza,Kingston Pizza,100,"259 Kingston Avenue, Brooklyn",259 Kingston Ave,90
Shawarma and Falafel of crown heights (K),Annas Restaurant and Deli,86,"250 Kingston Avenue, Brooklyn",brooklyn,90
Sauce N Cheese,All Refrigeration 'N Restaurant Equipment,86,"509 Albany Avenue, Brooklyn",brooklyn,90
Memphis Seoul,Emphasis,68,"569 Lincoln Place, Brooklyn",brooklyn,90
95 South Soul Food Restaurant,95 South Soul Food Restaurant,100,"778 Franklin Avenue, Brooklyn",778 Franklin Ave,90
95 South,95 South Soul Food Restaurant,90,"778 Franklin Avenue, Brooklyn",778 Franklin Ave,90
Bunsmith,Blu,60,"789 Franklin Avenue, Brooklyn",789 Franklin Ave,90
Gold Room BK,Gold Lobster Restaurant,86,"429 Rogers Avenue, Brooklyn",brooklyn,90
Golden Chopstick,Golden chopsticks,97,"789 Franklin Avenue, Brooklyn",789 Franklin Ave,90
Allan's Bakery,Allan's Bakery,100,"1109, 1111 Nostrand Avenue #1107",Nostrand Avenue,90
House of Chen,C&L Of East Ocean Restaurant,86,"895-897 Clarkson Avenue, Brooklyn",897 Clarkson Ave,90
Simone's,Theresa's Polish American Restaurant,86,"846 Clarkson Avenue, Brooklyn",846 Clarkson Ave,90
West Cuisine,Annie Chan's Japanese Cuisine Restaurant,86,"916 Clarkson Avenue, Brooklyn",brooklyn,90
Peppa's Restaurant,Restaurant,90,"689 Utica Avenue, Brooklyn",brooklyn,90
Ritz Cuisine,Annie Chan's Japanese Cuisine Restaurant,86,"926 Clarkson Avenue, Brooklyn",brooklyn,90
Topaze,Topaze West Indian & American Restaurant,90,"428 East 48th Street, Brooklyn",brooklyn,90
The Hills,The Golden Glass Restaurant,86,"4706 Church Avenue, Brooklyn",brooklyn,90
Wien Far Kitchen,Chang Jiang Kitchen Chinese Restaurant,86,"4805 Church Avenue, Brooklyn",brooklyn,90
Zhang Yu Fang,New Yu Yee Chinese Restaurant,86,"4805 Church Avenue, Brooklyn",brooklyn,90
Silver krust,Silver Krust  Restaurant,90,"4809 Church Avenue, Brooklyn",brooklyn,90
North Coast Bake and Shark,Ambrosia Italian and Albanian Restaurant,86,"873 Schenectady Avenue, Brooklyn",brooklyn,90
German's Soup,Theresa's Polish American Restaurant,86,"793 Utica Avenue, Brooklyn",brooklyn,90
China Express,China Express,100,"4106 Avenue D, Brooklyn",4106 Avenue D,90
Rowe's,Theresa's Polish American Restaurant,86,"4122 Avenue D, Brooklyn",brooklyn,90
CAFE ZHANE,Stars Cafe & Restaurant,86,"763 Utica Avenue, Brooklyn",brooklyn,90
China City 168,China City,95,"756 Linden Boulevard, Brooklyn",brooklyn,90
Brooklyn's House Of Food and Fishes,Brooklyn's House of Food and Fishes,100,"754 Linden Boulevard, Brooklyn",brooklyn,90
