name_google,name_foursquare,ratio_name,address_google,address_foursquare,ratio_address
CJ’s Cafe Utica (formerly C&J Jamaican Restaurant),Restaurant,90,"817 Utica Avenue, Brooklyn",817 Utica Ave,90
El Nuevo Yauco,El Nuevo Yauca,93,"465 Bushwick Avenue, Brooklyn",465 Bushwick Ave,90
H&I EXPRESS THAI,Mekong Thai & Vietnamese Restaurant,86,"459 Bushwick Avenue, Brooklyn",brooklyn,90
Mi Bella Cholulita,Mi Barrio Taqueria Restaurant,86,"884 Broadway, Brooklyn",brooklyn,90
Milly's,Milly's Pizzeria,90,"834 Broadway, Brooklyn",brooklyn,90
Divine Bar,Divine Bar & Grill,90,"896 Broadway, Brooklyn",896 Broadway,90
La Placita Puebla,La Strada Pizzeria & Restaurant,86,"830 Broadway, Brooklyn",brooklyn,90
Crisis Bar,El Morro Restaurant & Bar,86,"913 Broadway, Brooklyn",913 Broadway,90
Asian Yummy House,Hunan House Chinese Restaurant,86,"824 Broadway, Brooklyn",824 Broadway,90
Mi Barrio Tortilleria Corporation,Mi Candileja,86,"913 Flushing Avenue, Brooklyn",brooklyn,90
Concrete,El Rincon Restaurant & Grill,68,"906 Broadway, Brooklyn",brooklyn,90
All About Indian Food,all about indian food,100,"443 Bushwick Avenue, Brooklyn",brooklyn,90
Sanchez Deli and Fruit Store,Sanchez Deli & Fruit,95,"816 Broadway, Brooklyn",brooklyn,90
SKYTOWN,Happy Town Chinese Restaurant,64,"921 Broadway, Brooklyn",brooklyn,90
J.K. & Sons,J and R Bakery and Restaurant,86,"801 Broadway, Brooklyn",brooklyn,90
Broadway Organic Deli & Grill,Broadway Deli & Grill,95,"797 Broadway, Brooklyn",brooklyn,90
Little Mo,Little Morocco,90,"1158 Myrtle Avenue, Brooklyn",brooklyn,90
Leaf,Green Leaf Chinese Restaurant,90,"1161 Myrtle Avenue, Brooklyn",brooklyn,90
Bizarre,Arte,68,"12 Jefferson Street, Brooklyn",brooklyn,90
Natural and Organic Deli,Natural And Organic Deli,100,"1203 Myrtle Avenue, Brooklyn",brooklyn,90
Regalo De Juquila,Regalo de Juquila Deli,95,"1209 Myrtle Avenue, Brooklyn",1209 Myrtle Ave,90
Crust Brooklyn Pizzeria,Brooklyn Pizzeria,95,"734 Evergreen Avenue, Brooklyn",brooklyn,90
The Lunch Box (Deli And Grill),The Lunch Box Deli & Grill,95,"204 Bushwick Avenue, Brooklyn",brooklyn,90
Champs Diner,Champs Diner,100,"197 Meserole Street, Brooklyn",brooklyn,90
Bread Brothers Bagel Cafe,Cafe 47,86,"220 Bushwick Avenue, Brooklyn",brooklyn,90
Brooklyn Standard 2,"Golden Forest Chinese Restaurant, Brooklyn Ny",86,"766 Grand Street, Brooklyn",Grand street,90
Blink Thai Brooklyn,"Golden Forest Chinese Restaurant, Brooklyn Ny",86,"756 Grand Street, Brooklyn",Grand street,90
OZI Dumplings,Li Li,86,"19 Bogart Street unit 1, Brooklyn",brooklyn,90
Bushniwa,Blu,60,"250 Varet Street, Brooklyn",brooklyn,90
Koda,Koda,100,"985 Flushing Avenue, Brooklyn",985 Flushing Ave,90
Forrest Point,One Point Five Restaurant,86,"970 Flushing Avenue, Brooklyn",brooklyn,90
Tacostio1,Costco,75,"Flushing Avenue, Brooklyn",brooklyn,90
983,Subway Restaurant #49182,60,"983 Flushing Avenue, Brooklyn",brooklyn,90
Syndicated Bar Theater Kitchen,Ming Hing Kitchen,86,"40 Bogart Street, Brooklyn",brooklyn,90
Ange Noir Cafe,Stars Cafe & Restaurant,86,"247 Varet Street, Brooklyn",brooklyn,90
Blanca,Tierra Blanca Restaurant,90,"261 Moore Street, Brooklyn",brooklyn,90
Momo Sushi Shack,Ginpachi Sushi Restaurant,86,"43 Bogart Street, Brooklyn",brooklyn,90
Roberta's Pizza & Bakery,Robert,90,"257 Moore Street, Brooklyn",brooklyn,90
Tina's Place,Tina's Place,100,"1002 Flushing Avenue, Brooklyn",1002 Flushing Ave,90
Yia Yia's Taverna,Theresa's Polish American Restaurant,86,"1035 Flushing Avenue, Brooklyn",brooklyn,90
Tabaré Restaurant Bushwick,Restaurant,90,"1006 Flushing Avenue, Brooklyn",1006 Flushing Ave,90
Taco Rapido,Mister Taco Mexican Restaurant,86,"72 Bogart Street, Brooklyn",brooklyn,90
Mi Lindo Mexico,Mi Barrio Taqueria Restaurant,86,"340 Wilson Avenue, Brooklyn",340 Wilson Ave,90
Peking Garden,King Garden,92,"362 Wilson Avenue, Brooklyn",362 Wilson Ave,90
Danny's Pizza,Dannys Pizza,96,"241 Bushwick Avenue, New York",New York,90
L Stop Gourmet Deli,L Gourmet Deli,95,"223 Montrose Avenue, Brooklyn",brooklyn,90
"Rome to Brooklyn, pizza & panzerotti",Pizza,90,"755 Grand Street, Brooklyn",Grand street,90
Indian Kitchen,Raj's Indian Kitchen,95,"739 Grand Street, Brooklyn",Grand street,90
Paloma's,Theresa's Polish American Restaurant,86,"435 Menahan Street, Brooklyn",brooklyn,90
Sicily's Best Pizzeria & Restaurant,Restaurant,90,"190 Cypress Avenue, Brooklyn",brooklyn,90
Atlixco Grocery Deli,Deli & Grocery,95,"1712 Menahan Street, Flushing",Street,90
Carmenta’s,Theresa's Polish American Restaurant,86,"50 Starr Street, Brooklyn",brooklyn,90
Leslie's Kitchen,Theresa's Polish American Restaurant,86,"109 Wilson Avenue, Brooklyn",brooklyn,90
Yummy 88,Yummy Yummy,95,"130 Wilson Avenue, Brooklyn",130 Wilson Ave,90
Taqueri sofia Mexican restaurant,Restaurant,90,"187 Suydam Street, Brooklyn",brooklyn,90
Itzel's Taqueria Deli,Deli,90,"146 Wilson Avenue, Brooklyn",brooklyn,90
El Kucho Mexican Restaurant,Restaurant,90,"141 Wilson Avenue, Brooklyn",brooklyn,90
Archie's Bar & Pizza,Pizza,90,"128 Central Avenue, Brooklyn",brooklyn,90
Maite,Asiate,73,"159 Central Avenue, Brooklyn",brooklyn,90
Le Garage,Le Fatima Bar & Grill Restaurant,86,"157 Suydam Street, Brooklyn",brooklyn,90
Millie’s Cuban Café,Cuba,90,"151 Wilson Avenue, Brooklyn",brooklyn,90
L.A. Burrito,C&L Of East Ocean Restaurant,86,"67 Wilson Avenue, Brooklyn",brooklyn,90
A Shen Zhou Restaurant,Restaurant,90,"159 Wilson Avenue, Brooklyn",159 Wilson Ave,90
El Sol De Cholula,Bar Sol De Quito Restaurant II,86,"161 Wilson Avenue, Brooklyn",brooklyn,90
hills kitchen,Hell's Kitchen,89,"252 Knickerbocker Avenue, Brooklyn",brooklyn,90
Fine Time,Fine & Schapiro,86,"84 Central Avenue, Brooklyn",brooklyn,90
New City,New Fulin Kwok Seafood Restaurant,86,"236 Knickerbocker Avenue, Brooklyn",brooklyn,90
La Tapatia Deli Grocery,Deli Grocery,90,"254 Knickerbocker Avenue B, Brooklyn",brooklyn,90
The Wheelhouse,The Golden Glass Restaurant,86,"165 Wilson Avenue, Brooklyn",brooklyn,90
Bella Cholulita,Mi Bella Dama restaurant,86,"276 Knickerbocker Avenue, Brooklyn",brooklyn,90
Antojitos Ecuatorianos,Hermanos Ecuatorianos Restaurantes,86,"334 Linden Street, Brooklyn",brooklyn,90
Rogelio's Pizza,Pizza Pizza,95,"298 Irving Avenue, Brooklyn",brooklyn,90
La Caleta,La Strada Pizzeria & Restaurant,86,"1529 Gates Avenue, Brooklyn",brooklyn,90
rico chimi,Pio Rico Restaurant,86,"1492 Myrtle Avenue, Brooklyn",brooklyn,90
KUMA NYC,The NYC Bull - Restaurant & Rotisserie,86,"1520 Myrtle Avenue, Brooklyn",brooklyn,90
Color Me Greens,Greens ackermans restaurant,86,"1522 Myrtle Avenue, Brooklyn",brooklyn,90
L'imprimerie,C&L Of East Ocean Restaurant,86,"1524 Myrtle Avenue, Brooklyn",brooklyn,90
Taqueria Acatlan,Mi Barrio Taqueria Restaurant,86,"298 Irving Avenue, Brooklyn",brooklyn,90
Merinda's Deli & Grill,Merinda's Deli & Grill,100,"1543 Myrtle Avenue, Brooklyn",brooklyn,90
El Salvador,El Salvador Restaurant,90,"1544 Myrtle Avenue, Brooklyn",1544 Myrtle Ave,90
Fansway Teriyaki Kitchen,Chang Jiang Kitchen Chinese Restaurant,86,"1513A Myrtle Avenue, Brooklyn",brooklyn,90
Fansway Teriyaki Kitchen,Chang Jiang Kitchen Chinese Restaurant,86,"1513A Myrtle Avenue, Brooklyn",brooklyn,90
La Mesita,La Strada Pizzeria & Restaurant,86,"1513 Myrtle Avenue, Brooklyn",brooklyn,90
Kings County Brewers Collective,Kings Pizza,86,"381 Troutman Street, Brooklyn",brooklyn,90
BUTCHER´S SON BURGER BUSHWICK BROOKLYN,Moti's,86,"400 Troutman Street, Brooklyn",brooklyn,90
RO,Guaro Restaurant,90,"400 Troutman Street, Brooklyn",brooklyn,90
Pitanga,TANG,90,"207 Starr Street, Brooklyn",brooklyn,90
Dock Asian Eatery,Yang No. 1 Asian Restaurant,86,"22 Wyckoff Avenue, Brooklyn",Wyckoff Ave,90
Artichoke Basille's Pizza,Artichoke Basille's Pizza,100,"18 Wyckoff Avenue, Brooklyn",Wyckoff Ave,90
Queen,Queen,100,"247 Starr Street, Brooklyn",brooklyn,90
The Turk's Inn,Theresa's Polish American Restaurant,86,"234 Starr Street, Brooklyn",brooklyn,90
Döner Kebab at Turk's Inn,AT&T,90,"234 Starr Street, Brooklyn",brooklyn,90
Santa Salsa,New Santa Ana Restaurant,86,"234 Starr Street, Brooklyn",brooklyn,90
Good Morning Brooklyn,"Golden Forest Chinese Restaurant, Brooklyn Ny",86,"31 Wyckoff Avenue, Brooklyn",Wyckoff Ave,90
GreenStreets Salads,SALUD,72,"67 Irving Avenue, Brooklyn",brooklyn,90
Sea Wolf,Sea,90,"19 Wyckoff Avenue, Brooklyn",Wyckoff Ave,90
The Gradient,The Golden Glass Restaurant,86,"17 Wyckoff Avenue, Brooklyn",Wyckoff Ave,90
Sauce & Soda,El Sauce Restaurant,86,"40 Wyckoff Avenue, Brooklyn",Wyckoff Ave,90
Desi Grill,Golden Krust Caribbean Bakery and Grill,86,"46 Wyckoff Avenue, Brooklyn",Wyckoff Ave,90
Blue Collar,Blue,90,"1554 Dekalb Avenue, Brooklyn",brooklyn,90
Abe's Pagoda Bar,El Morro Restaurant & Bar,86,"108 Wyckoff Avenue, Brooklyn",Wyckoff Ave,90
Sazon Nunez,El Monstro del Sazon Pizzaria & Restaurant,86,"96 Wyckoff Avenue, Brooklyn",Wyckoff Ave,90
Honore Club,Club Deli Restaurant,86,"173 Irving Avenue, Brooklyn",brooklyn,90
Lee Garden,Lee Garden Chinese,90,"121 Wyckoff Avenue, Brooklyn",121 Wyckoff Ave,90
La Abuelita Deli,Deli,90,"123 Wyckoff Avenue, Brooklyn",Wyckoff Ave,90
Sapore Di Italia Restaurant,Restaurant,90,"160 Irving Avenue, Brooklyn",brooklyn,90
Sal's Pizzeria,Sal's Pizzeria,100,"119 Wyckoff Avenue #1, Brooklyn",Wyckoff Ave,90
New Santa Ana,New Santa Ana Restaurant,90,"187 Irving Avenue, Brooklyn",187 Irving Ave,90
Amaranto,Pizza Maraton Restaurant,79,"887 Hart Street, Brooklyn",brooklyn,90
Mesa Azteca,Azteca,90,"91 Wyckoff Avenue, Brooklyn",91 Wyckoff Ave,90
Chimu Express,Cam Tak Express Restaurant,86,"180 Irving Avenue, Brooklyn",brooklyn,90
Faro,Faros Restaurant,90,"436 Jefferson Street, Brooklyn",brooklyn,90
Union Pizza Works,Union Pizza Works,100,"423 Troutman Street, Brooklyn",brooklyn,90
Tortilleria Mexicanas Los Hermanos,Mexicana,90,"271 Starr Street, Brooklyn",brooklyn,90
Wok 2 Bar,Wok Wok,95,"280 Knickerbocker Avenue, Brooklyn",brooklyn,90
El Burro Mexican Grill,Golden Krust Caribbean Bakery and Grill,86,"324 Suydam Street, Brooklyn",brooklyn,90
Cholula Express Deli Restaurant,Deli Restaurant,90,"1480 Dekalb Avenue, Brooklyn",brooklyn,90
Everyday Chinese,Everyday Chinese Restaurant,90,"890 Wyckoff Avenue, Brooklyn",Wyckoff Ave,90
alberto's creep lounge n.y.c,Moti's,86,"1615 Putnam Avenue, Queens",Between 39th and 40th street on 13th Avenue,86
Super Pollo,Super Pollo,100,"865 Woodward Avenue, Ridgewood",865 Woodward Ave,90
Cham Thai Cuisine,Mekong Thai & Vietnamese Restaurant,86,"881 Woodward Avenue, Queens",Between 39th and 40th street on 13th Avenue,86
Rama,Miramar Seafood Restaurant,90,"881 Woodward Avenue, Ridgewood",311 Avenue X,86
Norma's Corner Shoppe,Theresa's Polish American Restaurant,86,"59-02 Catalpa Avenue, Ridgewood",205-02 Hillside Ave,86
Porcelain,Maloney & Porcelli,74,"880 Woodward Avenue, Ridgewood",311 Avenue X,86
Julia's Beer and Wine Bar,Ambrosia Italian and Albanian Restaurant,86,"818 Woodward Avenue, Queens",Between 39th and 40th street on 13th Avenue,86
Creme&sugar,Sugar Hill Restaurant & Supper Club,86,"58-42 Catalpa Avenue, Ridgewood",311 Avenue X,86
El Manaba,El Morro Restaurant & Bar,86,"341 Saint Nicholas Avenue, Ridgewood",196 23 Jamaica Avenue,86
Cevicheria rosita,Puerto Colombia Restaurant Cevicheria-Bar,86,"303 Wyckoff Avenue, Brooklyn",Wyckoff Ave,90
Himalayan Momo,Himalayan Yak,78,"329 Wyckoff Avenue, Brooklyn",Wyckoff Ave,90
Lucky Garden,Lucky,90,"305 Wyckoff Avenue, Brooklyn",Wyckoff Ave,90
Quick n fresh,All Refrigeration 'N Restaurant Equipment,86,"323 Wyckoff Avenue, Ridgewood",Wyckoff Ave,90
K&K Super Buffet,K V Q Chinese Restaurant,86,"341 Saint Nicholas Avenue, Ridgewood",196 23 Jamaica Avenue,86
The Bushwick Diner,Diner,90,"299 Wyckoff Avenue, Brooklyn",Wyckoff Ave,90
El Encebollado de Rossy,La Roja de Todos Restaurant & Bakery,86,"293 Wyckoff Avenue, Brooklyn",Wyckoff Ave,90
Bklyn Cart Halal Food Est. 1997,Halal Food,90,"292 Wyckoff Avenue, Brooklyn",Wyckoff Ave,90
Mexican Food Cart,Mexican Food Cart,100,"292 Wyckoff Avenue, Brooklyn",Wyckoff Ave,90
Gourmet Deli & Grill,Gourmet Deli & Grill,100,"280 Wyckoff Avenue, Brooklyn",Wyckoff Ave,90
Place Fried Chicken & Pizza,Pizza Fried Chicken,95,"285 Wyckoff Avenue, Brooklyn",Wyckoff Ave,90
Tamales Atlixco,Li Li,86,"Myrtle–Wyckoff, Brooklyn",brooklyn,90
Jade Asian Express,Jade Fountain Chinese Cuisine,86,"1641 Woodbine Street, Ridgewood",Street,90
Zema Deli Grocery Inc.,Grocery Deli Inc,95,"54-33 Myrtle Avenue, Ridgewood",Myrtle Ave.,90
I Sushi,Ginpachi Sushi Restaurant,90,"1635 Woodbine Street, Ridgewood",1635 Woodbine St,90
El Mananero del Sabor (breakfast cart),El Patio Restaurant,86,"298 Wyckoff Avenue, Brooklyn",98 Wyckoff Ave,90
Wyckoff restaurant,Restaurant,90,"250 Wyckoff Avenue, Brooklyn",Wyckoff Ave,90
Mullanes Bar & Grill,Bar Sol De Quito Restaurant II,86,"71 Lafayette Avenue, Brooklyn",Lafayette Ave,90
Café Paulette,Crotona's Café Restaurant,86,"1 South Elliott Place, Brooklyn",brooklyn,90
Damas Falafel House,Hunan House Chinese Restaurant,86,"407 Myrtle Avenue, Brooklyn",brooklyn,90
Cap't Loui,T&G Restaurant Spot,86,413 Myrtle Avenue,Myrtle Ave.,90
Putnam's Pub & Cooker,Theresa's Polish American Restaurant,86,"419 Myrtle Avenue, Brooklyn",brooklyn,90
LaRina Pastificio & Vino,Vino's Deli II,86,"387 Myrtle Avenue, Brooklyn",brooklyn,90
Myrtle Thai,Myrtle Thai,100,"438 Myrtle Avenue, Brooklyn",438 Myrtle Ave,90
Spice & Grill: The Indian Kitchen,Spice,90,"441 Myrtle Avenue, Brooklyn",brooklyn,90
Gentleman Farmer Fort Greene,Greene Food Deli,86,"378 Myrtle Avenue, Brooklyn",brooklyn,90
Buff Patty,Buff Patty Restaurant & Bakery,90,"376 Myrtle Avenue, Brooklyn",376 Myrtle Ave,90
Thai Holic,Mekong Thai & Vietnamese Restaurant,86,"372 Myrtle Avenue, Brooklyn",brooklyn,90
Thai 101,Thai 101,100,"448 Myrtle Avenue, Brooklyn",brooklyn,90
El Cofre,El Cofre,100,"454 Myrtle Avenue, Brooklyn",454 Myrtle Ave,90
Peck's,Peck’s Food,90,"455A Myrtle Avenue, Brooklyn",brooklyn,90
Bar Bolinas,El Morro Restaurant & Bar,86,"455 Myrtle Avenue, Brooklyn",455 Myrtle Ave,90
Farmer in the Deli,Farmer In The Deli,100,"357 Myrtle Avenue, Brooklyn",brooklyn,90
Joe & Sal's Pizzeria (Fort Greene),Sal's Pizzeria,90,"353 Myrtle Avenue, Brooklyn",353 Myrtle Ave,90
Chung Chun Kitchen,병천자매순대 (Byun Chung Soon Dae Restaurant) (Byun Chung Soon Dae Restaurant),86,"338 Myrtle Avenue, Brooklyn",brooklyn,90
E-Bite,E and J Restaurant,86,"336 Myrtle Avenue, Brooklyn",336 Myrtle Ave,90
Ace Thai Kitchen,Mekong Thai & Vietnamese Restaurant,86,"330 Myrtle Avenue, Brooklyn",brooklyn,90
Los tacos - Taqueria Fort Greene,Los Pollitos III,86,"154 Carlton Avenue, Brooklyn",brooklyn,90
Burger UrWay,Go Burger by BLT restaurants Group,86,"354 Myrtle Avenue, Brooklyn",brooklyn,90
Luv N Oven Pizza,LuV-N-Oven Pizza,100,"120 Dekalb Avenue, Brooklyn",brooklyn,90
Greene Bites Deli and Grille,Deli,90,"116 Dekalb Avenue, Brooklyn",brooklyn,90
The Juice Box BK,The Golden Glass Restaurant,86,"114 Dekalb Avenue, Brooklyn",brooklyn,90
Caffe e Vino,E and J Restaurant,86,"112 Dekalb Avenue, Brooklyn",brooklyn,90
Hot Chix,Hot Pot Jamaican & American Restaurant,86,"110 Dekalb Avenue, Brooklyn",brooklyn,90
Gourmet Garden 8,Garden Gourmet Deli,88,"108 Dekalb Avenue, Brooklyn",brooklyn,90
Rocky's Deli & Supermarket,Deli,90,"721 Fulton Street, Brooklyn",Fulton,90
National,National,100,"723 Fulton Street, Brooklyn",Fulton,90
Las Santas,Las Juanas Restaurant Asadero,86,"572 Fulton Street, Brooklyn",Fulton,90
The Food Sermon,The Food Sermon,100,"141 Flushing Avenue Building 77, Brooklyn",brooklyn,90
Rustik Tavern,The Porterhouse at Fraunces Tavern,86,"Building 77, Brooklyn",brooklyn,90
BAMcafé,Alma,68,"30 Lafayette Avenue, Brooklyn",Lafayette Ave,90
Via Caramico,Via Restaurant and Bar,86,"The Center Building, 33-00 Northern Boulevard, Queens",Cristofordo Columbo Boulevard,86
Doha Nightclub NYC,The NYC Bull - Restaurant & Rotisserie,86,3834 31st Street,31st Street,95
Astoria Seafood,Sea,90,"3710 33rd Street, Queens",Street,90
Makina Cafe,Stars Cafe & Restaurant,86,"36-56 34th Street, Queens",Street,90
BigAppleEats,Big Apple Restaurant,69,"32-23 37th Avenue, Queens",7th Ave,90
Beija Flor,La Flor del Canario Restaurant,86,"38-02 29th Street, Long Island City",9th St,90
Michael's Café,Theresa's Polish American Restaurant,86,"27-05 39th Avenue, Long Island City",39th ave,90
Big NY Chicken,Big NY Fried Chicken,95,"40-35 21st Street, Long Island City",Street,90
Cafe Triskell,Stars Cafe & Restaurant,86,"33-04 36th Avenue, Astoria",Between 39th and 40th street on 13th Avenue,86
Fusion Juice Bar,El Morro Restaurant & Bar,86,"34-02 36th Avenue, Astoria",34-02 36th Ave,90
Ecuadorian Food II,Ecuadorian Food II,100,3406 36th Avenue,Between 39th and 40th street on 13th Avenue,86
Psari,Psari Seafood Restaurant & Bar,90,"32-10 36th Avenue, Long Island City",32-10 36th Ave,90
Mad Donkey Beer Bar & Grill,"Caribbean American Ent. Bar, Lounge & Restaurant",86,"32-07 36th Avenue, Astoria",Between 39th and 40th street on 13th Avenue,86
Copacabana,Copacabana Brazilian Restaurant,90,"31-13 36th Avenue, Queens",Between 39th and 40th street on 13th Avenue,86
Fresco Tortillas,Fresh Tortillas (Tex-Mex Express) & Japanese Restaurant,86,"31-12 36th Avenue, Astoria",Between 39th and 40th street on 13th Avenue,86
Maple Thai Eatery,Mekong Thai & Vietnamese Restaurant,86,"3602 36th Avenue, Astoria",Between 39th and 40th street on 13th Avenue,86
Woobi,Woori Korean Restaurant,72,"38-40 Crescent Street, Long Island City",Crescent St.,90
Lim's Kitchen,Theresa's Polish American Restaurant,86,"38-40 Crescent Street, Queens",Crescent St.,90
Beebe's,Theresa's Polish American Restaurant,86,"38-28 27th Street, Long Island City",27th Street,90
Greek Panorama,The Greek Family Restaurant,86,"24 -11 41st Avenue, Long Island City",1st ave.,90
THE HUNTRESS whiskey n’ wings,The Pine Restaurant,86,"2403 41st Avenue, New York","New York, New York",95
New Dawn Restaurant,New Restaurant,95,"40-21 22nd Street, Long Island City",Street,90
THE BARONESS bar + kitchen,Ming Hing Kitchen,86,"4126 Crescent Street, New York",New York,90
Fresh Rosemary Kitchen,Fresh Meadows Pizzeria and Restaurant,86,"4245 13th Street, Queens",13th Street,90
Show Palace Gentlemen's Club NYC,Moti's,86,"42-50 21st Street, Long Island City",Street,90
Tadka Indian Cuisine,Annie Chan's Japanese Cuisine Restaurant,86,"13-15 43rd Avenue, Queens",3rd Ave.,90
Silver Kitchen,Silver Star Restaurant,86,"43-01 21st Street, Long Island City",Street,90
Bridge Gourmet,Williamsbridge Gourmet Deli,90,"23-01 Queens Plaza North 24th St. Corner, Long Island City",1100 60th St,86
Esquina Tequila Restaurant and Mexican Bar,Restaurant,90,"40-01 Northern Boulevard, New York",New York,90
Cavali New York,New Fulin Kwok Seafood Restaurant,86,"3621 Steinway Street, Queens",Steinway Street,90
DESI BBQ Halal,Halal,90,"36-02 Steinway Street, Queens",Steinway Street,90
No5,El Mexicano,72,"35-43 37th Street, Queens",37th,90
El Mero Mero,El Morro Restaurant & Bar,86,"35-57 38th Street, Astoria",35-57 38th St,90
Cafe Ole,Stars Cafe & Restaurant,86,"38-09 36th Avenue, Long Island City",142-38 Roosevelt Ave,86
Evo Cocktail Lounge & Restaurant,Evo cocktail lounge & restaurant,100,"1306 Unionport Road, The Bronx",Rutland Road,86
Lorraine's Bar & Grill,Theresa's Polish American Restaurant,86,"1410 Unionport Road, The Bronx",1410 Avenue U,86
Don Emilio Diner,Diner,90,"1315 Castle Hill Avenue, The Bronx",196 23 Jamaica Avenue,86
Packsun,Oaks,68,"2160 Westchester Avenue, The Bronx",Westchester ave,90
Roma Pizza of Bronx,Roma pizza,90,"2166 Westchester Avenue, The Bronx",Westchester ave,90
Crown Friend Chicken,Crown Fried Chicken,97,"1459 Unionport Road, The Bronx",Rutland Road,86
Jenny's Roti Shop,Theresa's Polish American Restaurant,86,"1262 Castle Hill Avenue, The Bronx",196 23 Jamaica Avenue,86
Estrellita Poblana,Estrellita Poblana,100,"2231 Westchester Avenue, The Bronx",Westchester ave,90
La Cocina Boricua,La Cocina,90,"2245 Westchester Avenue, The Bronx",Westchester ave,90
King Food,New Food King,95,"2245A Westchester Avenue, The Bronx",Westchester ave,90
Cake N Wings,All Refrigeration 'N Restaurant Equipment,86,"1012 Faile Street, The Bronx",Street,90
Buongiorno Bagels & Café,The River Café,86,"7010 88th Street, Queens",Street,90
New Luen Hing,New Fulin Kwok Seafood Restaurant,86,"3010 Bailey Avenue, The Bronx",3010 Bailey Ave,90
Laura's Pizza,Laura’s Pizza,100,"3073 Bailey Avenue, The Bronx",3073 Bailey Ave,90
Bailey Sea Food,Sea,90,"146 West 231st Street, The Bronx",31st Street,90
Picante Picante,Picante Picante Mexican Restaurant,90,"156 West 231st Street, The Bronx",31st Street,90
Mei Chung Mei,Mei Chung Mei Restaurant,90,"157 West 231st Street, The Bronx",31st Street,90
P & K'S GRILLE,Theresa's Polish American Restaurant,86,"170 West 231st Street, The Bronx",31st Street,90
Punto de Sabor Express,La Roja de Todos Restaurant & Bakery,86,"200a West 231st Street, The Bronx",31st Street,90
Broadway Plaza,Broadway Pizzeria Italian Restaurant,86,"171 West 230th Street, The Bronx",30th St,90
Silhouette,Silhouette Restaurant & Lounge,90,"5668 Broadway, The Bronx",5668 Broadway,90
Q'Kachapa,K V Q Chinese Restaurant,86,"5625 Broadway, The Bronx",5625 Broadway,90
Dale Diner,Diner,90,"189 West 231st Street, The Bronx",31st Street,90
New Kennedy Chicken & Gyro,New Ho Wah,86,"5605 Broadway, The Bronx",Broadway,90
Hola Espana,Mesa De Espana Restaurant,86,"5586 Broadway, The Bronx",5586 Broadway,90
El Economico,El Economico Restaurant,90,"5589 Broadway, The Bronx",5589 Broadway,90
Broadway Pizza & Pasta,Broadway Pizza & Pasta,100,"192 West 231st Street #5618, The Bronx",31st Street,90
Jamba Port Authority,Port Royal Jamaican Restaurant,86,"625 8th Ave, Main Concourse South Wing, New York",New York,90
Beer Authority,Beer Garden at Battery Gardens,86,"300 West 40th Street, New York",New York,90
Villa Fresh Italian Kitchen,Ming Hing Kitchen,86,"625 8th Avenue, New York","New York, New York",95
Jollibee,Li Li,86,"609 8th Avenue, New York","New York, New York",95
deep indian kitchen (indikitch),Ming Hing Kitchen,86,"601 8th Avenue, New York","New York, New York",95
Aleef Cafe,Stars Cafe & Restaurant,86,"333 West 39th Street, New York",New York,90
Rattle N Hum West,All Refrigeration 'N Restaurant Equipment,86,"306 West 39th Street, New York",New York,90
Cafe Mofongo,Cafe M,90,"316 West 39th Street, New York",New York,90
New York Times Cafeteria,New Ho Wah,86,"620 8th Avenue, New York","New York, New York",95
Piccolo Cafe,Piccolo Cafe,100,"274 West 40th Street, New York",New York,90
Gray's Papaya,Theresa's Polish American Restaurant,86,"612 8th Avenue, New York","New York, New York",95
Snacks-N-Wheels,All Refrigeration 'N Restaurant Equipment,86,"625 8th Avenue, New York","New York, New York",95
Kiss My Slice,My 3 Sons Restaurant,86,"274 West 40th Street, New York",New York,90
Poke Bowl,Poke Restaurant,86,"840 8th Avenue, New York","New York, New York",95
Rubby,Rubby Pizzeria Restaurant,90,"862 10th Avenue, New York","New York, New York",95
Beijing,Beijing Garden Chinese Restaurant,90,"860 10th Avenue, New York","New York, New York",95
Fresco Tortillas,Fresh Tortillas (Tex-Mex Express) & Japanese Restaurant,86,"858 10th Avenue, New York","New York, New York",95
The Jin,Jin Cheng Restaurant,86,"856 10th Avenue, New York","New York, New York",95
UT47 Manhattan,Manhattan Halal Restaurant,86,"358 West 47th Street, New York",New York,90
Room Service,Living Room Lounge,86,"690 9th Avenue, New York","New York, New York",95
Amy's Bread,Amy's Bread,100,"672 9th Avenue, New York","New York, New York",95
Hell's Kitchen Pizza,Hell's Kitchen,95,"696 9th Avenue, New York","New York, New York",95
House of Brews,C&L Of East Ocean Restaurant,86,"363 West 46th Street, New York",New York,90
Down The Road Sports Bar,La Kuchara Ecuadorian Restaurant Bar,86,"683 9th Avenue, New York","New York, New York",95
Hourglass Tavern,The Porterhouse at Fraunces Tavern,86,"373 West 46th Street, New York",New York,90
Lattanzi,TANG,68,"361 West 46th Street, New York",New York,90
Qi,Qi Bangkok,90,"698 9th Avenue, New York","New York, New York",95
Sushi Seki Times Square,Umi Sushi,86,"TIMES SQUARE, 365 West 46th Street, New York",New York,90
Yum Yum Too,Big Nick's Burger & Pizza Joint Too,86,"662 9th Avenue, New York","New York, New York",95
Lilly's Craft and Kitchen,Craft,90,"675 9th Avenue, New York","New York, New York",95
B Squared,C B Finger Licking Jamaican and West Indian Restaurant,86,"679 9th Avenue, New York","New York, New York",95
Swing 46 Jazz and Supper Club,Supper,90,"349 West 46th Street, New York",New York,90
A A Jing,A-HO RESTAURANT,86,"689 9th Avenue, New York","New York, New York",95
Amazed Palace,China palace chinese restaurant,86,"689 9th Avenue unit b, New York",689 9th Ave,90
Fresh from hell,Fresh Meadows Pizzeria and Restaurant,86,"326 West 47th Street, New York",New York,90
Tabouleh,Olea,68,"673 9th Avenue, New York","New York, New York",95
Ponche Taqueria,Mi Barrio Taqueria Restaurant,86,"420 West 49th Street, New York",New York,90
Food King,New Food King,95,"694 10th Avenue, New York","New York, New York",95
fusion hk bar and grill,Ambrosia Italian and Albanian Restaurant,86,"688 10th Avenue, New York","New York, New York",95
VIV,Viva Natural Pizza,90,"717 9th Avenue, New York","New York, New York",95
Gazala Place,Gazala's Restaurant,86,"709 9th Avenue, New York","New York, New York",95
iPizzaNY,iPizzaNY,100,"707 9th Avenue, New York","New York, New York",95
Krispy Krunchy Chicken,Crazy Chicken Restaurant & Coffee Shop,86,"707 9th Avenue, New York","New York, New York",95
7 Brothers Famous Deli,7 Brothers Deli,95,"719 9th Avenue #49, New York",9 9th Ave,90
Otto's Tacos,Ott,90,"705 9th Avenue, New York","New York, New York",95
Gossip,Gossip,100,"733 9th Avenue, New York","New York, New York",95
El Mil Sabores,El Morro Restaurant & Bar,86,"695 9th Avenue, New York","New York, New York",95
Leon,Nuevo Leon Restaurant,90,"695 9th Avenue, New York","New York, New York",95
Cara Mia,Cara Mia,100,"693 9th Avenue, New York","New York, New York",95
Famous Halal Food (Food Truck),Halal Food Food Truck,95,"501-513 West 45th Street, New York",45th street,90
Hellfire Annie's Tap Room,Moti's,86,"637 10th Avenue, New York","New York, New York",95
Scruffy Duffy's Bar,Theresa's Polish American Restaurant,86,"639 10th Avenue, New York","New York, New York",95
Hell's Chicken,Theresa's Polish American Restaurant,86,"641 10th Avenue, New York","New York, New York",95
Lali,Lali,100,"630 10th Avenue, New York","New York, New York",95
SIRI THAI NYC,Siri Thai,95,"641 10th Avenue, New York","New York, New York",95
Healthy Market,Seafish Market Seafood Restaurant,86,"632 10th Avenue, New York","New York, New York",95
The Marshal,The Golden Glass Restaurant,86,"628 10th Avenue, New York","New York, New York",95
Kam-Wei Kitchen,Chang Jiang Kitchen Chinese Restaurant,86,"630 10th Avenue, New York","New York, New York",95
Pelicana Chicken,Crazy Chicken Restaurant & Coffee Shop,86,"641 10th Avenue, New York","New York, New York",95
Le Privé,Le Fatima Bar & Grill Restaurant,86,"626 10th Avenue, New York","New York, New York",95
Queen of Sheba,Queen,90,"650 10th Avenue, New York","New York, New York",95
44 & X Hell's Kitchen,Hell's Kitchen,90,"622 10th Avenue, New York","New York, New York",95
Kochi,King Wok Chinese Restaurant,72,"652 10th Avenue, New York","New York, New York",95
Mémé Mediterranean,Mémé Mediterranean,100,"607 10th Avenue, New York","New York, New York",95
Torishin,Yakitori Sun-Chan,68,"362 West 53rd Street, New York",New York,90
Thai Noodle House,Mekong Thai & Vietnamese Restaurant,86,"792 9th Avenue, New York","New York, New York",95
The Meatball Shop,The Golden Glass Restaurant,86,"798 9th Avenue, New York","New York, New York",95
Wondee Siam,Wondee Siam I,95,"792 9th Avenue, New York","New York, New York",95
Tradisyon NYC,The NYC Bull - Restaurant & Rotisserie,86,"790 9th Avenue, New York","New York, New York",95
Gustaly,Star,68,"796 9th Avenue, New York","New York, New York",95
Chong Qing Noodle,满粥麵 Wonton Noodle Garden Restaurant,86,"796 9th Avenue, New York","New York, New York",95
Danji,Daniel,73,"346 West 52nd Street, New York",New York,90
Alfie's,Alfie's Deli,90,"800 9th Avenue, New York","New York, New York",95
Tacuba,Cuba,90,"802 9th Avenue, New York","New York, New York",95
NY Fresh Pizza,Pizza Pizza,95,"787 9th Avenue, New York","New York, New York",95
Ariana,Ariana,100,"787 9th Avenue, New York","New York, New York",95
Hide-chan Ramen,Annie Chan's Japanese Cuisine Restaurant,86,"314 West 53rd Street, New York",New York,90
Rice 'n' Beans,Rice 'n' Beans,100,"744 9th Avenue, New York","New York, New York",95
Curry-Ya Hell's Kitchen,Hell's Kitchen,90,"746 9th Avenue, New York","New York, New York",95
Aqua Boil,aqua grill restaurant,86,"750 9th Avenue, New York","New York, New York",95
Mickey Spillane's,Theresa's Polish American Restaurant,86,"350 West 49th Street, New York",New York,90
Hell's Kitchen,Hell's Kitchen,100,"754 9th Avenue, New York","New York, New York",95
Uncle Mario's Brick Oven Pizza,Pizza,90,"739 9th Avenue, New York","New York, New York",95
Talad Wat,Alma,68,"714 9th Avenue, New York","New York, New York",95
dell'anima,Anvi Deli,70,"600 11th Avenue, New York","New York, New York",95
Kanto Grill,Kanto Grill,100,"214-69 Jamaica Avenue, Queens",214-69 Jamaica Ave,90
Shiny House,Hunan House Chinese Restaurant,86,"214-17 Jamaica Avenue, Queens Village",Jamaica ave,90
Ahuachapan,Ahuachapan Restaurant,90,"21421 Jamaica Avenue, Jamaica",21421 Jamaica Ave,90
Mister Softee Depot,Mister Taco Mexican Restaurant,86,"215-04 Hempstead Avenue, Jamaica",196 23 Jamaica Avenue,86
Simply Organic - Deli & Grill,Deli,90,"210-25 Jamaica Avenue, Queens Village",Jamaica ave,90
Bon Appetit Restaurant,Bon appetit Restaurant,100,"211-45 Jamaica Avenue, Jamaica",Jamaica ave,90
Roti Paradise,Roti Corner Restaurant,86,"21151 Jamaica Avenue, Queens Village",21151 Jamaica Ave,90
Zoe Shack,Zoe Restaurant & Bar,86,"211-47 Jamaica Avenue, Jamaica",211-47 Jamaica Ave,90
Our Village Roti Shop,Tasty's Restaurant & Coffee Shop,86,"21161 Jamaica Avenue, Queens Village",Jamaica ave,90
Elyon restaurant fritaille,Restaurant,90,"21221 Jamaica Avenue, Queens Village",Jamaica ave,90
Victor's Coffee Shop,Victor's Coffee Shop,100,"212-61 Jamaica Avenue, Queens Village",Jamaica ave,90
Vaccaros Pizza,Vaccaros Pizza,100,"88-02 Little Neck Parkway, Floral Park",Little neck parkway,90
Nancy's,Nancy's Resturant,90,"25541 Jericho Turnpike, Floral Park",169 Park Ave,86
Sahara Grill (Halal Food),Sahara Grill Halal Food Cart,95,Bellerose,30 Rockefeller Plz Ste CONC35,67
Madina Zabiha,Madina Zabiha Halal Food,90,84-12 Little Neck Parkway,Little neck parkway,95
Krave Shack,Krave Cafe & Grill,86,"NY 25B &, Hillside Avenue",Hillside Avenue,90
Sunshine Restaurant,Sun Shine Restaurant,97,"255-09 Hillside Avenue, Floral Park",255-09 Hillside Avenue,90
Chinese Restaurant,Chinese Restaurant,100,"7702 Queens Boulevard, Queens",Queens Boulevard,90
Islanders seafood 香港大排擋,Sea,90,"79-15 Queens Boulevard, Elmhurst",Queens Boulevard,90
KinKhaoNYC,Kin Khao,78,"82-02 45th Avenue #32, Elmhurst",5th Avenue,90
Nood by Mamadee,The Mark Restaurant by Jean-Georges,86,"8202 45th Avenue #21, Flushing",5th Avenue,90
Mama’s kitchen,Theresa's Polish American Restaurant,86,"8202 45th Avenue, Flushing",5th Avenue,90
M&M Broadway Bakery,Broadway Bakery,95,"89-52 Elmhurst Avenue, Queens",311 Avenue X,86
Sazón Colombia,La Nueva Colombia Restaurant,86,"89-26 Roosevelt Avenue, Jackson Heights",Roosevelt Ave.,90
La Parada de Los Pinchos,La Parada,90,"40-2 Case Street, Queens",Street,90
Pulau Pinang,Jian,68,"82-84 Broadway, Elmhurst",Broadway,90
Pho Bac,Pho Bac,100,"82-78 Broadway, Elmhurst",Broadway,90
鹿鳴春餐館,Taiwanese Specialties 老華西街台菜館,18,"82 74 Broadway, Elmhurst",Broadway,90
Five Loaves & Two Fishes Chinese food,Chinese Food,90,82-72 Broadway,82-87 Broadway,93
Pho Best III,Best Food Restaurant,86,"83-02 Broadway, Flushing",2 Broadway,90
I luv PHO,U & I Restaurant,86,"8218 45th Avenue, Elmhurst",5th Avenue,90
Queens High Pearl Seafood Restaurant,Restaurant,90,"82-22 45th Avenue, Elmhurst",5th Avenue,90
Taste Good,Taste Good,100,"8218 45th Avenue, Elmhurst",5th Avenue,90
Jackmonkey catering,Sunshine Restaurant Food & Catering Inc,86,"538 West 3rd Street, The Bronx",38 w,90
Richie Rich Seafood,Sea,90,"4744 White Plains Road, The Bronx",White Plains Road,90
Chevy Kitchen,Halal Chinese Kitchen,86,"4759 White Plains Road, The Bronx",White Plains Road,90
Red Flower,Red Flower Chinese Restaurant,90,"4733 White Plains Road, The Bronx",White Plains Road,90
New Happy Joy Kitchen,New Happy Joy,90,"4713 White Plains Road, The Bronx",White Plains Road,90
241 Street Cafe,Stars Cafe & Restaurant,86,"4703 White Plains Road, The Bronx",White Plains Road,90
Peppinos Pizza,Peppinos Pizza,100,"4701 White Plains Road, The Bronx",White Plains Road,90
Taste Delicious,Taste Delicious,100,"4643 White Plains Road # 1, The Bronx",White Plains Road,90
La Flor del Canario,La Flor del Canario Restaurant,90,"2225f Pitkin Avenue, Brooklyn",brooklyn,90
New Happy Garden,Happy Garden,95,"2192 Pitkin Avenue, Brooklyn",brooklyn,90
La Cuesta,La Strada Pizzeria & Restaurant,86,"582 Liberty Avenue, Brooklyn",582 Liberty Ave,90
Festac Grill,Golden Krust Caribbean Bakery and Grill,86,"263 Hendrix Street, Brooklyn",brooklyn,90
La Republika Bar & Lounge Rest Corp,Incheon Restaurant Corp,86,"2783 Atlantic Avenue, Brooklyn",brooklyn,90
Sazón Cibaeño,Cibao,72,"2787 Atlantic Avenue, Brooklyn",brooklyn,90
Hong Li,Li Li,95,"1821 Pitkin Avenue, Brooklyn",1821 Pitkin Ave,90
Medina Halal,Halal,90,"111-41 Lefferts Boulevard, Jamaica",41-87 Bowne St,86
GT Kingston Karaoke Bar,La Kuchara Ecuadorian Restaurant Bar,86,"114-45 Lefferts Boulevard, South Ozone Park",45-21 Parsons Blvd,86
John's Pizzeria,John & Joe's Pizzeria,95,"111-15 Lefferts Boulevard, South Ozone Park",91-15 31st Ave,86
Trinciti Roti Shop and Restaurant,Triniciti Roti Shop and Restaurant,99,"111-03 Lefferts Boulevard, New York",New York,90
El Castillo del Pollo,El Mexicano,86,"128-08 111th Avenue, South Ozone Park",109-08 Northern Blvd,86
El Campeon De Los Pollos,El Campeon De Los Pollos,100,"111-06A Lefferts Boulevard, South Ozone Park",Cristofordo Columbo Boulevard,86
NEW DRAGON,New Dragon,100,"125-19 Rockaway Boulevard, South Ozone Park",165-19 Northern Blvd,86
Mangia pizza 2,Pizza Pizza,95,"107-08 Rockaway Boulevard, New York",New York,90
New China Star,China New Star,95,"10538 Rockaway Boulevard, Ozone Park",133 Rockaway Ave,86
Johnny's,Johnny's Famous Reef Restaurant,90,"10709 Rockaway Boulevard, Ozone Park",133 Rockaway Ave,86
My Mother's Place,Theresa's Polish American Restaurant,86,"104-36 Rockaway Boulevard, Ozone Park",104 Marcus Garvey Blvd,86
Resorts World Casino New York City,New Ho Wah,86,"110-00 Rockaway Boulevard, Queens",13861 Queens Blvd,86
Sofia's Pizza,Sofia's Pizza,100,"112-15 Linden Boulevard, South Ozone Park",91-15 31st Ave,86
Kats Island Cuisine,Annie Chan's Japanese Cuisine Restaurant,86,"112-19 Rockaway Boulevard, South Ozone Park",165-19 Northern Blvd,86
Liberty Kennedy Fried Chicken,Kennedy Fried Chicken,95,"111-01 Liberty Avenue, Queens",Liberty ave,90
Ho Wan,Ho Wan Restaurant,90,"111-5 Liberty Avenue, South Richmond Hill",Liberty ave,90
Sonia's Roti Shop Inc,Theresa's Polish American Restaurant,86,"10903 Liberty Avenue, South Richmond Hill",Liberty ave,90
Trini Delite,Trini Delite,100,"110-02 Liberty Avenue, Jamaica",Liberty ave,90
Hot On The Spot Roti Shop and Restaurant,Restaurant,90,"108-17 Liberty Avenue, South Richmond Hill",Liberty ave,90
Melanie,Melanie's,95,"10817 Liberty Avenue, Jamaica",Liberty ave,90
Trini Gyul,Trini Delite,64,"112-16 Liberty Avenue, Jamaica",Liberty ave,90
New Chinese Garden of Guyana,"Golden Forest Chinese Restaurant, Brooklyn Ny",86,"109-10 Liberty Avenue, Queens",Liberty ave,90
GT KINGSTON 24HR RESTAURANT AND BAR,Restaurant,90,"109-08 Liberty Avenue, Queens",Liberty ave,90
GT KINGSTON 24HR RESTAURANT AND BAR,Restaurant,90,"109 08 Liberty 3, South Richmond Hill",109-08 Northern Blvd,86
Tropical Jade 1,Lucky 1 Chinese Restaurant,86,"108-01 Liberty Avenue, South Richmond Hill",108-01 Liberty Ave,90
Victor's Deli and Grill Restaurant,Restaurant,90,"125-10 Rockaway Boulevard, South Ozone Park",37-10 114th St,86
Victor's Coffee Shop,Victor's Coffee Shop,100,"12512 Rockaway Boulevard, South Ozone Park",16212 South Rd,86
Silver Star Roti Shop,Star,90,"124-30 Rockaway Boulevard, South Ozone Park",29-30  A Union St,86
Cricket Wicket Catering,Sunshine Restaurant Food & Catering Inc,86,"12428 Rockaway Boulevard, Jamaica",196 23 Jamaica Avenue,86
Wah Hing Kitchen,Wing Wah Kitchen,89,"12519 Rockaway Boulevard, South Ozone Park",16212 South Rd,86
The Rail Bar & Grill,Bar Sol De Quito Restaurant II,86,"2 Coleman Square, New York","New York, New York",95
Joe Bakery,Joe Bakery,100,"8517 18th Avenue, Brooklyn",18th Avenue,90
Fuki Sushi,Fuki Sushi Japanese Restaurant,90,"8509 18th Avenue, Brooklyn",8509 18th Ave,90
New Dyker,New Dyker Restaurant,90,"8505 18th Avenue, Brooklyn",8505 18th Ave,90
Chris's,Chris's Coffee Shop,90,"1866 86th Street, Brooklyn",1866 86th St,90
Tato's Pizza,Pizza Pizza,95,"8409 18th Avenue #2910, Brooklyn",18th Avenue,90
Eddie Fancy Food,famous restaurant Chinese food,86,"8611 19th Avenue, Brooklyn",brooklyn,90
La Fogata,La Fogata Bar Restaurant & Cafe,90,"1912 86th Street, Brooklyn",1912 86th St,90
Fantasy Seaweed Riceroll,Sea,90,"9 Bay 22nd Street, Brooklyn",brooklyn,90
Kushi,Ko Sushi,77,"1934 86th Street, Brooklyn",brooklyn,90
Pho 86,SAPA Pho Vietnamese Restaurant,86,"1944 86th Street, Brooklyn",brooklyn,90
Tak Hing,Tak king,88,"1946 86th Street, Brooklyn",1946 86th Street,90
Nagoya Fusion,Taipan Fusion Restaurant and Hookah Lounge,86,"1948 86th Street, Brooklyn",1948 86th St,90
New Ruan's,New Ruans,95,"1955 86th Street, Brooklyn",1955 86th St,90
Lenny's Pizza,Lenny's Pizza,100,"1969 86th Street, Brooklyn",brooklyn,90
OFC Chicken V,K V Q Chinese Restaurant,86,"1972 86th Street, Brooklyn",brooklyn,90
Hey chick & hey tea,Brooklyn Organic Coffee & Tea Truck,86,"1972 86th Street, Brooklyn",brooklyn,90
Hunan Wok,Hunan Wok,100,"1974 86th Street, Brooklyn",brooklyn,90
Han Wong,Han Wong Restaurant,90,"8510 20th Avenue, Brooklyn",8510,90
新粵旺,New Hon Wong Restaurant 新恒旺大飯店,40,"8510 20th Avenue, Brooklyn",8510,90
Kings Kitchen,Peking Kitchen,89,"2051 86th Street #3203, Brooklyn",brooklyn,90
PokéBowl Station + Mars Tea,Food Station,86,"2037 86th Street, Brooklyn",brooklyn,90
New HK Tea & Sushi,New Fulin Kwok Seafood Restaurant,86,"2033 86th Street, Brooklyn",brooklyn,90
Quetzal,Queztal Restaurant,77,"6420 17th Avenue, Brooklyn",6420 17th Ave,90
Raan Kway Teow,AT&T,68,"78-14 Roosevelt Avenue #6, Jackson Heights",78-14 Roosevelt Ave,90
Luna's Kitchen & Bar,Theresa's Polish American Restaurant,86,"77-02AA, Roosevelt Avenue, Jackson Heights",Roosevelt Ave.,90
Gorkhali Nepali Restaurant & Bar,Restaurant,90,"77-04 Roosevelt Avenue, Jackson Heights",77-04 Roosevelt Ave,90
Lechon Hornado Ecuatoriano,Bar Restaurant Ecuatoriano American & Hispanic Food,86,"7618 Roosevelt Avenue, New York",New York,90
Riko Peruvian Cuisine,Annie Chan's Japanese Cuisine Restaurant,86,"78-14 Roosevelt Avenue, Jackson Heights",78-14 Roosevelt Ave,90
BIRRIA-LANDIA,Birria-Landia Taco Truck,90,"77-99 Roosevelt Avenue, Queens",Roosevelt Ave.,90
Los Arrieros,Eros,90,"76-02 Roosevelt Avenue, Flushing",Roosevelt Ave.,90
Unidentified Flying Chickens - UFC JH,Flying Food Group,86,"Jackson Heights, 71-22 Roosevelt Avenue, Flushing",Roosevelt Ave.,90
Izakaya Fuku,Maya,68,"71-28 Roosevelt Avenue, Jackson Heights",Roosevelt Ave.,90
Jaew Hon New York,New Fulin Kwok Seafood Restaurant,86,"7130 Roosevelt Avenue 2nd floor, Jackson Heights",7130 Roosevelt Ave,90
Playground Restaurant,Restaurant,90,"71-30 Roosevelt Avenue, Flushing",Roosevelt Ave.,90
East 21,East 21 Asian Cuisine Restaurant,90,"7126 Roosevelt Avenue, Flushing",Roosevelt Ave.,90
Himalayan Yak,Himalayan Yak,100,"72-20 Roosevelt Avenue, Jackson Heights",72-20 Roosevelt Ave,90
Shangri-La Express,La Strada Pizzeria & Restaurant,86,"72-24 Roosevelt Avenue, Woodside",Roosevelt Ave.,90
Kanchanjunga,Taste of the Himalaya Kanchanjunga Restaurant,90,"72-24 Roosevelt Avenue, Jackson Heights",Roosevelt Ave.,90
Cafe Con Amor,Stars Cafe & Restaurant,86,"64-16 Roosevelt Avenue, Woodside",Roosevelt Ave.,90
8 Paet Rio,Rio Cobre Restaurant,86,"81-10 Broadway, Queens",Broadway,90
Hui lau sham,Jing Hui,86,"81-18 Broadway, Queens",Broadway,90
El Vicentino,El Vicentino Restaurant Salvadoreno,90,"2120 College Point Boulevard, College Point",4576 Manhattan College Pkwy,86
All Nations Food Market,Food market,90,"20-02 College Point Boulevard, Flushing",144-20,86
Nonna Delia's,Deli,90,"18-32 College Point Boulevard, Queens",147-18 Northern Blvd,86
J&K Gourmet,China Gourmet Chinese Restaurant,86,"2302 College Point Boulevard, College Point",4576 Manhattan College Pkwy,86
Little Pepper,Little Bandgladesh Restaurant,86,"18-24 College Point Boulevard, College Point",Cristofordo Columbo Boulevard,86
JuXiangYuan,Jian,68,"20-13 College Point Boulevard, College Point",Cristofordo Columbo Boulevard,86
Martiniello's IV,Theresa's Polish American Restaurant,86,"2249 College Point Boulevard, Flushing",2249 Church Ave,86
Martiniello's Pizzeria IV,Moti's,86,"22-49 College Point Boulevard, College Point",Cristofordo Columbo Boulevard,86
El Punto,El Morro Restaurant & Bar,86,"18-33 College Point Boulevard, College Point",Cristofordo Columbo Boulevard,86
Taco Bowl,Mister Taco Mexican Restaurant,86,"18-27 College Point Boulevard, College Point",Cristofordo Columbo Boulevard,86
Kai-Ying,Ying Chen Chinese Restaurant,86,"1821 College Point Boulevard, Flushing",1821 Kings Hwy,86
Sal's Pizza and Italian Kitchen,Sal's Pizza,90,"20-07 127th Street, College Point",27th Street,90
Topline Electric,Stop One Deli,62,"2039 128th Street, Queens",28th Street,90
Fish Village,Fish,90,"20-07 127th Street, College Point",27th Street,90
Hotel de Point,Bar Sol De Quito Restaurant II,86,"20-07 127th Street, Flushing",27th Street,90
Pinshang Hot Pot,Hot Pot Jamaican & American Restaurant,86,"20-07 127th Street fl 2, College Point",27th Street,90
View De Point,Bar Sol De Quito Restaurant II,86,"2007 127th Street, College Point",2007,90
Cafe Argentino,Gen,90,"499 Grand Street, Brooklyn",Grand street,90
Mcondo Los Tacos,El Rinconcito De Los Sabores Restaurant & Deli,86,"502 Grand Street, Brooklyn",502 Grand St,90
Chuy’s Cantina,Theresa's Polish American Restaurant,86,"366 Union Avenue, Brooklyn",brooklyn,90
New Apolo,New Apolo Restaurant,90,"508 Grand Street, Brooklyn",Grand street,90
Carneval,New Carnival Chinese Food,79,"507 Grand Street, Brooklyn",Grand street,90
Singas Famous Pizza & Grill,Singas Famous Pizza,95,"512 Grand Street, Brooklyn",Grand street,90
Ryujin,Jian,77,"513 Grand Street, Brooklyn",Grand street,90
Ainslie,Indie,67,"76 Ainslie Street, Brooklyn",brooklyn,90
Dar525,Kar,60,"525 Grand Street, Brooklyn",525 Grand St,90
Wanpaku,Pak Nasheman,66,"621 Manhattan Avenue, Brooklyn",brooklyn,90
Screamer's Pizzeria,Screamer’s Pizzeria,100,"620 Manhattan Avenue, Brooklyn",brooklyn,90
Sapporo Ichiban,Ichiban Japanese Restaurant,86,"622 Manhattan Avenue, Brooklyn",brooklyn,90
Pizza Prince,Prince of Pizza,95,"86 Nassau Avenue, Brooklyn",Nassau Ave.,90
Poke Zest,Poke Restaurant,86,"629 Manhattan Avenue, Brooklyn",brooklyn,90
Forma Pasta Factory,Taste of Dolly's Pizza & Pasta Restaurant,86,"14 Bedford Avenue, Brooklyn",brooklyn,90
Frankel's Delicatessen & Appetizing,'Essen,90,"631 Manhattan Avenue, Brooklyn",brooklyn,90
The Bear,Bea,90,"48 South 4th Street #2, Brooklyn",brooklyn,90
Aska,Alaska Food Market,90,"47 South 5th Street, Brooklyn",brooklyn,90
Miss Favela,Miss Saigon Vietnamese Cooking,86,"57 South 5th Street, Brooklyn",brooklyn,90
Bia,Masbia Restaurant,90,"67 South 6th Street, Brooklyn",brooklyn,90
Lemons & Olives,Li Li,86,"98a South 4th Street, Brooklyn",brooklyn,90
La Superior,La Strada Pizzeria & Restaurant,86,"295 Berry Street, Brooklyn",brooklyn,90
Cafe Mogador Williamsburg,Cafe M,90,"133 Wythe Avenue, Brooklyn",brooklyn,90
D.O.C. Wine Bar,El Morro Restaurant & Bar,86,"83 North 7th Street, Brooklyn",brooklyn,90
Shelter,SLATE,67,"80 North 7th Street, Brooklyn",brooklyn,90
Ela Taverna NYC,The NYC Bull - Restaurant & Rotisserie,86,"98 Berry Street, Brooklyn",brooklyn,90
Oregano,Organo Gold McCafe Coffee,77,"102 Berry Street, Brooklyn",brooklyn,90
Cheeseboat,Cheese Bakery Cherry,72,"80 Berry Street, Brooklyn",brooklyn,90
Lucy’s Vietnamese - Williamsburg,Moti's,86,"112 Berry Street, Brooklyn",brooklyn,90
Cafe Colette,Stars Cafe & Restaurant,86,"79 Berry Street, Brooklyn",brooklyn,90
House of Small Wonder,Ranch Restaurant and Bar of Guyana,86,"77 North 6th Street, Brooklyn",brooklyn,90
Antica Pesa,Antica Restaurante,86,"115 Berry Street, Brooklyn",brooklyn,90
Egg Shop,O N Coffee Shop Restaurant,86,"138 North 8th Street, Brooklyn",brooklyn,90
Sweetwater,Sweetwater Restaurant,90,"105 North 6th Street, Brooklyn",brooklyn,90
Gran Torino,La Gran Cabana Restaurant,86,"131 Berry Street, Brooklyn",brooklyn,90
Regina's Grocery,Theresa's Polish American Restaurant,86,"103 North 3rd Street, Brooklyn",brooklyn,90
Baba's Pierogies,Theresa's Polish American Restaurant,86,"103 North 3rd Street, Brooklyn",brooklyn,90
Chuko Ramen,ACME,68,"103 North 3rd Street, Brooklyn",brooklyn,90
Lobster Joint,Gold Lobster Restaurant,86,"103 North 3rd Street, Brooklyn",brooklyn,90
TAP NYC,The NYC Bull - Restaurant & Rotisserie,86,"103 North 3rd Street, Brooklyn",brooklyn,90
Taqueria Mexico 2000,Mexico 2000,90,"131 Grand Street, Brooklyn",Grand street,90
Andante,Antonios Pizza And Restaurant,74,"128 Grand Street, Brooklyn",Grand street,90
Berry & White Billiards (The Jungle),The Pine Restaurant,86,"96 North 5th Street, Brooklyn",brooklyn,90
Sakib,Saki Restaurant,76,"349 Bedford Avenue, Brooklyn",brooklyn,90
Rabbithole,Rabbithole,100,"352 Bedford Avenue, Brooklyn",brooklyn,90
Abracadabra Brooklyn,"Golden Forest Chinese Restaurant, Brooklyn Ny",86,"347 Bedford Avenue, Brooklyn",brooklyn,90
Simple,Simply Thai Restaurant,75,"346 Bedford Avenue, Brooklyn",brooklyn,90
Weekends,Weekend Coffee Shop & Restaurant,80,"155 South 4th Street, Brooklyn",brooklyn,90
Chongkho,Hong Kong,71,"562 Grand Street #1stfl, Brooklyn",562 Grand St,90
Taj Kabab King,King Chinese Restaurant,86,"568 Grand Street, Brooklyn",Grand street,90
Taj of India,C&L Of East Ocean Restaurant,86,"568 Grand Street, Brooklyn",Grand street,90
Esquina del Sabor,El Monstro del Sazon Pizzaria & Restaurant,86,"572 Grand Street, Brooklyn",Grand street,90
La Taqueria,Mi Barrio Taqueria Restaurant,86,"572 Grand Street, Brooklyn",Grand street,90
Forcella,Forcella,100,"485 Lorimer Street, Brooklyn",brooklyn,90
Crown Fried Chicken & Pizza - Brownsville,Crown Fried Chicken,90,"Best Chicken Spot Near Me, Crown fried Chicken Menu, 399 Mother Gaston Boulevard, Brooklyn",Cristofordo Columbo Boulevard,86
Brooklyn Rotisserie Chicken,"Golden Forest Chinese Restaurant, Brooklyn Ny",86,"109 Belmont Avenue, Brooklyn",brooklyn,90
R.G.,Umer Grill & Restaurant,90,"109 Belmont Avenue, Brooklyn",brooklyn,90
K & J,Frank & Joe's,90,"415 Mother Gaston Boulevard, Brooklyn",brooklyn,90
Brownsville Community Culinary Center,Jonaki Caterers Restaurant (formerly Steve's Utica Jerk Center),86,"69 Belmont Avenue, Brooklyn",brooklyn,90
China Pavilion,China Gourmet Chinese Restaurant,86,"72 Belmont Avenue, Brooklyn",brooklyn,90
Soldier,Original's Soldier Jamaican Restaurant,90,"1104 Rutland Road, Brooklyn",Rutland Road,90
Kansas Chicken & Burger,GO Burger Truck,86,"1090 Rutland Road, Brooklyn",Rutland Road,90
Crosby Pizza Stop,Pizza,90,"1731 Crosby Avenue, The Bronx",Crosby Avenue,90
Mangia's Brick Oven Pizza & Pasta,Mangia,90,"1760 Crosby Avenue #4902, The Bronx",Crosby Avenue,90
Taqueria Guerrero,Mi Barrio Taqueria Restaurant,86,"1761 Crosby Avenue, The Bronx",1761 Crosby Ave,90
K Q Restaurant,Kq restaurant,96,"1759 Crosby Avenue, The Bronx",1759 Crosby Ave,90
Novelty Eats,EATS DELICIOUS BAKERY & RESTUARANT,86,"1765 Crosby Avenue, The Bronx",Crosby Avenue,90
Tulcingo Cafe,Tulcingo,90,"3041 Buhre Avenue, The Bronx",Between 39th and 40th street on 13th Avenue,86
Hacks Halal,Halal,90,"10725 Liberty Avenue, Queens",Liberty ave,90
Tony's Dragon Garden,Tony's Dragon Garden Chinese Restaurant,90,"107-18 Liberty Avenue, Ozone Park",Liberty ave,90
Bigwell,Gabriella's Family Pizza,64,"10708 Liberty Avenue, Jamaica",Liberty ave,90
Shanta’s Bakery And Restaurant,G's Restaurant and Bakery,91,"107-04 Liberty Avenue, New York",107-04 Liberty Ave,90
New Thriving,New Thriving,100,"10702 Liberty Avenue, Ozone Park",Liberty ave,90
Pearl Restaurant,Pearl Resturant,97,"131-03 Liberty Avenue, New York",New York,90
Kabab 1 Gyro Grill,Kabab & Grill,95,"131-07 Liberty Avenue, Queens",Liberty ave,90
Ice Bar & Grill,El Morro Restaurant & Bar,86,South Richmond Hill,111 South St,86
Vegan360Nyc,Sea,60,"132-03 Liberty Avenue, Queens",Liberty ave,90
Singh's Roti Shop & Bar,Theresa's Polish American Restaurant,86,"13118 Liberty Avenue, South Richmond Hill",Liberty ave,90
Veggie Castle II,Bar Sol De Quito Restaurant II,86,"132-9 Liberty Avenue, South Richmond Hill",Liberty ave,90
Brown Betty,Brown Betty Guyanese Style Food,90,"132-04 Liberty Avenue, New York",New York,90
Sybil's,Sybil's Bakery,90,"13217 Liberty Avenue, Jamaica",Liberty ave,90
BENIS,Benis Restaurant,90,"12920 Liberty Avenue, South Richmond Hill",12920 Liberty Ave,90
Mingles,Mingle Restaurant,77,"130-18 101st Avenue, Jamaica",1st ave.,90
Universal Halal,Universal Halal Cuisine Restaurant & Bakery,90,"128-16 Liberty Avenue, Jamaica",128-16 Liberty Avenue,95
Golden Punjab,Golden Punjab Indian Restaurant,90,"130-2 101st Avenue, South Richmond Hill",1st ave.,90
The Ranch,The Golden Glass Restaurant,86,"134-01 Liberty Avenue, South Richmond Hill",Liberty ave,90
Bakewell,Great Wall Chinese Food Take-Out,64,"127-08 Liberty Avenue, South Richmond Hill",Liberty ave,90
Kam's Kitchen,Kam Luang Kitchen,87,"134-17 Liberty Avenue, Jamaica",Liberty ave,90
Carifesta,Carifesta Restaurant,90,"12615 Liberty Avenue, Jamaica",12615 Liberty Ave,90
Darbar's Chicken & Ribs,Theresa's Polish American Restaurant,86,"12609 Liberty Avenue, South Richmond Hill",Liberty ave,90
Indian Diner,Diner,90,"13508 Liberty Avenue, South Richmond Hill",Liberty ave,90
DANA PANI,El Castillo Restaurant Spanish Food,70,"135-08 Liberty Avenue, Queens",Liberty ave,90
1 Taste of India,Taste,90,"135-8 Liberty Avenue, Queens",Liberty ave,90
Kaieteur Restaurant & Sport Bar,Kaieteur,90,"2513, 8712 Lefferts Boulevard, Jamaica",196 23 Jamaica Avenue,86
Palm Court Halal Restaurant and Bakery,Restaurant,90,"119-11 Jamaica Avenue, Jamaica",Jamaica ave,90
Golden Chopsticks,Golden chopsticks,100,"8720 Lefferts Boulevard, Jamaica",196 23 Jamaica Avenue,86
Soup Junkies,Dunkin',60,"87-17 Lefferts Boulevard, New York",New York,90
Sonic Drive-In,Step In Lounge and Restaurant,86,"148 Page Avenue, Staten Island",Page Ave,90
Jiangnan Chinese Cuisine,Jian,90,"103 Washington Street 2nd floor, New York",New York,90
Bill's Bar & Burger,Theresa's Polish American Restaurant,86,"85 West Street, New York","New York, New York",95
Pomodoro Pizza,Pomodoro Pizza,100,"14 Rector Street # 2403, New York",New York,90
Gnoccheria - Wall St.,Two Four One St Cafe Restaurant,86,"100 Broad Street, 2nd Fl Entrance on Bridge Street b/t Broad St and, Whitehall Street, New York",Whitehall Street,90
Essen Fast Slow Food,Essen Fast Slow Food,100,"100 Broad Street, New York","New York, New York",95
Antica,Antica Restaurante,90,"8 Stone Street, New York","New York, New York",95
DJ's Breakfast Spot,Theresa's Polish American Restaurant,86,"2-20 Stone Street, New York",New York,90
Estuary at ONE°15 Brooklyn Marina,Number One Chinese,86,"159 Bridge Park Drive, Brooklyn",brooklyn,90
River Deli,Deli,90,"32 Joralemon Street, Brooklyn",brooklyn,90
Estuary,Cafe Sur Argentina Restuarant,77,"360 Furman Street, Brooklyn",brooklyn,90
Clover Hill,Sugar Hill Restaurant & Supper Club,86,"20 Columbia Place, Brooklyn",brooklyn,90
Menya Jiro,Ciro,68,"123 William Street, New York",New York,90
BentOn Cafe,Stars Cafe & Restaurant,86,"123 William Street, New York",New York,90
Poke Bowl,Poke Restaurant,86,"104 Fulton Street, New York",Fulton,90
Magic Mix Juicery,Tequila Mix: Deli & Grocery,86,"102 Fulton Street, New York",Fulton,90
Cafe Bravo,Stars Cafe & Restaurant,86,"94 Greenwich Street, New York",94 Greenwich St,90
Cafe De Novo,Bar Sol De Quito Restaurant II,86,"94 1/2 Greenwich Street, New York",New York,90
Indian Coffee House,Coffee House,90,"100 Gold Street, New York","New York, New York",95
Acqua Restaurant NYC,Acqua Restaurant NYC,100,"21 Peck Slip, New York","New York, New York",95
The Hideaway Seaport,Sea,90,"22 Peck Slip, New York","New York, New York",95
Sola Lab,5B Pizza Lab,86,"45 Beekman Street, New York",New York,90
Bellini,Bellini Italian Restaurant & Brick Oven Pizza,90,"33 Peck Slip, New York","New York, New York",95
SUteiShi,SUteiShi Japanese Restaurant,90,"24 Peck Slip, New York","New York, New York",95
AC Lounge,Taipan Fusion Restaurant and Hookah Lounge,86,"151 Maiden Lane, New York","New York, New York",95
Frankie Goes To Bollywood,Lo-to Restaurant,86,"180 Maiden Lane, New York","New York, New York",95
Luchadores NYC,The NYC Bull - Restaurant & Rotisserie,86,"87 South Street, New York","New York, New York",95
Adel's Halal Food,Adel's Halal Food Cart,95,"145 Front Street, New York","New York, New York",95
Watermark Bar,El Morro Restaurant & Bar,86,"78 South Street Pier 15, New York",New York,90
Westville,Westville Wall Street,90,"110 Wall Street, New York","New York, New York",95
Albaik Express,Cam Tak Express Restaurant,86,"water street and, Maiden Lane, New York",New York,90
Veronica's Kitchen,Theresa's Polish American Restaurant,86,"141 Water Street, New York","New York, New York",95
Jiannetto's Pizza Truck,Jiannetto's Pizza Truck,100,"90 Front Street, New York","New York, New York",95
Seaport Food Lab,Sea,90,"89 South Street, New York","New York, New York",95
R17,107 West,60,"The Rooftop at Pier 17, 89 South Street, New York",New York,90
Il Violino,Il Violino Restaurant,90,"180 Columbus Avenue, New York",180 Columbus Ave,90
La Traviata Pizzeria,La Strada Pizzeria & Restaurant,86,"101 West 68th Street, New York",St 6,90
La Boite en Bois,La Strada Pizzeria & Restaurant,86,"75 West 68th Street, New York",St 6,90
Sugar Factory,Artisanal Donuts & Coffee Bar By Sugar Factory,90,"1991 Broadway, New York","New York, New York",95
American Table,Theresa's Polish American Restaurant,86,"Lincoln Center Plaza, 1941 Broadway, New York",941 Broadway,90
Pizza Collective,Pizza Collective,100,"2060 Broadway, New York","New York, New York",95
Le Pif NYC,Le Fatima Bar & Grill Restaurant,86,"2058 Broadway, New York","New York, New York",95
Alan's Farmland Ltd,Theresa's Polish American Restaurant,86,"27 Columbus Avenue, New York",New York,90
Tacos y quesadillas Mexico,J Y R Restaurant,86,"924 9th Avenue, New York","New York, New York",95
The Flame Diner,Diner,90,"893 9th Avenue, New York","New York, New York",95
"Halal Kingdom, Halal Cart",Halal,90,"9th Ave &, West 58th Street, New York",New York,90
Masseria dei Vini,M&M Deli,71,"887 9th Avenue, New York","New York, New York",95
Terakawa Ramen,Agra,68,"885 9th Avenue, New York","New York, New York",95
Rex,Rex,100,"864 10th Avenue, New York","New York, New York",95
Ayza Wine & Chocolate Bar,"Caribbean American Ent. Bar, Lounge & Restaurant",86,"11 West 31st Street, New York",New York,90
Krush,Golden Krust Caribbean Bakery and Grill,72,"2 West 32nd Street, New York",New York,90
Daheen Wang Mandoo,Wang Eastern Chinese Restaurant,86,"2 West 32nd Street, New York",New York,90
miss KOREA BBQ,Korean BBQ Restaurant,86,"10 West 32nd Street, New York",New York,90
Gopchang Story BBQ,Ding BBQ and Hot Pot Restaurant,86,"312 5th Avenue 2nd floor, New York",5th Avenue,90
Woorijip,Nori,68,"12 West 32nd Street, New York",New York,90
Abiko Curry,Kabab & Curry Restaurant,86,"2 West 32nd Street, New York",New York,90
Mandoo Bar,El Morro Restaurant & Bar,86,"2 West 32nd Street, New York",New York,90
Bread and Butter,Ghoroa Sweets and Restaurant,86,"303 5th Avenue, New York","New York, New York",95
BCD Tofu House,Hunan House Chinese Restaurant,86,"5 West 32nd Street, New York",New York,90
Itaewon Gastropub,Star,68,"28W East 32nd Street 2nd Fl, New York",New York,90
Lumaca,Humacao Restaurant,75,"34 East 32nd Street, New York",New York,90
Fields Good Chicken,Good Taste Chinese Restaurant,86,"148 Madison Avenue, New York",New York,90
Akura Sushi,Ikura Sushi,91,"39 East 31st Street, New York",New York,90
Sushi Sen-Nin,Ginpachi Sushi Restaurant,86,"30 East 33rd Street, New York",New York,90
Noble New York,New Fulin Kwok Seafood Restaurant,86,"48 East 31st Street, New York",New York,90
Her Name is Han,Shu Han Ju Chinese Restaurant,86,"17 East 31st Street, New York",New York,90
Hangawi,Shanghai,80,"12 East 32nd Street, New York",New York,90
Take 31,New Good Joy Take Out Restaurant,86,"15 East 31st Street, New York",New York,90
Bangia 반지하,Mangia,75,"11 East 32nd Street, New York",New York,90
LamaLo,Alma,68,"11 East 31st Street, New York",New York,90
"Captain's Cafe Bar and Grill New York, NY",El Morro Restaurant & Bar,86,"18 East 33rd Street, New York",New York,90
Nanoosh,Tarboosh,67,"173 Madison Avenue, New York",New York,90
IchiUmi,MIMI,68,"6 East 32nd Street, New York",New York,90
Patzeria Perfect Pizza,Pizza,90,"231 West 46th Street, New York",New York,90
Glass House Tavern,Hunan House Chinese Restaurant,86,"252 West 47th Street, New York",New York,90
Bond 45 NY,"Golden Forest Chinese Restaurant, Brooklyn Ny",86,"221 West 46th Street, New York",New York,90
Pergola Des Artistes,Des and De Restaurant and Bakery,86,"252 West 46th Street, New York",New York,90
46th Street Club House,Sugar Hill Restaurant & Supper Club,86,"252 West 46th Street, New York",New York,90
restaurante hector,Restaurant,90,"254 West 46th Street, New York",New York,90
Diva Royale Drag Queen Show NYC,Queen,90,"268 West 47th Street, New York",New York,90
The View Restaurant & Lounge,The View Restaurant & Lounge,100,"1535 Broadway, New York","New York, New York",95
Andy's Deli,Andy's Deli,100,"270 West 47th Street, New York",New York,90
Ding Asian Szechuan Hot Pot Restaurant,Restaurant,90,"234 West 48th Street, New York",New York,90
Ding BBQ & Hotpot,Ding BBQ and Hot Pot Restaurant,86,"234 West 48th Street, New York",New York,90
Playright Tavern,The Porterhouse at Fraunces Tavern,86,"734 8th Avenue, New York","New York, New York",95
Dos Caminos,Dos Banderas Restaurant,86,"1567 Broadway, New York","New York, New York",95
Blue Fin,Blue,90,"1567 Broadway, New York","New York, New York",95
Playwright Celtic Pub,Playwright Celtic Pub,100,"732 8th Avenue, New York","New York, New York",95
Tina's,Katina's Restaurant,90,"179 Madison Avenue, New York",179 Madison Ave,90
China Us,China Gourmet Chinese Restaurant,86,"347 5th Avenue #1108, New York",5th Avenue,90
800 Degrees Woodfired Kitchen New York,New Ho Wah,86,"1 East 33rd Street, New York",New York,90
Paul Shaviv Consulting,Paul's Doggs,86,"255 West 36th Street, New York",New York,90
Roast Kitchen,Halal Chinese Kitchen,86,"520 8th Avenue, New York","New York, New York",95
El Sabroso,El Sabroso,100,"265 West 37th Street, New York",37th,90
Black Iron Burger,Burger King,86,"245 West 38th Street, New York",New York,90
Bhojan Inc,Sunshine Restaurant Food & Catering Inc,86,"270 West 36th Street, New York",New York,90
Tagine,Tagine Fine Moroccan Cuisine,90,"221 West 38th Street, New York",New York,90
Dunkin Dounuts,Dunkin',90,"210 West 38th Street, New York",New York,90
Grilled Chicken House,Dumpling House,86,"270 West 36th Street, New York",New York,90
Juniper Bar,El Morro Restaurant & Bar,86,"237 West 35th Street, New York",New York,90
Bellizzi's Broadway Catering,Moti's,86,"202 West 36th Street, New York",New York,90
מסעדת בנז' כשרה( רוזביף),No. 7,36,"209 West 38th Street, New York",New York,90
Neapolitan Express,Fresh Tortillas (Tex-Mex Express) & Japanese Restaurant,86,"512 7th Avenue, New York","New York, New York",95
Sakura of Japan,Sakura,90,"570 8th Avenue #3001, New York",New York,90
Dill & Parsley,Parm,68,"1155 6th Avenue Grnd Fl Entrance on, West 45th Street, New York",45th street,90
Kwik Meal Cart,Orlando's Food Restaurant Cart,86,"100 West 45th Street, New York",45th street,90
Royal Biryani Pakistani Halal Food,Halal Food,90,"106-100 West 44th Street, New York",New York,90
Royal Grill Halal Food,Royal Grill Halal Food,100,"1133 6th Avenue, New York","New York, New York",95
Mr.Khan Best Halal Food,Halal Food,90,"6th Avenue, 45 West 45th Street, New York",45th street,90
BV's Burger,Theresa's Polish American Restaurant,86,"120 West 45th Street, New York",45th street,90
Bobby Van's Grill Times Square,Moti's,86,"120 West 45th Street, New York",45th street,90
The Red Flame,The Golden Glass Restaurant,86,"67 West 44th Street, New York",New York,90
3 brothers juice,Healthy Juice and Restaurant,86,"10036, 46 East 46th Street, New York",New York,90
Butter Midtown,Butter Midtown,100,"70 West 45th Street, New York",45th street,90
The Perfect Pint,The Golden Glass Restaurant,86,"123 West 45th Street, New York",45th street,90
Park Italian Gourmet,Ambrosia Italian and Albanian Restaurant,86,"60 West 45th Street, New York",45th street,90
Moshe’s Falafel,Theresa's Polish American Restaurant,86,"94W West 46th Street, New York",New York,90
T45,Frankies 457 Spuntino,60,"135 West 45th Street, New York",45th street,90
The Blue Ribbon,Blue,90,"145 West 44th Street, New York",New York,90
Junior’s,Junior's Restaurant,90,"1626 Broadway, New York","New York, New York",95
Cena,Oceana,80,"1535 Broadway, New York","New York, New York",95
Crossroads,Eros,68,"1535 Broadway, New York","New York, New York",95
Brooklyn Diner USA,Diner,90,"212 West 57th Street, New York",New York,90
Cafe Concepts,Stars Cafe & Restaurant,86,"888 7th Avenue #203, New York",7th Ave,90
Carnegie Diner & Café,Diner,90,"205 West 57th Street, New York",New York,90
Carnegie Diner,Diner,90,"205 West 57th Street, New York",New York,90
888 Cafe & Bar,El Morro Restaurant & Bar,86,"890 7th Avenue, New York","New York, New York",95
9Ten,9Ten Restaurant,90,"910 7th Avenue, New York","New York, New York",95
Basso56,Bags Soulfood Restaurant,64,"234 West 56th Street, New York",New York,90
Patsy's,Patsy's Italian Restaurant,90,"236 West 56th Street, New York",New York,90
Argo Tea,Argo Restaurant,86,"1792 Broadway, New York","New York, New York",95
Petrossian Boutique & Cafe,Petrossian Boutique & Cafe,100,"911 7th Avenue, New York","New York, New York",95
Carnegie John’s,Theresa's Polish American Restaurant,86,"7th Ave &, West 56th Street, New York",7th Ave,90
Fuji Sushi 56th,Fuji Sushi,90,"238 West 56th Street, New York",38 w,90
Majorelle,Mangoville,63,"28 East 63rd Street, New York",St 6,90
Omar at Vaucluse,Caridad Restaurant at Kingsbridge,86,"100 East 63rd Street, New York",St 6,90
Altesi,Taiwanese Specialties 老華西街台菜館,75,"26 East 64th Street, New York",St 6,90
Fleming by Le Bilboquet,Le Banquet,86,"27 East 62nd Street, New York",St 6,90
Nello,Nello,100,"696 Madison Avenue, New York",696 Madison Ave,90
Tony Dragon's Grille,Theresa's Polish American Restaurant,86,"Madison Ave &, East 62nd Street, New York",New York,90
Halal food cort,Halal Food Cart,93,New York,New York,100
Amaranth,Amarachi,75,"21 East 62nd Street # 1, New York",New York,90
David Burke Tavern,David's Pizzeria Restaurant Italian & Mexican Food Bakery,86,"135 East 62nd Street, New York",St 6,90
Eat Here Now,Ricky's Eat-Well Jamaican Restaurant,86,"839 Lexington Avenue, New York",New York,90
Rabbi Pinto,Print,72,"122 East 58th Street New York, Ny 1002, New York",New York,90
Yura On Madison,620 on Caton Pizzeria and Restaurant,86,"1350 Madison Avenue, New York",New York,90
Bistro Du Nord,Luna Asian Bistro and Japanese Rooftop Restaurant 日本料理,86,"1312 Madison Avenue, New York",New York,90
Pascalou,Pascalou,100,"1308 Madison Avenue, New York",1308 Madison Ave,90
Sfoglia,Sfoglia,100,"1402 Lexington Avenue, New York",1402 Lexington Ave,90
3 Guys,3 Guys,100,"49 East 96th Street, New York",New York,90
Nicola's Restaurant,Nicola's Restaurant,100,"146 East 84th Street, New York",New York,90
Medo Halal Food Cart,Halal Food Cart,95,"1520 3rd Avenue, New York","New York, New York",95
Highlands Cafe,Stars Cafe & Restaurant,86,"1505 3rd Avenue, New York","New York, New York",95
Wrap & Roll Grill,Golden Krust Caribbean Bakery and Grill,86,"1530 3rd Avenue, New York","New York, New York",95
Piazza Pizza & Grille,Piazza Pizza and Grill,88,"1530 3rd Avenue, New York","New York, New York",95
PJ Bernstein,PJ Bernstein Deli Restaurant,90,"1215 3rd Avenue, New York","New York, New York",95
Roma Pizza,Roma pizza,100,"1572 3rd Avenue, New York","New York, New York",95
Otto's Tacos,Ott,90,"1568 3rd Avenue, New York","New York, New York",95
Wok 88,Wok Wok,95,"1570 3rd Avenue #1, New York",New York,90
Siena Cafe,Stars Cafe & Restaurant,86,"1580 3rd Avenue, New York","New York, New York",95
Papaya King,King Chinese Restaurant,86,"179 East 86th Street, New York",New York,90
Churutto,Haru,68,"1534 3rd Avenue, New York","New York, New York",95
Red Brick Cafe,Stars Cafe & Restaurant,86,"1114 Nostrand Avenue, Brooklyn",Nostrand Avenue,90
Prestige Deli & Grill,Deli,90,"95 Clarkson Avenue, Brooklyn",brooklyn,90
Jen's Roti Shop,Theresa's Polish American Restaurant,86,"838 Flatbush Avenue, Brooklyn",Flatbush ave,90
El Caldero Restaurant Sport Bar,El Caldero Restaurant & Sports Bar,95,"1267 Jerome Avenue, The Bronx",1267 Jerome Ave,90
Olga,Olgas Restaurant,90,"1324 Jerome Avenue, The Bronx",1324 Jerome Ave,90
Sun Fung,Sun Fung Chinese Restaurant,90,"2 Marcy Place, The Bronx",2-01 50th Ave,86
Angiolina's Restaurant,Restaurant,90,"1320 Jerome Avenue, The Bronx",1320 Jerome Ave,90
Tacos San Lucas,Old San Juan Restaurant,86,"1320 A Jerome Avenue, The Bronx",29-30  A Union St,86
La Fuente Steak House,La Roja de Todos Restaurant & Bakery,86,The Bronx,"1095 Prospect Ave, Bronx, NY 10459",86
Plaza Tulcingo,Tulcingo,90,"10 East Clarke Place, The Bronx",37-10 114th St,86
Munch Time,Ten Ren's Tea Time 天仁,86,"21 East 170th Street, The Bronx",Street,90
Boardwalk Foods Inc,Sunshine Restaurant Food & Catering Inc,86,"1025 Riegelmann Boardwalk, Brooklyn",Boardwalk,90
New Kam Sheng,New Kam Sheng,100,"454 West 238th Street, The Bronx",38th St,90
Tin Marin,Tin Duc Food Market,86,"3708 Riverdale Avenue, The Bronx",196 23 Jamaica Avenue,86
Ki Sushi,Fuki Sushi Japanese Restaurant,90,"282 Flatbush Avenue, Brooklyn",Flatbush ave,90
Brooklyn Crepe & Juice,"Golden Forest Chinese Restaurant, Brooklyn Ny",86,"274 Flatbush Avenue, Brooklyn",Flatbush ave,90
Purbird,Bluebird Food & Spirits,64,"82 6th Avenue, Brooklyn",82 6th Ave,90
Born,Shaborn Juice Bar & Restaurant,90,"293 Flatbush Avenue, Brooklyn",Flatbush ave,90
Sumi Sushi,Umi Sushi,95,"287 Flatbush Avenue, Brooklyn",Flatbush ave,90
Joy,Joy Asian Restaurant,90,"301 Flatbush Avenue, Brooklyn",Flatbush ave,90
Rose's,The Double Rose's,90,"295 Flatbush Avenue, Brooklyn",Flatbush ave,90
Danbo,Restaurant Dano,72,"52 7th Avenue, Brooklyn",7th Ave,90
Heights Bar & Grill,Bar Sol De Quito Restaurant II,86,"766 Classon Avenue, Brooklyn",brooklyn,90
Natural Blend,Natural Blend,100,"769A Washington Avenue, Brooklyn",769A Washington Ave,90
3D Bakery,bakery,90,"771 Washington Avenue, Brooklyn",brooklyn,90
Triple D's Place,Theresa's Polish American Restaurant,86,"771 Washington Avenue, Brooklyn",brooklyn,90
Oxalis,Lali,68,"791 Washington Avenue, Brooklyn",brooklyn,90
Colala,Collado Restaurant,75,"791 A Washington Avenue, Brooklyn",brooklyn,90
Banh Mi Place,Mi Barrio Taqueria Restaurant,86,"824 Washington Avenue, Brooklyn",brooklyn,90
Canarsie Chicken & Gyro,Harway Pizza Gyro Falafel Restaurant,86,"1206 Remsen Avenue, Brooklyn",Remsen Avenue,90
Sallys Fish and Things,Fish,90,"8922 Flatlands Avenue, Brooklyn",brooklyn,90
Nous Les Amis,Les Babouches Restaurant,86,"2187 Clarendon Road, Brooklyn",brooklyn,90
China Tang Kitchen,China Kitchen,95,"2107 Cortelyou Road, Brooklyn",brooklyn,90
China Dragon,China Dragon Restaurant,90,"2182 Clarendon Road, Brooklyn",brooklyn,90
Jamaica Inn,Sparkles Jamaica Restaurant,86,"1135 Flatbush Avenue, Brooklyn",1135 Flatbush Ave,90
Banana Boat,Banana Boat Restaurant,90,"1138 Flatbush Avenue, Brooklyn",1138 Flatbush Ave,90
El Rancho Dominicano,El Mexicano,86,"1157 Flatbush Avenue, Brooklyn",Flatbush ave,90
Bona Pizza,Bona Pizza,100,"1204 Flatbush Avenue, Brooklyn",Flatbush ave,90
Yummy,Yummy Chinese Restaurant,90,"1195 Flatbush Avenue, Brooklyn",1195 Flatbush Ave,90
Zhu Lang Dian,Zhu Yuan Chinese Restaurant,86,"1821 Church Avenue, Brooklyn",brooklyn,90
Brooklyn Pizza II,Brooklyn Pizza II,100,"1806 Church Avenue, Brooklyn",brooklyn,90
Flatbush Latin Grill,Golden Krust Caribbean Bakery and Grill,86,"1902 Church Avenue, Brooklyn",brooklyn,90
Ortega's Grill Inc,Theresa's Polish American Restaurant,86,"1902 Church Avenue, Brooklyn",brooklyn,90
Mallenche,Malinche Mexican Restaurant,70,"1621 Church Avenue, Brooklyn",brooklyn,90
China Dragon,China Dragon Restaurant,90,"1615 Church Avenue, Brooklyn",1615 Church Ave,90
Brooklyn Pizzeria,Brooklyn Pizzeria,100,"1806 Church Avenue, Brooklyn",brooklyn,90
Parade Ground Snack Bar,La Kuchara Ecuadorian Restaurant Bar,86,"1311 Caton Avenue, Brooklyn",brooklyn,90
Church Avenue Pizza Shop,Pizza,90,"1916 B Church Avenue, Brooklyn",brooklyn,90
Ninja Japan Teriyaki & Sushi,Umi Sushi,86,"1920 Church Avenue, Brooklyn",brooklyn,90
Stratford deli grocery,Deli Grocery,90,"1105 Church Avenue, Brooklyn",brooklyn,90
Tacos Pollo Loco #2,Oliva Paraiso Restaurant No 2,86,"1305 Cortelyou Road, Brooklyn",brooklyn,90
Anarkali Indian Cuisine,Annie Chan's Japanese Cuisine Restaurant,86,"1125 Church Avenue, Brooklyn",125 Church Ave,90
Kreyol Flavor,Kreyol Flavor Bakery & Restaurant,90,"1738 Flatbush Avenue, Brooklyn",Flatbush ave,90
Number One Kitchen,Number One Chinese Restaurant,86,"5405 Flatlands Avenue, Brooklyn",brooklyn,90
K 1 Buffet,Lucky 1 Chinese Restaurant,86,"5614 Flatlands Avenue, Brooklyn",5614 Flatlands Ave,90
Farine Baking Company,Clinton St. Baking Co. & Restaurant,86,"256-15 Hillside Avenue, Glen Oaks",Hillside Avenue,90
Mumbai Xpress,Mumbai Xpress,100,256-05 Hillside Avenue,Hillside Avenue,95
Jackson Diner,Diner,90,"256-01 Hillside Avenue, New York",256-01 Hillside Ave,90
Katsuei,Kasumi Sushi & BBQ Restaurant,64,"210 7th Avenue, Brooklyn",7th Ave,90
Yamato,Yamato,100,"170 7th Avenue, Brooklyn",7th Ave,90
Burger Village,Dragon Village Chinese Restaurant,86,"222 7th Avenue, Brooklyn",7th Ave,90
Pino's La Forchetta Pizza,Pizza,90,"181 7th Avenue #2660, Brooklyn",7th Ave,90
Grand Canyon Diner,Grand Canyon Diner,100,"179 7th Avenue, Brooklyn",7th Ave,90
Mr. Falafel,Benny's Kosher Pizza Falafel & Dairy Restaurant,86,"226 7th Avenue, Brooklyn",7th Ave,90
Hanki,Haandi,73,"226 7th Avenue #3437, Brooklyn",7th Ave,90
Pita Pan,Pikaro Pan Colombian Restaurant and Bakery,86,"167 7th Avenue, Brooklyn",7th Ave,90
Rancho Alegre,Rancho Alegre,100,"204 Garfield Place, Brooklyn",204 Garfield Pl,90
Szechuan Delight,Szechuan Delight,100,"152 7th Avenue, Brooklyn",7th Ave,90
Papi's Grill,Theresa's Polish American Restaurant,86,"161 7th Avenue, Brooklyn",7th Ave,90
SottoVoce,Sotto Voce,95,"225 7th Avenue, Brooklyn",7th Ave,90
Da Nonna Rosa,Da Wong Chinese Restaurant,86,"140 7th Avenue, Brooklyn",7th Ave,90
Park Slope Ale House,Hunan House Chinese Restaurant,86,"356 6th Avenue, Brooklyn",brooklyn,90
Numero 28 Pizzeria,La Strada Pizzeria & Restaurant,86,"137 7th Avenue, Brooklyn",7th Ave,90
Song,Song Thai Restaurant & Bar,90,"295 5th Avenue, Brooklyn",295 5th Ave,90
Mr. Wonton,Mr. Wonton,100,"73 7th Avenue, Brooklyn",7th Ave,90
Roma Pizza,Roma pizza,100,"85 7th Avenue, Brooklyn",7th Ave,90
Bar Basic,El Morro Restaurant & Bar,86,"71 7th Avenue, Brooklyn",7th Ave,90
Spice Thai,Spice,90,"61A 7th Avenue, Brooklyn",7th Ave,90
Banhmigos,Bann,68,"178 Lincoln Place, Brooklyn",brooklyn,90
Faros,Faros,100,"84 7th Avenue, Brooklyn",7th Ave,90
Mother Dough Pizza,Mother Dough Pizza,100,"72 7th Avenue, Brooklyn",7th Ave,90
Cousin John's Cafe & Bakery,Cousin John's Cafe and Bakery,95,"70 7th Avenue, Brooklyn",7th Ave,90
Cafe Regular,Cafe R,90,"158 Berkeley Place, Brooklyn",brooklyn,90
Kiwiana,Jian,68,"847 Union Street, Brooklyn",brooklyn,90
Bombay Kabab,Prince Kabab & Chinese Restaurant,86,"54 7th Avenue, Brooklyn",7th Ave,90
The Bagel Market,The Golden Glass Restaurant,86,"106 7th Avenue, Brooklyn",7th Ave,90
Crab Spot,Crab Spot,100,"833 Union Street, Brooklyn",833 Union St,90
Häagen-Dazs®,Gen,90,"109 7th Avenue, Brooklyn",7th Ave,90
Scottadito Osteria Toscana,Osteria Laguna,86,"788A Union Street, Brooklyn",brooklyn,90
Lano's,Lano's,100,"107 3rd Avenue, Brooklyn",107 3rd Ave,90
Threes Brewing,Threes Brewing,100,"333 Douglass Street, Brooklyn",brooklyn,90
Fourth Avenue Pub,The Irish Punt Pub & Restaurant,86,"76 4th Avenue, Brooklyn",4th Ave,90
Taiki,Lantern Thai Kitchen,72,"134 Nevins Street, Brooklyn",brooklyn,90
Insa,La Palina,77,"328 Douglass Street, Brooklyn",brooklyn,90
Gourmet Deli and Beverages,Deli,90,"70 4th Avenue, Brooklyn",4th Ave,90
"Union Hotel, Ascend Hotel Collection",Life Hotel,86,"611 Degraw Street, Brooklyn",brooklyn,90
Canteen Delicatessen and Cafe,'Essen,90,"57 4th Avenue, Brooklyn",4th Ave,90
New China Wok,New China,95,"57 4th Avenue, Brooklyn",4th Ave,90
No pork halal kitchen,No Pork Halal Kitchen,100,"50 4th Avenue, Brooklyn",4th Ave,90
Ghenet,Best Coffee & Luncheonette,75,"348 Douglass Street, Brooklyn",brooklyn,90
Parklife,Li Li,86,"636 Degraw Street, Brooklyn",brooklyn,90
turkish grill,Turkish Cafe & Restaurant,86,Brooklyn,brooklyn,100
Hollow Nickel,Glow,68,"494 Atlantic Avenue, Brooklyn",brooklyn,90
The Halal Paradise (Food Truck),The Halal Paradise Food Truck,98,"24 4th Avenue, Brooklyn",4th Ave,90
Flora,Flora's Pizzeria & Restaurant,90,"1021 8th Avenue, Brooklyn",brooklyn,90
Henry's,New Henry's Chinese Restaurant,90,"433 7th Avenue A, Brooklyn",7th Ave,90
Couleur Café,Crotona's Café Restaurant,86,"435 7th Avenue, Brooklyn",7th Ave,90
Pizza Town,Pizza Town,100,"85 5th Avenue, Brooklyn",5th Avenue,90
Pure Bistro,Luna Asian Bistro and Japanese Rooftop Restaurant 日本料理,86,"88 5th Avenue, Brooklyn",5th Avenue,90
Miriam,Miriam,100,"79 5th Avenue, Brooklyn",5th Avenue,90
Kingston 12,152-12 Northern Blvd Chinese Restaurant,86,"81 5th Avenue, Brooklyn",5th Avenue,90
City Subs,Green City Restaurant,86,"82 5th Avenue, Brooklyn",5th Avenue,90
Nacho Macho Taco,Mister Taco Mexican Restaurant,86,"82 5th Avenue, Brooklyn",5th Avenue,90
Momo,Romeo's Pizza,68,"78 5th Avenue, Brooklyn",5th Avenue,90
Lizzie King’s Parlor,Theresa's Polish American Restaurant,86,"75A 5th Avenue, Brooklyn",5th Avenue,90
Hiroto,Hiroto Japanese Restaurant,90,"75 5th Avenue, Brooklyn",75 5th Ave,90
BURGERIM,Prime Burger,77,"119 5th Avenue, Brooklyn",5th Avenue,90
Pizza Secret,Pizza Secret,100,"72 5th Avenue, Brooklyn",5th Avenue,90
The Bagel Store Original Rainbow Bagel,The Pine Restaurant,86,"69 5th Avenue, Brooklyn",5th Avenue,90
SkyIce Thai Food & Ice Cream,Cream,90,"63 5th Avenue, Brooklyn",5th Avenue,90
Miti Miti,MIMI,68,"138 5th Avenue, Brooklyn",5th Avenue,90
Philly Pretzel Factory,Food Factory,86,"131 5th Avenue, Brooklyn",5th Avenue,90
New China Tung,New China,90,"140 5th Avenue, Brooklyn",5th Avenue,90
Convivium Osteria,Star,68,"68 5th Avenue, Brooklyn",5th Avenue,90
Hunan Delight,Deli,90,"752 Union Street, Brooklyn",brooklyn,90
Halal International,National,90,"574 Atlantic Avenue, Brooklyn",brooklyn,90
Claw Daddy's,Theresa's Polish American Restaurant,86,"31 3rd Avenue, Brooklyn",brooklyn,90
Masala Grill,Golden Krust Caribbean Bakery and Grill,86,"501b Atlantic Avenue, Brooklyn",brooklyn,90
Kind Of Soul,C&L Of East Ocean Restaurant,86,"497 Atlantic Avenue, Brooklyn",brooklyn,90
Cesar's Empanadas Truck,Cesar's Empanadas,95,"16-32 Hanson Place, Brooklyn",brooklyn,90
Aunt Butchies of Brooklyn,"Golden Forest Chinese Restaurant, Brooklyn Ny",86,"4864 Arthur Kill Road, Staten Island",2670 Coney Island Ave,86
Love Earth,I Love NY Pizza,86,"4916 Arthur Kill Road, Staten Island",2670 Coney Island Ave,86
Avocado Sushi,Ginpachi Sushi Restaurant,86,"4906 Arthur Kill Road, Staten Island",2670 Coney Island Ave,86
La Rosa Chicken & Grill - Richmond Valley,LA Cazuela Restaurant,86,"245 Richmond Valley Road, Staten Island",2670 Coney Island Ave,86
Zio Toto Restaurant and Bar,Restaurant,90,"86 Page Avenue, Staten Island",Page Ave,90
Cabo Mexican Restaurant Lounge Night club,Restaurant,90,"96 Page Avenue, Staten Island",Page Ave,90
Cafe Luna,Stars Cafe & Restaurant,86,"31 Page Avenue, Staten Island",Page Ave,90
Laila Restaurant And Lounge,Lounge & Restaurant,95,"45 Page Avenue, Staten Island",45 page ave,90
Confections Dessert Lounge & Bar,"Caribbean American Ent. Bar, Lounge & Restaurant",86,"65 Page Avenue, Staten Island",Page Ave,90
Page Plaza Diner,Page Plaza Diner,100,"75 Page Avenue, Staten Island",75 Page Ave,90
Queen Sheeba,Queen Sheeba,100,"317 West 141st Street, New York",New York,90
Mama Tina's Pizzeria,La Strada Pizzeria & Restaurant,86,"2649 Frederick Douglass Boulevard, New York",New York,90
Ruby's Vintage Harlem,Ruby,90,"2340 Adam Clayton Powell Junior Boulevard, New York",New York,90
Hexagon Lounge,Taipan Fusion Restaurant and Hookah Lounge,86,"318 West 142nd Street, New York",New York,90
Jerkyz,Boston Jerk City,68,"2394 Adam Clayton Powell Junior Boulevard, New York",New York,90
Ponty Bistro,Luna Asian Bistro and Japanese Rooftop Restaurant 日本料理,86,"2375 Adam Clayton Powell Junior Boulevard, New York",New York,90
Splendid China,Splendid China Restaurant,90,"2038 Amsterdam Avenue, New York",Amsterdam avenue,90
Kennedy's Chicken and Grill,Kennedy's,90,"2083 Amsterdam Avenue, New York",Amsterdam avenue,90
El nuevo rincon del sabor,El Mexicano,86,"1047 Saint Nicholas Avenue, New York",New York,90
El Palacio Seafood Market,Food market,90,"1049 Saint Nicholas Avenue #3803, New York",New York,90
Sweet Mama's,Theresa's Polish American Restaurant,86,"689 Malcolm X Boulevard, New York",New York,90
Jimbos Hamburger,Jimbo's,79,"703 Malcolm X Boulevard, New York",New York,90
Kennedy Chicken & Biscuit,Chicken Festival,86,"108 West 145th Street, New York",45th street,90
King's Pizza of Harlem,King's Pizza,90,"110 West 145th Street, New York",45th street,90
Lenox Fast Food,Fast Food,90,United States,"2578 Broadway, New York, NY 10025, United States",90
Grini's Grill,Grini's Grill,100,"100 West 143rd Street # A, New York",New York,90
Wat's On Your Plate 2 Seafood,Moti's,86,"641 Malcolm X Boulevard, New York",New York,90
Wat's On Your Plate 2,Theresa's Polish American Restaurant,86,"641 Malcolm X Boulevard, New York",New York,90
Sugar Hill Fish Place,Fish,90,"346 West 145th Street, New York",45th street,90
Victorios Pizza Plus,Vittorio's Pizza Plus,93,"348 West 145th Street, New York",45th street,90
Famous Fish Market,Fish Market,90,"684 Saint Nicholas Avenue, New York",New York,90
New Millennium Pizza,New Millennium Pizza,100,"394 West 145th Street, New York",45th street,90
Golden Dragon Restaurant,Dragon Restaurant,95,"398 West 145th Street, New York",45th street,90
La Cocina De Agave,La Cocina,90,"398 West 145th Street, New York",45th street,90
Polanco,Polanco's Restaurant,90,"2421 Adam Clayton Powell Junior Boulevard, New York",New York,90
Johnny Kaks,Johnny's Famous Reef Restaurant,86,"2453 Adam Clayton Powell Junior Boulevard, New York",New York,90
China Sun,China Gourmet Chinese Restaurant,86,"787 Liberty Avenue, Brooklyn",brooklyn,90
United Kitchen,Halal Chinese Kitchen,86,"766 Liberty Avenue, Brooklyn",brooklyn,90
El Patron Bar & Grill,La Kuchara Ecuadorian Restaurant Bar,86,"748 Liberty Avenue, Brooklyn",748 Liberty Ave,90
La Bahia Dominicana,La Bahia,90,"748 Liberty Avenue, Brooklyn",748 Liberty Ave,90
RICO CHIMI Brooklyn,"Golden Forest Chinese Restaurant, Brooklyn Ny",86,"2928 Atlantic Avenue, Brooklyn",brooklyn,90
El Rey II,El Rey II Restaurant,90,"1064 Liberty Avenue, Brooklyn",1064 Liberty Ave,90
Bonnie’s Roti shop,Theresa's Polish American Restaurant,86,"1062 Liberty Avenue, Brooklyn",brooklyn,90
Yardie,Yardie Jamaican Restaurant,90,"1073 Liberty Avenue, Brooklyn",1073 Liberty Ave,90
Aloha Brooklyn Grill Corp.,"Golden Forest Chinese Restaurant, Brooklyn Ny",86,"3221 Fulton Street, Brooklyn",Fulton,90
Aroma Del Campo Restaurant,Restaurant,90,"3195 Fulton Street, Brooklyn",Fulton,90
Faro del Pacifico,El Monstro del Sazon Pizzaria & Restaurant,86,"3247 Fulton Street, Brooklyn",Fulton,90
Toribio,Toribio Restaurant,90,"3169 Fulton Street, Brooklyn",Fulton,90
El Rey IV Billiard Lounge,Taipan Fusion Restaurant and Hookah Lounge,86,"7516 Rockaway Boulevard, Queens",13861 Queens Blvd,86
Peter's Grill & Bar,Theresa's Polish American Restaurant,86,"75-11 Rockaway Boulevard, Queens",40-11 150th St,86
La Selva bar & Restaurant,La Estrella Bar & Restaurant,91,"9402 80th Street, Ozone Park",Street,90
La Barrica Bar & Grill,La Roja de Todos Restaurant & Bakery,86,"79-17 Atlantic Avenue, Woodhaven",196 23 Jamaica Avenue,86
Crown chicken & deli inc.,Deli,90,"2718 Pitkin Avenue, Brooklyn",brooklyn,90
Angels Cook Catering,Sunshine Restaurant Food & Catering Inc,86,"452 Pine Street, Brooklyn",brooklyn,90
Appayon,Happy Town Chinese Restaurant,64,"510 Crescent Street, Brooklyn",510 Crescent St,90
Ecowas Kitchen (Amala Junction),Ming Hing Kitchen,86,"1039 Belmont Avenue, Brooklyn",1039 Belmont Ave,90
Foodies Jerk Spot,Jerk-A-Rona Restaurant and Grill,86,"1039 Belmont Avenue, Brooklyn",1039 Belmont Ave,90
Chicken Insider,Crazy Chicken Restaurant & Coffee Shop,86,"1752 2nd Avenue, New York","New York, New York",95
Thais New York,New Fulin Kwok Seafood Restaurant,86,"1750 2nd Avenue, New York","New York, New York",95
Le Viêt Thai,Mekong Thai & Vietnamese Restaurant,86,"1750 2nd Avenue, New York","New York, New York",95
Michelle's Kitchen,Hell's Kitchen,88,"1614 3rd Avenue # 1, New York",New York,90
Upper East Side Burger,East Far,86,"1551 3rd Avenue, New York","New York, New York",95
Taqueria,Mi Barrio Taqueria Restaurant,90,"1551 3rd Avenue, New York","New York, New York",95
Ooki Sushi,Ginpachi Sushi Restaurant,86,"1575 3rd Avenue, New York","New York, New York",95
🍕 Pizza,Pizza,100,"221 East 86th Street, New York",New York,90
Kobeyaki,Sea,60,"215 East 86th Street, New York",New York,90
Naruto Ramen,Haru,68,"1596 3rd Avenue, New York","New York, New York",95
East Garden Chinese,East Garden,90,"1685 1st Avenue, New York","New York, New York",95
Gotham Pizza,Gotham Pizza,100,"1667 1st Avenue, New York","New York, New York",95
Conmigo,Omai,68,"1685 1st Avenue, New York","New York, New York",95
Mokja,Tomo Japanese Cafe,72,"1663 1st Avenue, New York","New York, New York",95
87th Street Deli Inc,Deli,90,"1665 1st Avenue, New York","New York, New York",95
Dream Pocha,Ocha,90,"158-14 Northern Boulevard, Flushing",147-18 Northern Blvd,86
Mad for Chicken,Crazy Chicken Restaurant & Coffee Shop,86,"15720 Northern Boulevard, Queens",147-18 Northern Blvd,86
Hong Chun Cheon Cheese Dak Galbi,Hong Kong Restaurant,86,"156-16 Northern Boulevard, Queens",147-18 Northern Blvd,86
Yupdduk,Due,60,"157-22 Northern Boulevard, Queens",147-18 Northern Blvd,86
돌아온 1.5 닭갈비,Lucky 1 Chinese Restaurant,86,"158-1 Northern Boulevard, Flushing",147-18 Northern Blvd,86
The Basac,The Golden Glass Restaurant,86,"158-09B Northern Boulevard, Flushing",147-18 Northern Blvd,86
Doraon 1.5 Dak Galbi,No. 1 Kitchen Chinese Restaurant,86,"158-3 Northern Boulevard, Flushing",147-18 Northern Blvd,86
BBQ Chicken,Korean BBQ Restaurant,86,"15823 Northern Boulevard, Flushing",147-18 Northern Blvd,86
소나무집,403 Restaurant,0,"158-15 Northern Boulevard, Flushing",147-18 Northern Blvd,86
Nuro Noodles 正中台北傳統牛肉麵,Kuai An Hand Pull Noodles Restaurant,86,"160-06 Northern Boulevard, Flushing",147-18 Northern Blvd,86
Mi Goong,Mi Barrio Taqueria Restaurant,86,"3574 159th Street, Flushing",9th St,90
Gopchang Story Flushing,Shun Won Flushing Chinese Restaurant,86,"160-18 Northern Boulevard, Queens",85-18 Northern Boulevard,88
Arirang,Arirang Restaurant,90,"41-04 163rd Street, Flushing",Street,90
Chengs Oriental Express,Fresh Tortillas (Tex-Mex Express) & Japanese Restaurant,86,"42-13 Bowne Street, Queens",Street,90
Lao Chao Buns,Lao Dong Bei Restaurant,86,"42-14 Bowne Street, Flushing",Street,90
Beef Bar Chinese Restaurant,Chinese Restaurant,90,"41-87 Bowne Street, Queens",41-87 Bowne St,90
Silver Grill,Silver Star Restaurant,86,"4183 Bowne Street, Flushing",Street,90
Beijing Style BBQ,Belky's Home Style Cooking Restaurant,86,"41-83 Bowne Street, Queens",Street,90
Venice Pizza,Venice pizza,100,"41-94 Bowne Street, Flushing",41-94 Bowne St,90
Guguyan Sichuan Cuisine,Annie Chan's Japanese Cuisine Restaurant,86,"41-73A Bowne Street, Flushing",Street,90
El Rincon De La Vieja,El Rincon De La Vieja Colombian Bakery,90,"41-86 Bowne Street, Flushing",Street,90
San Feng Restaurant,Shung Feng Restaurant,90,"4171 Bowne Street, Flushing",Street,90
JAN CHI MA EUL,New Pair Jan Chinese Restaurant,86,"41-65 Bowne Street, Flushing",Street,90
Guadalupe Restaurant,Guadalupano Restaurant,90,"597 West 207th Street, New York",New York,90
Pizza Haven,Pizza Haven,100,"4942 Broadway, New York","New York, New York",95
Capitol Diner,Diner,90,"4933 Broadway, New York","New York, New York",95
Kennedy,Kennedy's,95,"4927 Broadway, New York","New York, New York",95
207 Deli Grill,Deli & Grill,95,"4930 Broadway, New York","New York, New York",95
Fresh Tortillas,Fresh Tortillas (Tex-Mex Express) & Japanese Restaurant,90,"595 West 207th Street, New York",New York,90
Micfab Food,famous restaurant Chinese food,86,"606 West 207th Street, New York",New York,90
Sabor Tropical,Spice Island Tropical Restaurant,86,"143 Sherman Avenue, New York",New York,90
Maracas,Paracas Peruvian Restaurant & Pisco Bar,77,"143 Sherman Avenue, New York",New York,90
XYST,Lucky Star Restaurant,68,"44 West 17th Street, New York",New York,90
Green Symphony,Green Pavilion Restaurant,86,"547 6th Avenue, New York","New York, New York",95
Basta Pasta,La Pasta Restaurant,86,"37 West 17th Street, New York",New York,90
Whitmans,Whitmans,100,"331 10th Avenue, New York","New York, New York",95
The Little Beet,Little Bandgladesh Restaurant,86,"1140 Broadway, New York","New York, New York",95
INDAY,Xing hui linda,80,"1133 Broadway, New York","New York, New York",95
La Pecora Bianca NoMad,La Roja de Todos Restaurant & Bakery,86,"1133 Broadway, New York","New York, New York",95
Latin American,Latin American Restaurant,90,"29 West 26th Street # 1, New York",New York,90
The NoMad Restaurant,The NoMad Restaurant,100,"1170 Broadway, New York","New York, New York",95
Bazaar,Food Bazaar Supermarket,90,"31 West 26th Street, New York",New York,90
Bazar,Bazar Tapas Bar and Restaurant,90,"31 West 26th Street, New York",New York,90
Made Nice,Nicey Nice Jamaican Restaurant,86,"8 West 28th Street, New York",New York,90
Bondi Sushi,Ginpachi Sushi Restaurant,86,"6 West 28th Street, New York",New York,90
noda,Koda,75,"6 West 28th Street, New York",New York,90
Ulivo,Da' Giulio,80,"4 West 28th Street, New York",New York,90
Hill Country Chicken,Sugar Hill Restaurant & Supper Club,86,"1123 Broadway, New York","New York, New York",95
The Flatiron Room,The Golden Glass Restaurant,86,"37 West 26th Street, New York",New York,90
Hill Country Barbecue Market,Old Country Diner,86,"30 West 26th Street, New York",New York,90
India Kitchen,Halal Chinese Kitchen,86,"493 9th Avenue, New York","New York, New York",95
Thai Select NY,"Golden Forest Chinese Restaurant, Brooklyn Ny",86,"472 9th Avenue, New York","New York, New York",95
Sugar Deli Food Center,Deli Food Center,95,"470 9th Avenue, New York","New York, New York",95
Vito's Slices and Ices,Ambrosia Italian and Albanian Restaurant,86,"464 9th Avenue, New York","New York, New York",95
Kashmir 9,Kashmir 9: Cuisine of Pakistan,90,"478 9th Avenue, New York","New York, New York",95
Aiyara Thai,Mekong Thai & Vietnamese Restaurant,86,"480 9th Avenue, New York","New York, New York",95
AM-PM Deli Grocery,Deli & Grocery,95,"480 9th Avenue, New York","New York, New York",95
Manganaros & HeroBoy,Manganaro's Hero Boy,90,"494 9th Avenue, New York","New York, New York",95
Tavola,Olea,77,"488 9th Avenue, New York","New York, New York",95
City Gourmet Market,Seafish Market Seafood Restaurant,86,"338 8th Avenue, New York","New York, New York",95
Haymaker Bar and Kitchen,Ambrosia Italian and Albanian Restaurant,86,"252 West 29th Street, New York",New York,90
Claudio Pizzeria (8th Avenue),Gino's Pizzeria,86,"334 8th Avenue, New York","New York, New York",95
Kasteli Cafe,Stars Cafe & Restaurant,86,"372 8th Avenue, New York","New York, New York",95
OCabanon,Copacabana Brazilian Restaurant,68,"245 West 29th Street, New York",New York,90
biricchino,biricchino,100,"260 West 29th Street, New York",New York,90
Taco Bandito,Mister Taco Mexican Restaurant,86,"325 8th Avenue, New York","New York, New York",95
Milano,Milano Italian Delicatessen,90,"382 8th Avenue, New York","New York, New York",95
Bean & Bean Chelsea,Sea,90,"318 8th Avenue, New York","New York, New York",95
Stella's Pizza,Pizza Pizza,95,"110 9th Avenue #1, New York",New York,90
Bathtub Gin,AT&T,68,"132 9th Avenue, New York","New York, New York",95
Catch Steak,Mambi Steak House Bar & Grill,86,"88 9th Avenue, New York","New York, New York",95
Dickson's Farmstand Meats,Moti's,86,"75 9th Avenue, New York","New York, New York",95
El Donkey,El Morro Restaurant & Bar,86,"75 9th Avenue, New York","New York, New York",95
Gotham Pizza,Gotham Pizza,100,"144 9th Avenue, New York","New York, New York",95
Berlin Currywurst,Li Li,86,"75 9th Avenue, New York","New York, New York",95
Chuta Madre,Marea,72,"75 9th Avenue, New York","New York, New York",95
BLACKBARN Shop,O N Coffee Shop Restaurant,86,"75 9th Avenue, New York","New York, New York",95
Cappone’s Salumeria,Theresa's Polish American Restaurant,86,"75 9th Avenue, New York","New York, New York",95
