name_google,name_foursquare,ratio_name,address_google,address_foursquare,ratio_address
Pierozek,Eros,68,"592 Manhattan Avenue, Brooklyn",brooklyn,90
Jimmy's Diner,Diner,90,"577 Union Avenue, Brooklyn",brooklyn,90
Charlotte Patisserie,Ott,90,"596 Manhattan Avenue, Brooklyn",brooklyn,90
Bar Beau,Bea,90,"61 Withers Street, Brooklyn",brooklyn,90
S & K Deli and Grill,deli and grill,95,"364 Leonard Street, Brooklyn",brooklyn,90
Reunion,Lillie's Union Square,74,"544 Union Avenue, Brooklyn",brooklyn,90
Fortune Cookies,Fortune Cookies Chinese Restaurant,90,"611 Manhattan Avenue, Brooklyn",611 Manhattan Ave,90
Fushimi,Fushimi Japanese Restaurant,90,"475 Driggs Avenue, Brooklyn",brooklyn,90
Llama Inn,Sizzle Inn Restaurant,86,"50 Withers Street, Brooklyn",brooklyn,90
Baoburg,Bobo,68,"614 Manhattan Avenue, Brooklyn",brooklyn,90
Amarin Cafe,Stars Cafe & Restaurant,86,"617 Manhattan Avenue, Brooklyn",brooklyn,90
Archie’s Delivery,Deli,90,"457 Graham Avenue, Brooklyn",brooklyn,90
Mister Dips,Mister Taco Mexican Restaurant,86,"111 North 12th Street, Brooklyn",brooklyn,90
Rule Of Thirds,C&L Of East Ocean Restaurant,86,"171 Banker Street, Brooklyn",brooklyn,90
Lou G Siegel,Fu Man Lou Restaurant,86,"58 Dobbin Street, Brooklyn",brooklyn,90
Le Crocodile,Le Fatima Bar & Grill Restaurant,86,"80 Wythe Avenue, Brooklyn",brooklyn,90
Tacos Cholula,Tacos Puebla Restaurant,86,"80-88 North 11th Street, Brooklyn",brooklyn,90
Kinfolk 90,King Wok,56,"90 Wythe Avenue, Brooklyn",brooklyn,90
Mable's Smokehouse & Banquet Hall,Moti's,86,"44 Berry Street, Brooklyn",brooklyn,90
The Whiskey Brooklyn,"Golden Forest Chinese Restaurant, Brooklyn Ny",86,"44 Berry Street, Brooklyn",brooklyn,90
Kent Ale House,Hunan House Chinese Restaurant,86,"51 Kent Avenue, Brooklyn",brooklyn,90
Harvey,Harvest Thai Restaurant,75,"96 Wythe Avenue, Brooklyn",brooklyn,90
The Williamsburg Hotel,The Loft BKNY Restaurant & Lounge,86,"96 Wythe Avenue, Brooklyn",brooklyn,90
Seven Seeds,Seven Stars Chinese Restaurant,86,"96 Wythe Avenue, Brooklyn",brooklyn,90
ACRE,City Acres Market,90,"64 Meserole Avenue, Brooklyn",brooklyn,90
Amami Sushi,Ginpachi Sushi Restaurant,86,"57 Nassau Avenue, Brooklyn",Nassau Ave.,90
Sauvage Wines & Spirits,Uva,90,"905 Lorimer Street, Brooklyn",brooklyn,90
Hungry? Thai,Mekong Thai & Vietnamese Restaurant,86,"77 Norman Avenue, Brooklyn",brooklyn,90
Five Leaves,One Point Five Restaurant,86,"18 Bedford Avenue, Brooklyn",brooklyn,90
The Bedford,The Golden Glass Restaurant,86,"110 Bedford Avenue, Brooklyn",brooklyn,90
Bamonte's,Bamonte's,100,"32 Withers Street, Brooklyn",32 Withers St,90
Ohm,Ohm Deli,90,"642 Lorimer Street Ste A, Brooklyn",brooklyn,90
Jerrys Italian Market inc,Ambrosia Italian and Albanian Restaurant,86,"620 Lorimer Street, Brooklyn",brooklyn,90
Kings County Imperial,Imperial Kitchen Chinese Restaurant,86,"20 Skillman Avenue, Brooklyn",Skillman,90
The Richardson,The Golden Glass Restaurant,86,"451 Graham Avenue, Brooklyn",1 Graham Ave,90
El Diablo Tacos,El Morro Restaurant & Bar,86,"484 Union Avenue, Brooklyn",brooklyn,90
Pheasant,Park Pleasant Deli,79,"445 Graham Avenue, Brooklyn",brooklyn,90
Stumpys Spot,T&G Restaurant Spot,86,"777 Saratoga Avenue, Brooklyn",brooklyn,90
China City,China City,100,"790 Saratoga Avenue, Brooklyn",brooklyn,90
Dominique Knight,DROM,68,"184 Tapscott Street, Brooklyn",brooklyn,90
Crown Fried Chicken Menu Rockaway Ave Brooklyn Near 11212,Crown Fried Chicken,90,"842 Rockaway Avenue, Brooklyn",brooklyn,90
Blendzville Cafe,Cafe 47,86,"5 Sutter Avenue, Brooklyn",brooklyn,90
Happy House,Happy House Seafood Restaurant,90,"1 Sutter Avenue, Brooklyn",brooklyn,90
Pitkin Seafood,Sea,90,"1670 Pitkin Avenue, Brooklyn",brooklyn,90
Sal & Paul's Pizzeria,Sal & Pauls Pizza,89,"1686 Pitkin Avenue, Brooklyn",brooklyn,90
Hasley Soul Food,famous restaurant Chinese food,86,"444 Rockaway Avenue, Brooklyn",brooklyn,90
Loma,Loma restaurant and coffee shop,90,"454 Rockaway Avenue, Brooklyn",54 Rockaway Ave,90
Manaa Soul Food Restaurant,Soul Food Restaurant,95,"478 Rockaway Avenue, Brooklyn",478 Rockaway Ave,90
Dennis Place,Market Place Restaurant,86,"1701 Pitkin Avenue, Brooklyn",brooklyn,90
Shun Fat,Fat Cheng Restaurant,86,"1716 Pitkin Avenue, Brooklyn",brooklyn,90
Big Apple Kitchen,Chang Jiang Kitchen Chinese Restaurant,86,"489 Rockaway Avenue, Brooklyn",brooklyn,90
Crown Grill Chicken and Salad,C B Finger Licking Jamaican and West Indian Restaurant,86,"1719 Pitkin Avenue, Brooklyn",brooklyn,90
Sisters and family Resturant West Indian American and African food,Ghoroa Sweets and Restaurant,86,"1727 Pitkin Avenue, Brooklyn",brooklyn,90
Familia Diana's Farm,Theresa's Polish American Restaurant,86,"1729 Pitkin Avenue, Brooklyn",brooklyn,90
Pier #11,Tony's Pier Restaurant,86,"36 Belmont Avenue, Brooklyn",brooklyn,90
GOOD BROTHERS STEAK & TAKE,Tokyo Steak,86,"110 Osborn Street, Brooklyn",brooklyn,90
Peoples supermaRKET,MK Supermarket Master Food Inc.,86,"163 Osborn Street, Brooklyn",brooklyn,90
Havana Express,Havana,90,"Havana Express, 815 Hutchinson River Parkway, The Bronx","1095 Prospect Ave, Bronx, NY 10459",86
The Waterfront NYC,The Golden Glass Restaurant,86,"500 Hutchinson River Parkway, The Bronx",1045 easter parkway,86
IKKO Hibachi Sushi Asian Bistro,Sushi Ji Restaurant,86,"3938 East Tremont Avenue, The Bronx",196 23 Jamaica Avenue,86
La Parada,La Parada,100,"3830 East Tremont Avenue, The Bronx",196 23 Jamaica Avenue,86
Crosstown Diner,Diner,90,"2880 Bruckner Boulevard, The Bronx",729 Bruckner Blvd,86
Healthy Fresh INC,Fresh Meadows Pizzeria and Restaurant,86,"3432 East Tremont Avenue, The Bronx",196 23 Jamaica Avenue,86
El Paisano Pizza & Pasta,Pizza,90,"3444 East Tremont Avenue, The Bronx",196 23 Jamaica Avenue,86
Wah Yoan,Fuh Wah Restaurant,86,"3486 East Tremont Avenue, The Bronx",196 23 Jamaica Avenue,86
Mama Puebla,Mama’s Coffee Shop & Restaurant,86,"3465 East Tremont Avenue, The Bronx",196 23 Jamaica Avenue,86
Legendary Bar & Grill,Gen,90,"3513 East Tremont Avenue, The Bronx",196 23 Jamaica Avenue,86
Mamajuana Cafe The Bronx,Cafe 47,86,"3233 East Tremont Avenue, The Bronx",196 23 Jamaica Avenue,86
Taqueria Lupita,Mi Barrio Taqueria Restaurant,86,"3550 East Tremont Avenue, The Bronx",196 23 Jamaica Avenue,86
Cousins Pizzeria,La Strada Pizzeria & Restaurant,86,"3579 East Tremont Avenue, The Bronx",196 23 Jamaica Avenue,86
HK Kitchen & Draft House,Chang Jiang Kitchen Chinese Restaurant,86,"3599 East Tremont Avenue, The Bronx",196 23 Jamaica Avenue,86
Casa Restaurant & Lounge,Casa Restaurant & Lounge,100,"3607 East Tremont Avenue, The Bronx",196 23 Jamaica Avenue,86
Cestra's Pizza,Cestra's Pizza,100,"3617 East Tremont Avenue, The Bronx",196 23 Jamaica Avenue,86
Hawaii,Blue Hawaii Restaurant,90,"4112 East Tremont Avenue, The Bronx",196 23 Jamaica Avenue,86
New Green Dragon,Green Dragon,95,"4111 East Tremont Avenue, The Bronx",196 23 Jamaica Avenue,86
Tosca Rooftop Garden Bar,Garden 13 Dairy Restaurant and Pizza,86,"4034 East Tremont Avenue, The Bronx",196 23 Jamaica Avenue,86
The Miles Coffee Bar,The Miles Coffee Bar,100,"4039 East Tremont Avenue, The Bronx",196 23 Jamaica Avenue,86
Muscle Maker Grill,Golden Krust Caribbean Bakery and Grill,86,"4041 East Tremont Avenue, The Bronx",196 23 Jamaica Avenue,86
Tommy's Pizza,Tommy's Pizza,100,"4033 East Tremont Avenue, The Bronx",196 23 Jamaica Avenue,86
The Wicked Wolf,The Golden Glass Restaurant,86,"4029 East Tremont Avenue, The Bronx",196 23 Jamaica Avenue,86
Xing & Hui Linda's Kitchen,Moti's,86,"4006 East Tremont Avenue, The Bronx",196 23 Jamaica Avenue,86
Throgs Neck Fried Chicken,Chicken Festival,86,"4011 East Tremont Avenue, The Bronx",196 23 Jamaica Avenue,86
Patricia's Pizza of Tremont,Patricia's of Tremont,95,"3883 East Tremont Avenue, The Bronx",196 23 Jamaica Avenue,86
Icehouse Café,Ice House Cafe,92,"140 Reynolds Avenue, The Bronx",311 Avenue X,86
Emilio's Pizza,emilio's Pizza,100,"3843 East Tremont Avenue, The Bronx",196 23 Jamaica Avenue,86
Travesias Latin Fusion Cuisine,Amin Indian Cuisine,86,"3834 East Tremont Avenue, The Bronx",196 23 Jamaica Avenue,86
15 Flavors NYC,The NYC Bull - Restaurant & Rotisserie,86,"3813 East Tremont Avenue, The Bronx",196 23 Jamaica Avenue,86
Yamada,Yamada Japanese Restaurant,90,"3811 East Tremont Avenue, The Bronx",196 23 Jamaica Avenue,86
Sugi Sushi,Ginpachi Sushi Restaurant,86,"3799 East Tremont Avenue, The Bronx",196 23 Jamaica Avenue,86
Heat Caribbean Kitchen & Lounge,Ming Hing Kitchen,86,"100-05 Atlantic Avenue, Richmond Hill",100-11,86
Chimi Mundo,El Gran Chimi Deli & Grill,86,"9805 Atlantic Avenue, Ozone Park",196 23 Jamaica Avenue,86
Luigi Pizza,Luigi's Pizza,95,"10402 Atlantic Avenue, Ozone Park",196 23 Jamaica Avenue,86
102 Billiards,Li Li,86,"10214 Jamaica Avenue, Jamaica",Jamaica ave,90
Palace Fried Chicken,China palace chinese restaurant,86,"10402 Jamaica Avenue, Jamaica",Jamaica ave,90
Nando Deli Corp,Deli,90,Richmond Hill,1381 E. Gun Hill Road,86
Tom's,Tom's Restaurant,90,"10410 Jamaica Avenue, Richmond Hill",10410 Jamaica Ave,90
Tlaxcalita La Bella Mexican Restaurant,Restaurant,90,"104-22 Jamaica Avenue, Richmond Hill",Jamaica ave,90
Don Miguel Restaurant Centeoamericano,Restaurant,90,"104-26 Jamaica Avenue, Queens",Jamaica ave,90
El Cafetal Bakery,El Cafetal,90,"10225 Jamaica Avenue, Jamaica",Jamaica ave,90
La Cocina de Alex,La Cocina,90,"102-03 Jamaica Avenue, Queens",102-03,90
Chacha,Ahuachapan Restaurant,75,"8630 102nd Street, Jamaica",Street,90
829 Bar and Restaurant,Restaurant,90,"104-19 Jamaica Avenue, Richmond Hill",Jamaica ave,90
Nutty Sports Bar & Grill,La Kuchara Ecuadorian Restaurant Bar,86,"105-06 Jamaica Avenue, Richmond Hill",105-06 Jamaica Ave,90
El Anzuelo Fino,El Anzuelo Fino,100,"98-01 Jamaica Avenue, Woodhaven",98-01 Jamaica Ave,90
Armando's Pollo Rico,Armando's Pollo Rico,100,"11002 Jamaica Avenue, Jamaica",11002 Jamaica Ave,90
Las Palmitas Deli,Deli,90,"10915 Jamaica Avenue, Richmond Hill",Jamaica ave,90
Tauros Bar Restaurant,Tauros Bar & Restaurant,95,"108-02 Jamaica Avenue, Jamaica",160-02 Jamaica Avenue,90
El Chalaco Peruano,El Coyote Mexican Restaurant,86,"11017 Jamaica Avenue, New York",New York,90
Pollos a la Brasa,Pollos a La Brasa Mario,95,"110-17 Jamaica Avenue, Queens",Jamaica ave,90
Mr. Lin's,Mr. Lin's Chinese,90,"11021 Jamaica Avenue, Jamaica",11021 Jamaica Ave,90
Sultan's Dine,Theresa's Polish American Restaurant,86,"110-23 Jamaica Avenue, New York",New York,90
Fortune Kitchen,Chang Jiang Kitchen Chinese Restaurant,86,"10707 Jamaica Avenue, Jamaica",10707 Jamaica Ave,90
Diaz Grocery,Diaz Grocery,100,"106-15 Jamaica Avenue, Jamaica",Jamaica ave,90
Tasty Shanghai,Shanghai,90,"106-15 Jamaica Avenue, Richmond Hill",Jamaica ave,90
El Gran Canario II,Bar Sol De Quito Restaurant II,86,"11117 Jamaica Avenue, Queens",Jamaica ave,90
Caleta 111,Caleta Restaurant,86,"111-27 Jamaica Avenue, Richmond Hill",Jamaica ave,90
Richi Rich,Rich Restaurant,86,"11019 Atlantic Avenue, Richmond Hill",196 23 Jamaica Avenue,86
El Rancho,El Rancho Deli,90,"105-13 Jamaica Avenue, Jamaica",Jamaica ave,90
Richi Rich Palace,China palace chinese restaurant,86,"11019 Atlantic Avenue, Richmond Hill",196 23 Jamaica Avenue,86
SHAHI grill & gyro HALAL,Halal,90,"9181 111st, Richmond Hill",2 E Gun Hill Rd,86
Two Brothers Halal Gyro,Halal,90,"112-11 Jamaica Avenue, Richmond Hill",Jamaica ave,90
PICADERAS DOMINICANAS EN NEW YORK,New Ho Wah,86,"9517 94th Street fl 2, Ozone Park",Street,90
Clocktower Plaza,Lanueva Plaza Restaurant,86,"92-10 Atlantic Avenue, Queens",37-10 114th St,86
El Viejo Yayo,El Viejo Yayo,100,"97-12 101st Avenue, Jamaica",1st ave.,90
Galleria Pizza,Pizza Pizza,95,"95-20 101st Avenue, New York",New York,90
Pio Pio Dominicano,Pio Pio,90,"103-09 101st Avenue, Ozone Park",1st ave.,90
Marios Pizzeria and restaurant,Pizzeria & Restaurant,95,"102-12 101st Avenue, Ozone Park",1st ave.,90
Casa Parse,Casa,90,"94-09 101st Avenue, Ozone Park",1st ave.,90
El Campeōn De Los Pollos 2 Restaurant,Restaurant,90,Ozone Park,451 Morris Park Ave,86
Homemade Taqueria,Mi Barrio Taqueria Restaurant,86,"94-09 101st Avenue, New York",New York,90
Fratelli Pizzeria,Fratelli Pizzeria & Bakery,90,"27 Seguine Avenue, Staten Island",27 Seguine Ave,90
New Island,New Island Chinese Restaurant,90,"27 Seguine Avenue, Staten Island",27 Seguine Ave,90
Cucumber Sushi & Salad Bar,"Caribbean American Ent. Bar, Lounge & Restaurant",86,"5834 Amboy Road, Staten Island",563 Coney Island Ave,86
Domenico's Pizzeria,Domenick's Pizzeria,95,"5838 Amboy Road, Staten Island",563 Coney Island Ave,86
Finn& Oli,Li Li,86,"5501 Amboy Road, Staten Island",563 Coney Island Ave,86
Saporito Pizza,Pizza Pizza,95,"896 Huguenot Avenue, Staten Island",896 Huguenot Ave,90
Kuzina,Deli - Kulinarija,75,"895 Huguenot Avenue, Staten Island",895 Huguenot Ave,90
Chopsticks House,Hunan House Chinese Restaurant,86,"895 Huguenot Avenue, Staten Island",895 Huguenot Ave,90
Ciro Pizza Cafe,Pizza Pizza,95,"862 Huguenot Avenue, Staten Island",862 Huguenot Ave,90
Amici Brick Oven Pizza,Amici Brick Oven Pizza,100,"6309 Amboy Road, Staten Island",563 Coney Island Ave,86
IL FORNO PIZZERIA,La Strada Pizzeria & Restaurant,86,"6382 Amboy Road, Staten Island",563 Coney Island Ave,86
Supreme Memorials,Taste Supreme Jamaican Restaurant,86,"6395 Amboy Road, Staten Island",563 Coney Island Ave,86
Wall Street Grill,Golden Krust Caribbean Bakery and Grill,86,"128 Pearl Street, New York","New York, New York",95
Killarney Rose,Killarney Rose,100,"127 Pearl Street, New York","New York, New York",95
Haru Sushi,Maru sushi,90,"1 Wall Street, New York","New York, New York",95
Andaz Kitchen & Bar,Bar Sol De Quito Restaurant II,86,"75 Wall Street, New York","New York, New York",95
Tacos Cholula Food Truck,Food Truck,90,"75 Wall Street, New York","New York, New York",95
Wall & Water,Great Wall Restaurant,86,"75 Wall Street, New York","New York, New York",95
Fino,Portofino Restaurant,90,"82 Beaver Street, New York","New York, New York",95
11 Hanover Greek,The Greek Family Restaurant,86,"11 Hanover Square, New York",New York,90
Cafe Arte 2,Arte,90,"75 Wall Street, New York","New York, New York",95
The Little Beet,Little Bandgladesh Restaurant,86,"5 Hanover Square, New York","New York, New York",95
Banh Mi Cart,Mi Barrio Taqueria Restaurant,86,"Hanover Square, New York","New York, New York",95
Luckyim Thai,Lucky,90,"Hanover Square, New York","New York, New York",95
John's Corner Food Truck,Food Truck,90,"7 Hanover Square, New York","New York, New York",95
&pizza - Wall Street,Pizza,90,"63 Wall Street, New York","New York, New York",95
El Vez and Burrito Bar,Ambrosia Italian and Albanian Restaurant,86,"259 Vesey Street, New York","New York, New York",95
Atrio Wine Bar & Restaurant,Restaurant,90,"102 North End Avenue, New York",New York,90
Parm,Parm,100,"250 Vesey Street, New York","New York, New York",95
Pick A Bagel,a taberna Portuguese restaurant,86,"102 North End Avenue, New York",New York,90
Beans & Greens,Bea,90,"245 Murray Street, New York",New York,90
Harry's Italian Murray Street,Moti's,86,"225 Murray Street, New York",New York,90
Wei West,C B Finger Licking Jamaican and West Indian Restaurant,86,"235 Murray Street, New York",New York,90
Battery Place Market,Seafish Market Seafood Restaurant,86,"240 Murray Street, New York",New York,90
P.J. Clarke's,Theresa's Polish American Restaurant,86,"250 Vesey Street, New York","New York, New York",95
Del Frisco's Grille,Theresa's Polish American Restaurant,86,"250 Vesey Street, New York","New York, New York",95
Olive's,Theresa's Polish American Restaurant,86,"225 Liberty Street, New York",225 Liberty St,90
Blue Ribbon Sushi Bar at Hudson Eats,Beef Bar Restaurant牛吧美食坊,86,"225 Liberty Street, New York",225 Liberty St,90
"Blue Ribbon Sushi,Hudson Eats",Blue,90,"230 Vesey Street, New York","New York, New York",95
SKINNYPIZZA,Skinny Pizza,96,"225 Liberty Street, New York",225 Liberty St,90
Hudson Eats,The Shops & Restaurants at Hudson Yards,86,"Brookfield Place, Three World Financial Center, 230 Vesey Street, New York",4417 New Utrecht Ave,86
Mighty Quinn's Barbeque,Theresa's Polish American Restaurant,86,"225 Liberty Street, New York",225 Liberty St,90
Plaza Deli,Plaza Deli,100,"127 John Street, New York","New York, New York",95
Chubby Princess 胖格格,Chubby Burger Chicken & Pizza,86,"200 Water Street, New York","New York, New York",95
Roast Kitchen,Halal Chinese Kitchen,86,"199 Water Street, New York","New York, New York",95
Ch Supercraft Beer & Burgers,Craft,90,New York,New York,100
Cobble & Co.,Hyco Restaurant Supply Co,86,"19 Fulton Street, New York","New York, New York",95
by CHLOE. Seaport District,Fresco by Scotto,86,"181 Front Street, New York","New York, New York",95
Call Me Pasta!,Taste of Dolly's Pizza & Pasta Restaurant,86,"241 Pearl Street, New York","New York, New York",95
Banh Mi Cart,Mi Barrio Taqueria Restaurant,86,Water Street,Water Street,100
Papaya Dog,Salty Dog Bar and Restaurant,86,"50 Fulton Street, New York","New York, New York",95
Little Italy Pizzeria and Deli,Deli,90,"50 Fulton Street, New York","New York, New York",95
10 Corso Como Restaurant & Cafe,Restaurant,90,"200 Front Street, New York","New York, New York",95
Carne Mare,Stella Del Mare Restaurant,86,"89 South Street, New York","New York, New York",95
Il Brigante,Il Miglio Pizza & Italian Restaurant,86,"214 Front Street, New York","New York, New York",95
T. J. Byrnes,J and R Bakery and Restaurant,86,"77 Fulton Street, New York","New York, New York",95
Disney ABC Cafeteria,Clifford Chance Cafeteria-Restaurant Associates,86,"125 West End Avenue, New York",New York,90
PIER i CAFE,Stars Cafe & Restaurant,86,"500 W 70th St On The River at Pier i, New York",New York,90
Olympic Flame Diner,Diner,90,"200 West 60th Street, New York",St 6,90
The Greek Kitchen,The Golden Glass Restaurant,86,"889 10th Avenue, New York","New York, New York",95
Roosevelt Gourmet Deli,Roosevelt Gourmet Deli,100,"460 West 57th Street A, New York",New York,90
Alice's Tea Cup,Cup,90,"102 West 73rd Street, New York",New York,90
Zucker's Bagels & Smoked Fish,Fish,90,"273 Columbus Avenue, New York",New York,90
HARVEST KITCHEN,Chang Jiang Kitchen Chinese Restaurant,86,"269 Columbus Avenue, New York",New York,90
Tenzan Columbus Ave,"Campagnola Restaurant 1382 1St Ave, New York, Ny 10021",86,"285 Columbus Avenue, New York",New York,90
Angaar Classic Indian Cuisine,C B Finger Licking Jamaican and West Indian Restaurant,86,"283 Columbus Avenue, New York",New York,90
TAP NYC,The NYC Bull - Restaurant & Rotisserie,86,"267 Columbus Avenue, New York",New York,90
Sido Falafel & More,Benny's Kosher Pizza Falafel & Dairy Restaurant,86,"267 Columbus Avenue #11, New York",New York,90
Guyer's,Theresa's Polish American Restaurant,86,"286 Columbus Avenue, New York",New York,90
Columbus Gourmet Food,Columbus Gourmet Food,100,"261 Columbus Avenue, New York",61 Columbus Ave,90
The Dakota Bar,Ako,90,"53 West 72nd Street, New York",New York,90
Leyla,Keyla Restaurant & Bar,72,"108 West 74th Street, New York",New York,90
Legend 72,Gen,90,"127 West 72nd Street, New York",New York,90
Lilly's Cocktail and Wine,Ambrosia Italian and Albanian Restaurant,86,"50 West 72nd Street, New York",New York,90
Ella Social,Social Drink and Food,86,"249 Columbus Avenue, New York",New York,90
Pho Shop,O N Coffee Shop Restaurant,86,"141 West 72nd Street, New York",New York,90
Friedmans,Freemans,82,"130 West 72nd Street, New York",New York,90
The Ribbon,The Golden Glass Restaurant,86,"20 West 72nd Street, New York",New York,90
Pasha,Pasha,100,"70 West 71st Street, New York",New York,90
Polpette 71,Cafe 71,86,"71 West 71st Street, New York",New York,90
Big Nick's Pizza & Burgers,Pizza,90,"70 West 71st Street #70, New York",New York,90
Bistro Cassis,Luna Asian Bistro and Japanese Rooftop Restaurant 日本料理,86,"225 Columbus Avenue, New York",New York,90
Bin 71,71 New York Deli & Grocery,86,"237 Columbus Avenue, New York",New York,90
Pomodoro Rosso,Pomodoro Rosso,100,"229 Columbus Avenue, New York",229 Columbus Ave,90
Parm,Parm,100,"235 Columbus Avenue, New York",New York,90
Shalel Lounge,Shalel Lounge,100,"65 West 70th Street, New York",New York,90
Amber,Amber,100,"103 West 70th Street, New York",New York,90
Swagat,Swagat,100,"205 West 29th Street, New York",New York,90
VLife NYC,VLife,90,"348 7th Avenue, New York","New York, New York",95
Sticky’s,Theresa's Polish American Restaurant,86,"370 7th Avenue, New York","New York, New York",95
American Caviar,Theresa's Polish American Restaurant,86,"231 West 29th Street, New York",New York,90
The Triple Crown Ale House,The Triple Crown Ale House & Restaurant,90,"330 7th Avenue, New York","New York, New York",95
Niles,Niles NYC Bar & Restaurant,90,"371 7th Avenue, New York","New York, New York",95
Soup Spot,T&G Restaurant Spot,86,"220 West 31st Street #2, New York",New York,90
B & D Halal Restaurant,halal restaurant,95,"163 West 29th Street B, New York",New York,90
Buona Journata Food Truck,Food Truck,90,"201-203 West 28th Street, New York",New York,90
Mendy's Deli,Deli,90,"61 East 34th Street, New York",New York,90
Masala King,King Chinese Restaurant,86,"64 East 34th Street, New York",New York,90
Franchia Vegan Café,Franchia,90,"12 Park Avenue, New York","New York, New York",95
Cafe Rustico II,Cafe R,90,"62 East 34th Street, New York",New York,90
The Long Hall Pub & Grocery,The Restaurant,86,"58 East 34th Street, New York",New York,90
Bedford on Park,620 on Caton Pizzeria and Restaurant,86,"10 Park Avenue, New York","New York, New York",95
Wolfgang's,Theresa's Polish American Restaurant,86,"4 Park Avenue, New York","New York, New York",95
Tiberias,Iberia Foods,70,"45 East 34th Street, New York",New York,90
Koshe Poke,Poke Restaurant,86,"43 East 34th Street, New York",New York,90
Teriyaki Wok,King Wok Chinese Restaurant,86,"43 East 34th Street, New York",New York,90
Buffalo2go,Buffalo Deli & Grocery,63,"43 East 34th Street, New York",New York,90
Pitopia,Utopia,77,"43 East 34th Street, New York",New York,90
Kosher In Midtown,Simon Sez Kosher Restaurant,86,"43 East 34th Street, New York",New York,90
Eden Wok,Wok Wok,95,"43 East 34th Street, New York",New York,90
Upstate,Star,68,"33 East 33rd Street, New York",New York,90
Open Kitchen,Halal Chinese Kitchen,86,"33 East 33rd Street, New York",New York,90
Mysttik Masaala,Mysttik Masaala (Indian Food Truck),90,"90 Park Avenue, New York","New York, New York",95
The Shakespeare,The Golden Glass Restaurant,86,"24 East 39th Street, New York",New York,90
Park Avenue Tavern,Miller's Ale House - Rego Park,86,"99 Park Avenue, New York","New York, New York",95
Fields Good Chicken,Good Taste Chinese Restaurant,86,"26 East 40th Street, New York",New York,90
Rafiqui's,Rafiqui's Halal Food,90,"100 Park Avenue, New York","New York, New York",95
Taylor St - All Day Cafe - Bryant Park,Stars Cafe & Restaurant,86,"33 East 40th Street, New York",New York,90
Zuma,Montezuma Mexican Restaurant,90,"261 Madison Avenue, New York",New York,90
Rafiqis Food Cart,Food Cart,90,"104 East 40th Street, New York",New York,90
Sweetcatch Poke,Esca,68,"100 Park Avenue, New York","New York, New York",95
Benjamin Steakhouse,Boca Juniors Argentine Steakhouse,86,"52 East 41st Street, New York",New York,90
CAVA,Cava Restaurant,90,"280 Madison Avenue, New York",80 Madison Ave,90
Atto,Malatesta Trattoria,90,"120 East 39th Street, New York",New York,90
Cafe 101,Cafe 101,100,"101 Park Avenue, New York","New York, New York",95
Dill & Parsley,Parm,68,"295 Madison Avenue Ground Floor, New York",New York,90
Moonstruck Diner,Diner,90,"244 Madison Avenue, New York",New York,90
Pronto,Pronto Restaurant,90,"740 Park Avenue, New York","New York, New York",95
Wasey Spot,T&G Restaurant Spot,86,"695 Park Avenue, New York","New York, New York",95
Via Quadronno,Via Restaurant and Bar,86,"25 East 73rd Street, New York",New York,90
East Pole Fish,Fish,90,"964 Lexington Avenue #5023, New York",New York,90
Hunter Delicatessen,'Essen,90,"966 Lexington Avenue # 1, New York",New York,90
New York City Squeeze,New Fulin Kwok Seafood Restaurant,86,"956 Lexington Avenue, New York",New York,90
Caffe Dei Fiori,Caffe Vita Coffee Roasting Co.,86,"973 Lexington Avenue, New York",New York,90
Sette Mezzo,Mezzo Mezzo Restaurant & Comedy,86,"969 Lexington Avenue, New York",New York,90
Caravaggio,Caravaggio,100,"23 East 74th Street, New York",New York,90
Neil's Coffee Shop,Neil's Coffee Shop,100,"961 Lexington Avenue, New York",New York,90
Bella Blu,Blu,90,"967 Lexington Avenue, New York",New York,90
Mariella Pizza,Mariella Pizza,100,"965 Lexington Avenue, New York",New York,90
Brasserie Cognac East,East Far,86,"963 Lexington Avenue, New York",New York,90
Lexgourmet,Lex Gourmet Deli,81,"971 Lexington Avenue, New York",New York,90
Gina La Fornarina,La Strada Pizzeria & Restaurant,86,"1016 Lexington Avenue, New York",New York,90
Flora Bar,El Morro Restaurant & Bar,86,"945 Madison Avenue, New York",New York,90
BLT Prime,PRIME Rooftop Lounge at the Bentley,86,"1032 Lexington Avenue, New York",32 Lexington Ave,90
Paola's Osteria,Theresa's Polish American Restaurant,86,"1246 Madison Avenue, New York",New York,90
Gina La Fornarina,La Strada Pizzeria & Restaurant,86,"26 East 91st Street, New York",New York,90
Lolita's Kitchen & Burger House,Moti's,86,"1364 Lexington Avenue #1, New York",New York,90
Table d'Hôte,D Zion Restaurant,86,"44 East 92nd Street, New York",New York,90
Lex,Lex Restaurant,90,"1370 Lexington Avenue, New York",1370 Lexington Ave,90
Marinara Pizza UES,Marinara Pizza,95,"1376 Lexington Avenue, New York",New York,90
Pic Up Stix,The Mix Up Restaurant,86,"1372 Lexington Avenue, New York",New York,90
Paola's,Paola's Restaurant,90,"1295 Madison Avenue, New York",1295 Madison Avenue,90
Peri Ela,Perp Deli,71,"1361 Lexington Avenue, New York",1361 Lexington Ave,90
Sarabeth's,Sarabeth's East,90,"1295 Madison Avenue, New York",1295 Madison Avenue,90
Eli's Essentials,'Essen,90,"1291 Lexington Avenue, New York",New York,90
Vicolina,Li Li,86,"1302 Madison Avenue, New York",New York,90
Island,Mike's Island Grill Restaurant,90,"1305 Madison Avenue, New York",1305 Madison Ave,90
HUSO,Greenhouse Restaurant,68,"1067 Madison Avenue, New York",New York,90
Sistina,Sistina,100,"24 East 81st Street, New York",New York,90
E.A.T.,A-HO RESTAURANT,86,"1064 Madison Avenue, New York",New York,90
Eli Zabar,Eli's Famous Pizza and Dairy,86,"1064 Madison Avenue, New York",New York,90
Lexington Candy Shop,Loma restaurant and coffee shop,86,"1226 Lexington Avenue, New York",New York,90
Saba's Pizza,Saba's Pizza,100,"1217 Lexington Avenue, New York",New York,90
PortuGrill NYC,The NYC Bull - Restaurant & Rotisserie,86,"1215 Lexington Avenue, New York",New York,90
Columbian Bakery,colombia bakery,90,"1219 Lexington Avenue, New York",New York,90
The New Amity Restaurant,The New Amity Restaurant,100,"1134 Madison Avenue, New York",1134 Madison Ave,90
Dulce Vida Latin Bistro,IKEA Bistro,86,"1219 Lexington Avenue, New York",New York,90
Thai At Lex,Mekong Thai & Vietnamese Restaurant,86,"1244 Lexington Avenue, New York",New York,90
The Simone,The Golden Glass Restaurant,86,"151 East 82nd Street, New York",New York,90
Brodo - Upper East Side,East Far,86,"1246 Lexington Avenue, New York",New York,90
Burger One,One & One,95,"1150 Lexington Avenue #0307, New York",New York,90
Famous Famiglia,Famous Famiglia Pizza,95,"1248 Lexington Avenue #2012, New York",New York,90
Nectar Cafe,Nectar,90,"1022 Madison Avenue #1, New York",1022 Madison Ave,90
Baobab Restaurant,Banoa Restaurant,91,"1235 Fulton Street, Brooklyn",Fulton,90
Dacta Bird Cuisine,Annie Chan's Japanese Cuisine Restaurant,86,"531 Utica Avenue, Brooklyn",brooklyn,90
Sea Kings Steam and Fry Seafood Inc,Food Inc.,90,"519 Utica Avenue, Brooklyn",brooklyn,90
Three Star Juice Lounge,Star,90,"482 Utica Avenue, Brooklyn",brooklyn,90
Island Burger,Mike's Island Grill Restaurant,86,"504 Utica Avenue, Brooklyn",504 Utica Ave,90
Soldier's,Soldier's Restaurant,90,"875 Rutland Road, Brooklyn",Rutland Road,90
Sliver Krust,Golden Krust Caribbean Bakery and Grill,86,"868 Winthrop Street, Brooklyn",brooklyn,90
Zanders Takeout,sanders bakery,69,"455 Utica Avenue, Brooklyn",brooklyn,90
New Garden,New Garden,100,"850 East New York Avenue, Brooklyn",New York,90
Platano Power cerrado,ATA,90,"851 East New York Avenue, Brooklyn",New York,90
Feast Corner,Roti Corner Restaurant,86,"438 Utica Avenue, Brooklyn",brooklyn,90
Metro Market,Seafish Market Seafood Restaurant,86,"438 Utica Avenue, Brooklyn",brooklyn,90
De Hot Pot,Bar Sol De Quito Restaurant II,86,"1127 Washington Avenue, Brooklyn",brooklyn,90
New Peking,New Peking,100,"1137 Washington Avenue, Brooklyn",1137 Washington Ave,90
Kulushkat,Kubus,72,"1137 Washington Avenue, Brooklyn",1137 Washington Ave,90
Amy Thai Bistro,Mekong Thai & Vietnamese Restaurant,86,"545 Flatbush Avenue, Brooklyn",Flatbush ave,90
Jus Fishy,Jus Fishy,100,"555 Flatbush Avenue, Brooklyn",Flatbush ave,90
Flatbush Bagel,Flatbush Halal Restaurant,86,"557 Flatbush Avenue, Brooklyn",Flatbush ave,90
El Patron,El Patron Restaurant & Lounge Inc.,90,"51 Lincoln Road, Brooklyn",brooklyn,90
Ix,Sixo Restaurant,90,"43 Lincoln Road, Brooklyn",brooklyn,90
Gino's Trattoria & Brick Oven Pizza,Gino's Brick Oven Pizza and Trattoria,95,"548 Flatbush Avenue, Brooklyn",Flatbush ave,90
Antojitos del Patron Mexican Snacks,MEXICAN RESTAURANT RESTAURANTE MEXICANO GUATEMALTECO MEXICAN FOOD,86,"52 Lincoln Road, Brooklyn",brooklyn,90
Bay Leaf,Golden Bay Parkway Restaurant Inc,86,"561 Flatbush Avenue #4801, Brooklyn",Flatbush ave,90
Slowloris,Glow,68,"556 Flatbush Avenue, Brooklyn",Flatbush ave,90
Olives Garden,Olive Garden,96,"31 Lincoln Road, Brooklyn",brooklyn,90
Twibar Falafel-Gluten Free,Benny's Kosher Pizza Falafel & Dairy Restaurant,86,"140 Empire Boulevard Suite 2, Brooklyn",brooklyn,90
Burger UrWay la bella pizzeria,Gino's Pizzeria,86,"528 Clarkson Avenue, Brooklyn",brooklyn,90
The Corner Store,Around the Clock 24 Hour Deli (249/The Corner Store),90,"510 Clarkson Avenue, Brooklyn",brooklyn,90
Gyro Qila,"Airways Pizza, Gyro & Restaurant",86,"504 Clarkson Avenue, Brooklyn",brooklyn,90
Taste TeezR Kitchen and Juicery LLC,Taste,90,"598 Clarkson Avenue, Brooklyn",brooklyn,90
Mr King Food Kitchen,Mr King Food Kitchen,100,"579 Albany Avenue, Brooklyn",brooklyn,90
E & F Deil Grocery Corp.,Mexico Jophsua 19 Grocery & Restaurant,86,"570 Albany Avenue, Brooklyn",brooklyn,90
Soul of the Sea,Sea,90,"527 Albany Avenue, Brooklyn",brooklyn,90
Original 167 pizza corp restaurant,Restaurant,90,"171 West 167th Street, The Bronx",167th St.,90
Famous Anthonys Pizzeria,Gino's Pizzeria,86,"171 West 167th Street, The Bronx",167th St.,90
Fine Fare Supermarket Highbridge,Fine Fare,90,"1136 Ogden Avenue, The Bronx",Between 39th and 40th street on 13th Avenue,86
Kenny Fried Chicken,Kennedy Fried Chicken,95,"1216 Ogden Avenue, The Bronx",Between 39th and 40th street on 13th Avenue,86
Hua Zhuo,Chang Hua Restaurant,86,"112 West 168th Street, The Bronx",Street,90
Dong King,King Chinese Restaurant,86,"80 West 165th Street, The Bronx",65th street,90
Wah Yong,Fuh Wah Restaurant,86,"112 West 168th Street, The Bronx",Street,90
Jing Xin,Jing Xin Chinese Restaurant,90,"1023 Ogden Avenue, The Bronx",1023 Ogden Ave,90
Paradise,Paradise Restaurant,90,"1021 Ogden Avenue, The Bronx",1021 Ogden Ave,90
Los Sazones Latino,Sabor Latino Cuchifrito Restaurant,86,"1048 Woodycrest Avenue, The Bronx",196 23 Jamaica Avenue,86
De La Gina,La Strada Pizzeria & Restaurant,86,"155 West 169th Street, The Bronx",9th St,90
Tito's Empanadas & Mas,Theresa's Polish American Restaurant,86,"1221 Jerome Avenue, The Bronx",311 Avenue X,86
Eye Adom,Eye Adom African and American Restaurant,90,"1263 Edward L Grant Highway # B, The Bronx",168-25 B Hillside Ave,86
Jc Green Life Nyc,Green Lake Chinese Restaurant,86,"1343 Ogden Avenue, The Bronx",Between 39th and 40th street on 13th Avenue,86
Justine,Justine Restaurant,90,"28 East 167th Street, The Bronx",167th St.,90
La Cocina Pizza,Pizza Pizza,95,"1381 Ogden Avenue, The Bronx",1381 Ogden Ave,90
Family Chef,Happy Family Restaurant,86,"1381 Ogden Avenue, The Bronx",1381 Ogden Ave,90
Phoenix Bar & Restaurant,Restaurant,90,"1404 Ogden Avenue, The Bronx",Between 39th and 40th street on 13th Avenue,86
Johnny's Fried Chicken,Theresa's Polish American Restaurant,86,"1350 Shakespeare Avenue #1, The Bronx",1 Worlds Fair Marina,86
No. 1 China Garden Kitchen,China Garden,90,"1349 Edward L Grant Highway, The Bronx",943 ave. l,86
Benny Uno,Benny's Kosher Pizza Falafel & Dairy Restaurant,86,"1416 Ogden Avenue, The Bronx",Between 39th and 40th street on 13th Avenue,86
Bestia Kitchen,Halal Chinese Kitchen,86,"1353 Edward L Grant Highway, The Bronx",943 ave. l,86
Delicias del Atlantico,Delicia,90,"1439 Edward L Grant Highway, The Bronx",943 ave. l,86
El Nuevo Patio,Patio,90,"1388 Edward L Grant Highway, The Bronx",943 ave. l,86
Chimi Luisa,El Gran Chimi Deli & Grill,86,"2338 Amsterdam Avenue, New York",Amsterdam avenue,90
Nelly’s chicken pizza,Pizza & Chicken,95,"2236 Amsterdam Avenue, New York",Amsterdam avenue,90
Татьяна гриль,D&D 2,28,"500 Brightwater Court, Brooklyn",brooklyn,90
Tatiana Grill,Golden Krust Caribbean Bakery and Grill,86,"3145 Brighton 4th Street, Brooklyn",Brighton 4th St,90
Little Georgia,Little Bandgladesh Restaurant,86,"3089 Brighton 6th Street, Brooklyn",brooklyn,90
Euroasia Cafe,Stars Cafe & Restaurant,86,"602 Brighton Beach Avenue, Brooklyn",brooklyn,90
Home Made Cooking Cafe,Cafe 47,86,"504 Brighton Beach Avenue, Brooklyn",brooklyn,90
Home Made Cooking Cafe,Cafe 47,86,"504 Brighton Beach Avenue, Brooklyn",brooklyn,90
Beyti Turkish Kebab,Istanbul Turkish Fast Food & Restaurant,86,"414 Brighton Beach Avenue, Brooklyn",brooklyn,90
Palace Fried Chicken,China palace chinese restaurant,86,"523 Brighton Beach Avenue # 1, Brooklyn",brooklyn,90
Skovorodka,Koda,68,"615 Brighton Beach Avenue, Brooklyn",615 Brighton Beach Ave,90
Stop One Deli & Grill,Deli,90,"513 Brighton Beach Avenue, Brooklyn",brooklyn,90
Masal Express,Cam Tak Express Restaurant,86,"601 Brighton Beach Avenue, Brooklyn",brooklyn,90
Bay Shish Kebab,Golden Bay Parkway Restaurant Inc,86,"601 Brighton Beach Avenue, Brooklyn",brooklyn,90
Sammay’s Halal Food Truck,Halal Food Food Truck,95,"Coney Island Avenue, Brooklyn",brooklyn,90
Ocean View Cafe,Stars Cafe & Restaurant,86,"290 Brighton Beach Avenue A, Brooklyn",brooklyn,90
Elza's Fancy Food,Elza Fancy Food,95,"3071 Brighton 4th Street, Brooklyn",Brighton 4th St,90
Cafe At Your Mother-in-Law,Cafe At Your Mother-in-Law,100,"3071 Brighton 4th Street, Brooklyn",Brighton 4th St,90
Guest House,Hunan House Chinese Restaurant,86,"282 Brighton Beach Avenue, Brooklyn",brooklyn,90
Varenichnaya,Maya,68,"3086 Brighton 2nd Street, Brooklyn",brooklyn,90
Papas Fried Chicken And Pizza Inc,Pizza,90,Brooklyn,brooklyn,100
Neighborhood Gourmet Food,Surf Neighborhood Gourmet Food,95,"2909 Surf Avenue, Brooklyn",brooklyn,90
Oriental Palace Kitchen,Chang Jiang Kitchen Chinese Restaurant,86,"3018 Mermaid Avenue, Brooklyn",brooklyn,90
Gyro Qila,"Airways Pizza, Gyro & Restaurant",86,"3017 Mermaid Avenue, Brooklyn",brooklyn,90
Leo's 28,Theresa's Polish American Restaurant,86,"2726 Mermaid Avenue, Brooklyn",brooklyn,90
East Far,East Far,100,"2406 Mermaid Avenue, Brooklyn",2406 Mermaid Ave,90
American Pizza &Wings,Pizza,90,"2115 Surf Avenue, Brooklyn",brooklyn,90
Pizza On The Run,Pizza On The Run,100,"1627 Mermaid Avenue, Brooklyn",brooklyn,90
Leanly,Lealy Super Deli Grocery Store,75,"1627 Mermaid Avenue, Brooklyn",brooklyn,90
Mama Irene Molcajete,Mama’s Coffee Shop & Restaurant,86,"1609 Mermaid Avenue, Brooklyn",brooklyn,90
Footprints Cafe,Print,90,"1521 Surf Avenue, Brooklyn",brooklyn,90
Famous Rotisserie And Grill,Taipan Fusion Restaurant and Hookah Lounge,86,"1525 Mermaid Avenue, Brooklyn",brooklyn,90
"Китайски ресторант ""Известна ротисри и грил""",K <3 Q,34,"1525 Mermaid Avenue, Brooklyn",brooklyn,90
Nona's Pizza,Nona's Pizza,100,"6100 Riverdale Avenue, The Bronx",6100 Riverdale Ave,90
Ember by Smokey Joe,The Mark Restaurant by Jean-Georges,86,"5693 Riverdale Avenue, The Bronx",196 23 Jamaica Avenue,86
The Pizza Block,Pizza Pizza,95,"5677 Riverdale Avenue, The Bronx",5677 Riverdale Ave,90
Riverdale Steak House,Tokyo Steak,86,"5700 Riverdale Avenue, The Bronx",196 23 Jamaica Avenue,86
Carlos and Gabby's,Ghoroa Sweets and Restaurant,86,"5685 Riverdale Avenue, The Bronx",196 23 Jamaica Avenue,86
Madison's,MTA Bus - Madison St & Jefferson St (M22),90,"5686 Riverdale Avenue, The Bronx",196 23 Jamaica Avenue,86
Yukka,Yuka Japanese Restaurant,72,"5684 Riverdale Avenue, The Bronx",196 23 Jamaica Avenue,86
Addeo's,Addeo's Riverdale Pizzeria,90,"5654 Riverdale Avenue, The Bronx",5654 Riverdale Ave,90
Golden Phoenix,Golden Phoenix Chinese Restaurant,90,"Golden Phoenix, 5646 Riverdale Avenue, The Bronx",5646 Riverdale Ave,90
Tokyo House,Tokyo House,100,"5648 Riverdale Avenue, The Bronx",5648 Riverdale Ave,90
Dino's,Dino's Pizza and Grill,90,"5660 Mosholu Avenue #2411, The Bronx",5660 Mosholu Ave,90
New China Restaurant,New China Restaurant,100,"5690 Mosholu Avenue, The Bronx",5690 Mosholu Ave,90
New King's Wok Kitchen,KING'S WOK,90,"6669 Broadway, The Bronx",Broadway,90
Riverdale Pie Guys,Riverdale Garden Restaurant & Lounge,86,"2206, 5784 Mosholu Avenue, The Bronx",5784 Mosholu Ave,90
Frida Tacos,Tacos Puebla Restaurant,86,"5786 Mosholu Avenue, The Bronx",311 Avenue X,86
Barbecue Pit,Arte,68,"2206, 5788 Mosholu Avenue, The Bronx",196 23 Jamaica Avenue,86
Asian Tokyo,Yang No. 1 Asian Restaurant,86,"4685 Manhattan College Parkway, The Bronx",1045 easter parkway,86
Santa Fe,Santa Fe Grill & Bar,90,"6025 Broadway, The Bronx",6025 Broadway,90
Jake’s Steakhouse,Duke's Steakhouse,88,"6031 Broadway, The Bronx",Broadway,90
Estrellita Poblana Taqueria Express,Estrellita Poblana,90,"5975 Broadway, The Bronx",5975 Broadway,90
Broadway Joe's Pizza,Broadway Joe's Pizza,100,"5985 Broadway, The Bronx",85 Broadway,90
Claudy's Kitchen,Theresa's Polish American Restaurant,86,"5981 Broadway, The Bronx",Broadway,90
The Last Stop,The Golden Glass Restaurant,86,"5977 Broadway, The Bronx",Broadway,90
Pizzeria Supreme,Pizza Supreme,90,"5959 Broadway Avenue Commercial Space #4, The Bronx",5959 Broadway,90
Tortoise & Hare,Orso,68,"6115 Broadway, The Bronx",115 Broadway,90
Majestic gourmet deli,Deli,90,"6119 Broadway, The Bronx",Broadway,90
An Beal Bocht Cafe,Bea,90,"445 West 238th Street, The Bronx",38th St,90
Goodfellas,GoodFellas Pizza Inc.,90,"3661 Waldo Avenue, The Bronx",3661 Waldo Ave,90
Yokohama,Yokohama,100,"438 West 238th Street, The Bronx",38 w,90
A taste of the palace,Taste,90,"436 West 238th Street, The Bronx",38th St,90
New Riverdale Gourmet Deli,New Riverdale Deli,95,"452 West 238th Street, The Bronx",38th St,90
Downey's Bar & Grill,Theresa's Polish American Restaurant,86,"5790 Mosholu Avenue, The Bronx",311 Avenue X,86
Bronx Burger House,Hunan House Chinese Restaurant,86,"5816 Mosholu Avenue, The Bronx",311 Avenue X,86
Liebman’s Deli,Deli,90,"552 West 235th Street, The Bronx",Street,90
Pizza Chef,Pizza Pizza,95,"564 West 235th Street, The Bronx",Street,90
Palace of Japan,C&L Of East Ocean Restaurant,86,"3505 Johnson Avenue, The Bronx",311 Avenue X,86
Metate Authentic,PARIS Authentic Vietnamese Restaurant,86,"3515 Johnson Avenue, The Bronx",311 Avenue X,86
Bella Notte,Ott,90,"3524 Johnson Avenue, The Bronx",311 Avenue X,86
Bagel Corner,Roti Corner Restaurant,86,"581 West 235th Street, The Bronx",Street,90
Moon Star Grill Restaurant,Star,90,"3519-25 Johnson Avenue, The Bronx",25-25 Parsons Blvd,86
Aoyu Sushi,Ginpachi Sushi Restaurant,86,"3532 Johnson Avenue, The Bronx",311 Avenue X,86
Blue Bay Restaurant,blue bay restaurant,100,"3533 Johnson Avenue, The Bronx",311 Avenue X,86
Cumin,Conca Cucina Italian Restaurant,72,"3549 Johnson Avenue, The Bronx",311 Avenue X,86
Menchie's Frozen Yogurt,Theresa's Polish American Restaurant,86,"3555 Johnson Avenue, The Bronx",311 Avenue X,86
Cocina Chente,Cocina Latina Restaurant Corp,86,"3535 Riverdale Avenue, The Bronx",196 23 Jamaica Avenue,86
The Hill Bistro,The Golden Glass Restaurant,86,"3541 Riverdale Avenue, The Bronx",196 23 Jamaica Avenue,86
Tiny's Diner,Diner,90,"3603 Riverdale Avenue, The Bronx",196 23 Jamaica Avenue,86
Sea Wind new,Sea,90,"3411 Irwin Avenue, The Bronx",Between 39th and 40th street on 13th Avenue,86
Blackstone Bar & Grill,La Kuchara Ecuadorian Restaurant Bar,86,"3713 Riverdale Avenue, The Bronx",196 23 Jamaica Avenue,86
Kai Fan,Fu Fan Restaurant,86,"3717 Riverdale Avenue, The Bronx",196 23 Jamaica Avenue,86
Greek Express,Cam Tak Express Restaurant,86,"3733 Riverdale Avenue, The Bronx",196 23 Jamaica Avenue,86
Tibbett Diner,Diner,90,"3033 Tibbett Avenue, The Bronx",311 Avenue X,86
taste & sabor,Taste,90,"318 West 231st Street, The Bronx",31st Street,90
Riverdale indian cuisine,Annie Chan's Japanese Cuisine Restaurant,86,"308 West 231st Street, The Bronx",31st Street,90
Golden Gate,Golden Gate Chinese Restaurant,90,"300 West 231st Street, The Bronx",31st Street,90
Pick Up Six,The Mix Up Restaurant,86,"221 West 230th Street, The Bronx",30th St,90
Cafeccino,Cafeccino Bakery,90,"269 West 231st Street, The Bronx",31st Street,90
Mi Lindo San Miguelito,Mi Candileja,86,"257 West 231st Street, The Bronx",31st Street,90
El Gallito,El Morro Restaurant & Bar,86,"219 West 230th Street, The Bronx",30th St,90
Golden City,Golden City Chinese Restaurant,90,"238 West 231st Street, The Bronx",38 w,90
Sam's Pizza,Sam's Pizza,100,"232 West 231st Street, The Bronx",31st Street,90
Bunny Deli's Cold Cut City,Deli,90,"228 West 231st Street, The Bronx",31st Street,90
Parrilla Latina,Cocina Latina Restaurant Corp,86,"5523 Broadway, The Bronx",Broadway,90
Pioneer Restaurant-Chinese Food,Chinese Food Restaurant,95,"223 West 231st Street, The Bronx",31st Street,90
John's Fried Chicken,Theresa's Polish American Restaurant,86,"5225 Broadway, The Bronx",5225 Broadway,90
Delicious Delights juice & crepes,Community Food & Juice,86,"206 West 231st Street, The Bronx",31st Street,90
Salvatore's,Theresa's Polish American Restaurant,86,"3738 Riverdale Avenue, The Bronx",196 23 Jamaica Avenue,86
Yo-Burger,GO Burger Truck,86,"3726 Riverdale Avenue, The Bronx",196 23 Jamaica Avenue,86
Pizza Plus,Pizza Plus,100,"3718 Riverdale Avenue, The Bronx",196 23 Jamaica Avenue,86
Greek Xpress,The Greek Family Restaurant,86,"263 Prospect Park West, Brooklyn",brooklyn,90
Joe's Pizzeria,Joe's Pizzeria,100,"259 Prospect Park West, Brooklyn",brooklyn,90
Elora’s,Elora's Restaurant,90,"272 Prospect Park West, Brooklyn",272 Prospect Park W,90
A8 Pan Asian Vegan Cuisine,Annie Chan's Japanese Cuisine Restaurant,86,"268 Prospect Park West, Brooklyn",268 Prospect Park W,90
Coco Thai,Mekong Thai & Vietnamese Restaurant,86,"268 Prospect Park West, Brooklyn",268 Prospect Park W,90
AKO Asian,Ako,90,"268 Prospect Park West, Brooklyn",268 Prospect Park W,90
Bedawi Cafe,Stars Cafe & Restaurant,86,"266 Prospect Park West, Brooklyn",brooklyn,90
212 Burgers,"Kennedy's Fried Chicken, Pizza & Burgers",86,"252 Prospect Park West, Brooklyn",brooklyn,90
Krupa Grocery,Las Banderas Grocery & Restaurant,86,"231 Prospect Park West, Brooklyn",brooklyn,90
The Sicilian,The Golden Glass Restaurant,86,"229 Prospect Park West, Brooklyn",brooklyn,90
Terrace Bagels,Broadway Lounge & Terrace,86,"222 &, 222A Prospect Park West",Prospect Park West,90
Windsor Cafe,Stars Cafe & Restaurant,86,"220 Prospect Park West, Brooklyn",brooklyn,90
Number One Garden,Garden 13 Dairy Restaurant and Pizza,86,"221 Prospect Park West, Brooklyn",brooklyn,90
Sushi Yu,Sushi Yu II,95,"214 Prospect Park West, Brooklyn",brooklyn,90
East Wind Snack Shop,East Dynasty Chinese Restaurant,86,"471 16th Street, Brooklyn",brooklyn,90
Giovanni's Brooklyn Eats,Giovanni's,90,"1657 8th Avenue, Brooklyn",brooklyn,90
Della,L'arte Della Pizza,90,"1238 Prospect Avenue, Brooklyn",brooklyn,90
The Double Windsor,The Golden Glass Restaurant,86,"210 Prospect Park West, Brooklyn",brooklyn,90
The Deck,The Golden Glass Restaurant,86,"1233 Prospect Avenue, Brooklyn",brooklyn,90
Ten Japanese Cuisine,Ten Japanese Cuisine,100,"440 7th Avenue, Brooklyn",440 7th Ave,90
Joy Kitchen,Halal Chinese Kitchen,86,"497 7th Avenue A, Brooklyn",7th Ave,90
Sawasde,ASEA,68,"359 McDonald Avenue, Brooklyn",brooklyn,90
Wing Hua II,Bar Sol De Quito Restaurant II,86,"223 Church Avenue #3919, Brooklyn",brooklyn,90
Halal Xpress Chinese Kitchen,Halal Chinese Kitchen,95,"221 Church Avenue, Brooklyn",brooklyn,90
Soho Cafe & Grill,Cafe 47,86,"215 Church Avenue, Brooklyn",brooklyn,90
Korner Pizza,Korner Pizza,100,"226 Church Avenue # 1, Brooklyn",226 Church Ave,90
Mr. Tong,Very Tong Seafood Restaurant,86,"2926 Fort Hamilton Parkway, Brooklyn",brooklyn,90
To Be Thai,Mekong Thai & Vietnamese Restaurant,86,"126 Beverley Road, Brooklyn",brooklyn,90
468 Deli & Grill,Deli & Grill,95,"468 McDonald Avenue, Brooklyn",brooklyn,90
Batata pita bar,ATA,90,"3021 Fort Hamilton Parkway, Brooklyn",brooklyn,90
Tacos el Chicken Food Truck,Food Truck,90,"120 Beverley Road, Brooklyn",brooklyn,90
Hamilton's,Theresa's Polish American Restaurant,86,"2826 Fort Hamilton Parkway, Brooklyn",brooklyn,90
Stang Thai,TANG,90,"3019 Fort Hamilton Parkway, Brooklyn",brooklyn,90
Nourish Thai,Nourish Thai Food Oasis,90,"637A Vanderbilt Avenue, Brooklyn",brooklyn,90
Maya Taqueria,Maya,90,"637 Vanderbilt Avenue, Brooklyn",brooklyn,90
Mumbai Place,Market Place Restaurant,86,"655 Vanderbilt Avenue #3829, Brooklyn",brooklyn,90
Mitchell's Soul Food,Mitchell's Soul Food,100,"617 Vanderbilt Avenue A, Brooklyn",brooklyn,90
American Vegan,Theresa's Polish American Restaurant,86,"612 Vanderbilt Avenue, Brooklyn",brooklyn,90
Faun,La Asuncion Mexican Restaurant,68,"606 Vanderbilt Avenue, Brooklyn",brooklyn,90
Amorina Cucina Rustica,Vittorio Cucina Regionale Italiana Restaurant,86,"624 Vanderbilt Avenue, Brooklyn",brooklyn,90
Zaytoons,Anton's,67,"594 Vanderbilt Avenue, Brooklyn",brooklyn,90
Branded Saloon,Branded Restaurants USA,86,"603 Vanderbilt Avenue, Brooklyn",brooklyn,90
White Tiger,White Street Restaurant and Bar,86,"601 Vanderbilt Avenue, Brooklyn",brooklyn,90
Inaka Asian Cuisine,Annie Chan's Japanese Cuisine Restaurant,86,"597 Vanderbilt Avenue, Brooklyn",brooklyn,90
Nimbooda,Koda,68,"664 Washington Avenue, Brooklyn",664 Washington Ave,90
Underhill Brooklyn Greek Eatery,Estihana Brooklyn,86,"760 Dean Street, Brooklyn",brooklyn,90
L.A. Burrito,C&L Of East Ocean Restaurant,86,"43 Underhill Avenue, Brooklyn",43 Underhill Ave,90
Cataldo's,ATA,90,"554 Vanderbilt Avenue #1, Brooklyn",brooklyn,90
Alta Calidad,Alta,90,"552 Vanderbilt Avenue, Brooklyn",552 Vanderbilt Ave,90
Pancho's Mexican Cocina,Theresa's Polish American Restaurant,86,"785 Atlantic Avenue, Brooklyn",brooklyn,90
Mandalay,Ambrosia Italian and Albanian Restaurant,68,"640 Dean Street, Brooklyn",brooklyn,90
Dean Organic Market,Seafish Market Seafood Restaurant,86,"486 Dean Street, Brooklyn",brooklyn,90
"Ciao, Gloria",Gloria's Restaurant,86,"550 Vanderbilt Avenue, Brooklyn",brooklyn,90
Chick P,D&P Restaurant,86,"490 Bergen Street, Brooklyn",brooklyn,90
Bergen Pizza & Restaurant,Restaurant,90,"67 6th Avenue, New York","New York, New York",95
Poke Zone,Poke Restaurant,86,"67 1/2 6th Avenue, Brooklyn",brooklyn,90
Chuko,Chuck's Pizzeria & Restaurant,72,"565 Vanderbilt Avenue, Brooklyn",brooklyn,90
Brooklyn's Homeslice Pizza,S&S Brooklyn Pizza,95,"567 Vanderbilt Avenue, Brooklyn",brooklyn,90
PokéBowl Station + Mars Tea,Food Station,86,"237 Flatbush Avenue, Brooklyn",Flatbush ave,90
Brooklyn Burger,"Golden Forest Chinese Restaurant, Brooklyn Ny",86,"620 Atlantic Avenue, Brooklyn",brooklyn,90
Hungry Ghost,OTB,60,"253 Flatbush Avenue, Brooklyn",Flatbush ave,90
de Islands,Bar Sol De Quito Restaurant II,86,"8203 Flatlands Avenue, Brooklyn",brooklyn,90
Kreyol Flavor,Kreyol Flavor Bakery & Restaurant,90,"8221 Flatlands Avenue, Brooklyn",brooklyn,90
Mei Wei,Mei Wei Restaurant,90,"765 East 82nd Street, Brooklyn",brooklyn,90
Lucky Chen,Lucky Chen,100,"8023 Flatlands Avenue, Brooklyn",brooklyn,90
Peppa’s Restaurant,Restaurant,90,"8021 Flatlands Avenue, Brooklyn",8021 Flatlands Ave,90
YARD86,H-Yard Gourmet Deli,68,"921 East 86th Street, Brooklyn",brooklyn,90
Peaceful,Peaceful Chinese Restaurant,90,"7902 Flatlands Avenue, Brooklyn",7902 Flatlands Ave,90
Nicky's,Nicky's Pizza & Ristorante,90,"766 East 80th Street, Brooklyn",brooklyn,90
I Land Fish Meat & Eatery,Fish,90,"7911 Flatlands Avenue, Brooklyn",brooklyn,90
Twisted Rootz,DROM,68,"7905 Flatlands Avenue, Brooklyn",brooklyn,90
Verdure Inc,Sunshine Restaurant Food & Catering Inc,86,"7804 Flatlands Avenue, Brooklyn",brooklyn,90
Panko Express,Cam Tak Express Restaurant,86,"7802 Flatlands Avenue, Brooklyn",brooklyn,90
Stop & Chill,One Stop Restaurant Supply Corp.,86,"924 Remsen Avenue, Brooklyn",924 Remsen Ave,90
JZ's FishWing,Fish,90,"870 Remsen Avenue, Brooklyn",Remsen Avenue,90
Sallys Carribean Cuisine,Bea,90,"8719 Avenue D, Brooklyn",brooklyn,90
Sally's Fish and Things Canarsie,Fish,90,"8719 Avenue D, Brooklyn",brooklyn,90
Chopsticks,Golden chopsticks,90,"884 Remsen Avenue, Brooklyn",884 Remsen Ave,90
Atlantis Diner,Diner,90,"8600 Foster Avenue, Brooklyn",brooklyn,90
"Tamara Caribbean Kitchen, Inc",Ming Hing Kitchen,86,"8913 Glenwood Road, Brooklyn",brooklyn,90
Rockaway Gourmet Deli,Rockaway Gourmet Deli,100,"9627 Farragut Road, Brooklyn",brooklyn,90
Yummy Yummy,Yummy Yummy,100,"1349 Rockaway Parkway, Brooklyn",brooklyn,90
Kennedys Fried Chicken,Kennedy Fried Chicken,98,"9004 Avenue B, Brooklyn",brooklyn,90
Blue Gate Lounge,Blue,90,"1370 Rockaway Parkway, Brooklyn",brooklyn,90
Mandeville's Cuisine Inc,Theresa's Polish American Restaurant,86,"9802 Foster Avenue, Brooklyn",brooklyn,90
Steph's Cake Shop,Theresa's Polish American Restaurant,86,"1392 Rockaway Parkway, Brooklyn",brooklyn,90
New Food King,New Food King,100,"1460 Rockaway Parkway, Brooklyn",brooklyn,90
Blue Canarsie Fish,Blue,90,"1433 Rockaway Parkway, Brooklyn",brooklyn,90
Tastee Pattee,Taste,90,"1431 Rockaway Parkway, Brooklyn",brooklyn,90
Delicious,Ema's Delicious Restaurant,90,"1584 Rockaway Parkway, Brooklyn",brooklyn,90
1430 Food Corp 1,Food Corp,90,"1430 Rockaway Parkway, Brooklyn",1430 Rockaway Parkway,95
Armando's Pizza,Armando's Pizza,100,"1413 Rockaway Parkway, Brooklyn",brooklyn,90
Fix U Plate,U Like Chinese Restaurant,86,"1412 Rockaway Parkway, Brooklyn",brooklyn,90
Mr Grillooo,Mr Triunfel Restaurant,86,"1401 Rockaway Parkway, Brooklyn",brooklyn,90
Gyro Fried Chicken,"Airways Pizza, Gyro & Restaurant",86,"1401 Rockaway Parkway, Brooklyn",brooklyn,90
Tasty Delicious,tasty delicious,100,"1397 Rockaway Parkway, Brooklyn",brooklyn,90
Buona Journata Halal Food Truck,Halal Food Food Truck,95,"2891-2925 Bedford Avenue, Brooklyn",brooklyn,90
Napoli Pizza,Napoli pizza,100,"2270 Nostrand Avenue, Brooklyn",Nostrand Avenue,90
Anna's Cafe,Theresa's Polish American Restaurant,86,"2925 Avenue I, Brooklyn",5 ave,90
Di Di,Di Di Chinese Restaurant,90,"2318 Nostrand Avenue, Brooklyn",Nostrand Avenue,90
Subsational,National,74,"2901 Campus Road, Brooklyn",brooklyn,90
Ovi's Place,Theresa's Polish American Restaurant,86,"2925 Avenue H, Brooklyn",5 ave,90
Brooklyn’s Best Eats,Theresa's Polish American Restaurant,86,"23 Hillel Place, Brooklyn",brooklyn,90
Spoons,Spoons Restaurant,90,"2923 Avenue J, Brooklyn",brooklyn,90
Kaff's Bake Shop,Kaff's Bake Shop,100,"2914 Avenue J, Brooklyn",brooklyn,90
Bash Pizza,Bash Pizza,100,"3003 Avenue J, Brooklyn",brooklyn,90
Bahar Masala Restaurant,Bahar,90,"984 Coney Island Avenue, Brooklyn",984 Coney Island Ave,90
Bahar Kebab House,Bahar,90,"984 Coney Island Avenue, Brooklyn",984 Coney Island Ave,90
The Grounds Of Brooklyn,"Golden Forest Chinese Restaurant, Brooklyn Ny",86,"1117 Newkirk Avenue, Brooklyn",brooklyn,90
Milk And Honey Cafe,Ambrosia Italian and Albanian Restaurant,86,"1119 Newkirk Avenue, Brooklyn",brooklyn,90
New Nice China Town,New Fulin Kwok Seafood Restaurant,86,"1411 Foster Avenue, Brooklyn",brooklyn,90
Jalsa - Grill & Gravy,Golden Krust Caribbean Bakery and Grill,86,"964 Coney Island Avenue, Brooklyn",964 Coney Island Ave,90
Atlas Steakhouse,Boca Juniors Argentine Steakhouse,86,"943 Coney Island Avenue, Brooklyn",brooklyn,90
De Bamboo Express,De Bamboo Express Restaurant & Bakery,90,"772 Flatbush Avenue A, Brooklyn",Flatbush ave,90
Zen Vegetarian House,Hunan House Chinese Restaurant,86,"773 Flatbush Avenue, Brooklyn",Flatbush ave,90
Melany,Melany Restaurant,90,"785 Flatbush Avenue, Brooklyn",785 Flatbush Ave,90
Tacos El Dorado,El Dorado,90,"763A Flatbush Avenue, Brooklyn",Flatbush ave,90
Green Lake,Green Lake Chinese Restaurant,90,"795 Flatbush Avenue #1903, Brooklyn",795 Flatbush Ave,90
MangoSeed,MangoSeed Restaurant,90,"757 Flatbush Avenue, Brooklyn",Flatbush ave,90
ZuriLee,ZuriLee Pizza Bar,90,"755 Flatbush Avenue, Brooklyn",Flatbush ave,90
MR KING Asian Fusion,Taipan Fusion Restaurant and Hookah Lounge,86,"803 Flatbush Avenue, Brooklyn",Flatbush ave,90
Green Lake Express,Green Lake Chinese Restaurant,86,"803 Flatbush Avenue, Brooklyn",Flatbush ave,90
Atomic Wings Brooklyn,"Golden Forest Chinese Restaurant, Brooklyn Ny",86,"188 Parkside Avenue #4, Brooklyn",brooklyn,90
Peppa's,Chef Peppa's Pot Pop-up Restaurant,90,"738 Flatbush Avenue, Brooklyn",Flatbush ave,90
Parkside Coffee Shop,Parkside,90,"188 Parkside Avenue, Brooklyn",brooklyn,90
Ali’s roti shop,Theresa's Polish American Restaurant,86,"825 Flatbush Avenue, Brooklyn",Flatbush ave,90
Gino's Pizzeria,Gino's Pizzeria,100,"831 Flatbush Avenue, Brooklyn",Flatbush ave,90
Island Grill Cafe,Cafe 47,86,"5501 Glenwood Road, Brooklyn",brooklyn,90
Seabreeze Food,Seabreeze Food,100,"1562 Ralph Avenue, Brooklyn",1562,90
New Fu Sing Restaurant,New Fu Sing Restaurant,100,"1554 Ralph Avenue, Brooklyn",brooklyn,90
Fu xing Chinese restuant,Fu Ying Chinese Restaurant,92,"1554 Ralph Avenue, Brooklyn",brooklyn,90
Ice Queen Italian Ice,Queen,90,"1633 Utica Avenue, Brooklyn",brooklyn,90
Kim Fai,Kim Fai Restaurant,90,"1628 Utica Avenue, Brooklyn",1628 Utica Ave,90
Scoops Kosher,Simon Sez Kosher Restaurant,86,"3006 Avenue L, Brooklyn",brooklyn,90
That Sushi Spot,Ginpachi Sushi Restaurant,86,"3004 Avenue L, Brooklyn",brooklyn,90
Armon Hall,Zaffran Party Hall & restaurant,86,"2603 Nostrand Avenue, Brooklyn",Nostrand Avenue,90
Palace Cafe,Stars Cafe & Restaurant,86,"2603 Nostrand Avenue, Brooklyn",Nostrand Avenue,90
Pizza Express - Kosher,B & S Kosher Pizza Express,95,"3005 Avenue K, Brooklyn",5 ave,90
Los Tacos,Los Pollitos III,86,"2462 Nostrand Avenue, Brooklyn",Nostrand Avenue,90
Lucky Garden,Lucky,90,"2460 Nostrand Avenue, Brooklyn",Nostrand Avenue,90
The Canteen,The Golden Glass Restaurant,86,"2436 Nostrand Avenue, Brooklyn",Nostrand Avenue,90
Best Wok,Wok Wok,95,"1820 Flatbush Avenue, Brooklyn",Flatbush ave,90
Sing Hua Kitchen II,Sing Sing Kitchen,95,"1842 Flatbush Avenue, Brooklyn",Flatbush ave,90
Casa Blanca Bar & Grill,Casa,90,"1810 Flatbush Avenue, Brooklyn",Flatbush ave,90
New Top China,New China,95,"1774 Flatbush Avenue, Brooklyn",Flatbush ave,90
Top Taco,Top Class Restaurant,86,"1774 Flatbush Avenue, Brooklyn",Flatbush ave,90
Sansimian,Sansimian Jamaican West Indian Restaurant,90,"1827 Flatbush Avenue, Brooklyn",Flatbush ave,90
Tony's Health Food,Tony's Health Food,100,"1829 Flatbush Avenue, Brooklyn",Flatbush ave,90
Puck's Brooklyn Fire Pit,Theresa's Polish American Restaurant,86,"1666 Kimball Street, Brooklyn",brooklyn,90
Taste of Kerala Kitchen,Taste,90,"267-05 Hillside Avenue, Glen Oaks",Hillside Avenue,90
Jian On,Jian On,100,"268-05 Hillside Avenue, Queens",Hillside Avenue,90
Flavor of India,C&L Of East Ocean Restaurant,86,"25917 Hillside Avenue, Glen Oaks",Hillside Avenue,90
Real Usha Sweets & Snacks,The Real Deal,86,259-15 Hillside Avenue,Hillside Avenue,95
Afghan Kebab House,Hunan House Chinese Restaurant,86,259-11 Hillside Avenue,258-11 Hillside Avenue,95
Chicago's Pizza With A Twist,Chicago's Pizza With A Twist,100,"259-07 Hillside Avenue, Queens",259-07 Hillside Ave,90
Hillside Dosa Hutt,ilili,72,258-15 Hillside Avenue,258-11 Hillside Avenue,95
Namaste Authentic Indian Cuisine,C B Finger Licking Jamaican and West Indian Restaurant,86,"258-11 Hillside Avenue, Queens",258-11 Hillside Avenue,95
Taste of India 2,Taste,90,"83-47 258th Street, Glen Oaks",Street,90
Honest Indian Restaurant,Indian Restaurant,95,"258-03 Hillside Avenue, Floral Park",Hillside Avenue,90
Iqra’s Halal Tacos,Halal,90,"257-03 Hillside Avenue, Glen Oaks",Hillside Avenue,90
Galo Tavern 18,The Porterhouse at Fraunces Tavern,86,"265-11 Union Turnpike, Queens",40-11 150th St,86
Luigi's,Luigi's,100,"265-21 Union Turnpike, New Hyde Park",4417 New Utrecht Ave,86
Liu's Garden,Theresa's Polish American Restaurant,86,"265-19 Union Turnpike, New Hyde Park",4417 New Utrecht Ave,86
Glen Oaks Pizzeria,Glen Oaks Pizza,91,"259-21 Union Turnpike, Queens",45-21 Parsons Blvd,86
Bia,Masbia Restaurant,90,271-12 Union Turnpike,2930 Union St,86
efresh,Peking Restaurant Fresh Mdws,75,271-16 Union Turnpike,2930 Union St,86
Cafe Cardini,Stars Cafe & Restaurant,86,"27120 Union Turnpike, New Hyde Park",4417 New Utrecht Ave,86
Cafe Kiskeya,Stars Cafe & Restaurant,86,271-11 Union Turnpike,40-11 150th St,86
Cabo Mexican Grill & Bar,Cabo,90,27111 Union Turnpike,2930 Union St,86
Juice For Life,Healthy Juice and Restaurant,86,27111 Union Turnpike #4,2930 Union St,86
Chick-N-Rice,All Refrigeration 'N Restaurant Equipment,86,271-19 Union Turnpike,2930 Union St,86
Green Olive Kosher Pizza,Kosher Pizza,90,"271-11 Union Turnpike, New Hyde Park",4417 New Utrecht Ave,86
Jassi's Fine Indian Cuisine,Moti's,86,"271-11 Union Turnpike, Queens",40-11 150th St,86
Jade Asian Bistro,Jade Fountain Chinese Cuisine,86,"24932 Horace Harding Expressway, Little Neck",18422 Horace Harding Expy,86
Centre Pizza,Pizza Pizza,95,"254-25 Horace Harding Expressway, Little Neck",33-25 Francis Lewis Blvd,86
Jekps Inc,Sunshine Restaurant Food & Catering Inc,86,"24506 Horace Harding Expressway, Flushing",18422 Horace Harding Expy,86
Jian Restaurant Chinese & Sushi Bar,Restaurant,90,"25435 Horace Harding Expressway, Little Neck",18422 Horace Harding Expy,86
Joe's Pizza & Pasta,pizza & pasta,95,"5607 Marathon Parkway, New York",New York,90
Sunny's Market,Theresa's Polish American Restaurant,86,"5612 Marathon Parkway, Flushing",603 Flushing Ave,86
AFRIDI Halal Food,Halal Food,90,"254-21 Nassau Boulevard, Queens",45-21 Parsons Blvd,86
Ocean Restaurant,Ocean Restaurant,100,"245-10 Horace Harding Expressway, Little Neck",37-10 114th St,86
Towers on the Green Restaurant and Venue,Restaurant,90,272-48 Grand Central Parkway,272-48 Grand Central Pkwy,94
Aunt Bella's,Aunt Bella's,100,"46-19 Marathon Parkway, Little Neck",165-19 Northern Blvd,86
Teinei Ya,Ota-Ya Japanese Restaurant,86,"251-20 Northern Boulevard #1, Little Neck",147-18 Northern Blvd,86
Sakuma,Sakura,83,"251-20 Northern Boulevard, Queens",147-18 Northern Blvd,86
李小龍台吃,Shu Jiao Fu Zhou Cuisine 潭頭王福州小吃 (Shu Jiao Fu Zhou Cuisine),24,"252-99 Northern Boulevard, Little Neck",147-18 Northern Blvd,86
성북동 SungBookDong BBQ,Ding BBQ and Hot Pot Restaurant,86,"248-25 Northern Boulevard, Douglaston",147-18 Northern Blvd,86
Tara Japanese Cuisine,Amura Japanese Cuisine,93,"251-09 Northern Boulevard, Little Neck",147-18 Northern Blvd,86
Little Dumpling,Little Bandgladesh Restaurant,86,"252-20 Northern Boulevard, Little Neck",147-18 Northern Blvd,86
Coffee Station,2 Water Street Coffee Station,90,"40-45 235th Street, Little Neck",Street,90
Dragon Express,Dragon Chinese Restaurant,86,"4236 235th Street, Flushing",Street,90
Douglaston Deli,Deli,90,"44-23 Douglaston Parkway, Flushing",149-44 41st Ave,86
Parkway Diner,Diner,90,"44-25 Douglaston Parkway, Little Neck",149-44 41st Ave,86
Best Garden,East Garden,91,"44-35 Douglaston Parkway, Queens",149-44 41st Ave,86
Mizumi,MIMI,80,"23110 Northern Boulevard, Queens",147-18 Northern Blvd,86
Tokyo Go Go11362,Tokyo Japanese Restaurant,86,"24203 Northern Boulevard, Queens",147-18 Northern Blvd,86
Aegea West Mediterranean Kitchen,Halal Chinese Kitchen,86,"24205 Northern Boulevard, Queens",147-18 Northern Blvd,86
Great Wok King,King Chinese Restaurant,86,"24825 Northern Boulevard # 1I, Douglaston",147-18 Northern Blvd,86
Toskana Pizzeria Restaurant,Toskana Pizzeria Restaurant,100,"24825 Northern Boulevard, Little Neck",147-18 Northern Blvd,86
舍得食府,Beef Bar Restaurant牛吧美食坊,22,"251-03 Northern Boulevard, Little Neck",147-18 Northern Blvd,86
LN1380,Evergreen On 38,50,"251-03 Northern Boulevard, Queens",147-18 Northern Blvd,86
Northern Manor,Northern Manor 同乐轩,95,"251-15 Northern Boulevard, Queens",147-18 Northern Blvd,86
Rolly Kimbab (Little Neck),Little Sagion International Restaurant Group 小西龚越南美食集團,86,"252-01 Northern Boulevard, Douglaston",147-18 Northern Blvd,86
Gong Cha - Little Neck,Little Sagion International Restaurant Group 小西龚越南美食集團,86,"252-01 Northern Boulevard, Queens",147-18 Northern Blvd,86
Dining at North Shore Towers,At Home Restaurant,86,27248 Grand Central Parkway,272-48 Grand Central Pkwy,92
Empire Fish & Shrimp,Fish,90,"1930 Patterson Avenue, The Bronx",1930 Patterson Ave,90
Blackgal Sea Food,Sea,90,The Bronx,"1095 Prospect Ave, Bronx, NY 10459",86
Ruthie's Pasteles,Theresa's Polish American Restaurant,86,"406 Soundview Avenue, The Bronx",311 Avenue X,86
Maravillas Bar & Grill,La Kuchara Ecuadorian Restaurant Bar,86,"254 Soundview Avenue, The Bronx",311 Avenue X,86
La Isla Food Corporation,La Isla,90,"1918 Lacombe Avenue, The Bronx",311 Avenue X,86
Yummy Yummy Chinese Kitchen,Yummy Yummy,90,"1811 Randall Avenue, The Bronx",311 Avenue X,86
John's Chicken & Burger & Pizza,Pizza,90,"1776 Randall Avenue, The Bronx",1776 Randall Ave,90
Kee Hong,Lin Kee Hong Chinese Restaurant,90,"552 Commonwealth Avenue, The Bronx",552 Commonwealth Ave,90
King Dragon,King Dragon Restaurant,90,"1749 Randall Avenue, The Bronx",1749 Randall Ave,90
Smashburger,Wimpy's Hamburger Place,66,"1925 Turnbull Avenue, The Bronx",311 Avenue X,86
Smashburger,Wimpy's Hamburger Place,66,"1925 Turnbull Avenue, The Bronx",311 Avenue X,86
Juan Lin Mei,Mei Hao Restaurant,86,"805 Soundview Avenue, The Bronx",805 Soundview Ave,90
MS Caridad,Caridad,95,"845 Soundview Avenue, The Bronx",845 Soundview Ave,90
Point Terminal Foods Inc,Sunshine Restaurant Food & Catering Inc,86,"300 Hunts Point Terminal Market, The Bronx","Terminal D, near Gate D11",86
New Orleans Chicken,New Fulin Kwok Seafood Restaurant,86,"854 Soundview Avenue, The Bronx",311 Avenue X,86
"Alfredo's ""Old Style"" Pizzeria",Moti's,86,"902 Soundview Avenue, The Bronx",311 Avenue X,86
Jimbo's Hamburger Place,Jimbo's,90,"912 Soundview Avenue, The Bronx",311 Avenue X,86
CEA - LO Cafe,Stars Cafe & Restaurant,86,"1003 Soundview Avenue, The Bronx",196 23 Jamaica Avenue,86
Doughnut Plant,Special $1 Coffee & Doughnut Cart,86,"245 Flatbush Avenue, Brooklyn",Flatbush ave,90
Koto Sushi,Kyoto Sushi,95,"263 Flatbush Avenue, Brooklyn",Flatbush ave,90
Piquant,Piquant,100,"259 Flatbush Avenue, Brooklyn",Flatbush ave,90
Elbow Room Brooklyn,"Golden Forest Chinese Restaurant, Brooklyn Ny",86,"267 Flatbush Avenue, Brooklyn",Flatbush ave,90
Sofreh,Flatbush Food & Discount Store,66,"75 Saint Marks Avenue, Brooklyn",brooklyn,90
Morgan's Brooklyn Barbecue,Moti's,86,"267 Flatbush Avenue, Brooklyn",Flatbush ave,90
Sugarcane,Sugarcane,100,"238 Flatbush Avenue, Brooklyn",Flatbush ave,90
Bleachers,Blackcherry Deli,70,"240 Flatbush Avenue, Brooklyn",Flatbush ave,90
Black Iron Burger,Burger King,86,"234 Flatbush Avenue, Brooklyn",Flatbush ave,90
BKLYN Larder,Dera,77,"228 Flatbush Avenue, Brooklyn",Flatbush ave,90
Kombit,Omai,68,"279 Flatbush Avenue, Brooklyn",Flatbush ave,90
Gino's Pizzeria,Gino's Pizzeria,100,"218 Flatbush Avenue, Brooklyn",Flatbush ave,90
Taro Sushi,Taro Sushi,100,"244 Flatbush Avenue, Brooklyn",Flatbush ave,90
Don Chingon,Don Pepe Restaurant,86,"216 Flatbush Avenue, Brooklyn",Flatbush ave,90
Ugly Baby,Baby Restaurant,86,"407 Smith Street, Brooklyn",brooklyn,90
Genji,Gen,90,"214 3rd Street, Brooklyn",brooklyn,90
Brooklyn Pizza,Brooklyn Pizza,100,"214 3rd Street, Brooklyn",brooklyn,90
Bison & Bourbon,Bourbon Street Restaurant and Catering,86,"191 7th Street, Brooklyn",brooklyn,90
Lavender Lake Bar,Bar Sol De Quito Restaurant II,86,"383 Carroll Street, Brooklyn",brooklyn,90
Frank's,Frank's Pizzeria & Restaurant,90,"365 Smith Street, Brooklyn",brooklyn,90
Giardini Pizza,Giardini Pizza,100,"363 Smith Street, Brooklyn",brooklyn,90
The Burrito Spot,The Golden Glass Restaurant,86,"478 Smith Street, Brooklyn",brooklyn,90
Ting Hua,Ting Hua,100,"351 Smith Street #4605, Brooklyn",351 Smith St,90
Avlee Greek Kitchen,Chang Jiang Kitchen Chinese Restaurant,86,"349 Smith Street, Brooklyn",brooklyn,90
F&F Pizzeria,La Strada Pizzeria & Restaurant,86,"459 Court Street, Brooklyn",Court st.,90
Emma's Torch,Theresa's Polish American Restaurant,86,"345 Smith Street, Brooklyn",brooklyn,90
Via Roma Pizza Bar,Roma pizza,90,"445 Court Street, Brooklyn",Court st.,90
Frankies 457 Spuntino,Frankies 457 Spuntino,100,"457 Court Street, Brooklyn",457 Court St,90
NYC Catering food trucks,Food Truck,90,"318 Nevins Street, Brooklyn",brooklyn,90
Fletcher's Brooklyn Barbecue,Moti's,86,"433 3rd Avenue, Brooklyn",brooklyn,90
Court Street Grocers,38th Street Restaurant & Bakery,86,"485 Court Street, Brooklyn",Court st.,90
Kanan Indian Restaurant,Indian Restaurant,95,"452 3rd Avenue, Brooklyn",brooklyn,90
Provini,First Place Provisions,77,"1302 8th Avenue, Brooklyn",brooklyn,90
Zatar Cafe & Bistro,ATA,90,"1201 8th Avenue, Brooklyn",201 8th Ave,90
Ottava,Ott,90,"1123 8th Avenue, Brooklyn",brooklyn,90
Johnny Mack's Bar & Grill,Moti's,86,"1114 8th Avenue, Brooklyn",brooklyn,90
Rossville Pizza,Rossville Pizza,100,"960 Bloomingdale Road, Staten Island",2670 Coney Island Ave,86
Happy Fortune Chinese Restaurant,Chinese Restaurant,90,"1022 Rossville Avenue, Staten Island",196 23 Jamaica Avenue,86
My Brother's Deli & Bagels,Deli,90,"960 Bloomingdale Road, Staten Island",2670 Coney Island Ave,86
The Historic Old Bermuda Inn,Old Country Diner,86,"Veterans Road West, Staten Island",2670 Coney Island Ave,86
Big Nose Kate's Saloon,Theresa's Polish American Restaurant,86,"2484 Arthur Kill Road, Staten Island",2670 Coney Island Ave,86
Keke's Grab N' Go,Theresa's Polish American Restaurant,86,Staten Island,"1118 Castleton Ave, Staten Island, NY 10310",90
Deluca's Italian Restaurant,Deluca’s Italian Restaurant,100,"7324 Amboy Road, Staten Island",563 Coney Island Ave,86
Gigi's Cafe & keke's pizzeria,Moti's,86,"7423 Amboy Road, Staten Island",563 Coney Island Ave,86
Reggiano's Brick Oven Pizza,Pizza,90,"7339 Amboy Road, Staten Island",563 Coney Island Ave,86
Dani's Italian Bistro,Ambrosia Italian and Albanian Restaurant,86,"7331 Amboy Road, Staten Island",563 Coney Island Ave,86
Don Cesar Restaurant & Bar,Restaurant,90,"7528 Amboy Road, Staten Island",563 Coney Island Ave,86
Mangia,Mangia,100,"7517 Amboy Road, Staten Island",563 Coney Island Ave,86
Main Street Deli,Deli,90,"249 Main Street, Staten Island",Main Street,90
Chef Hong II,Bar Sol De Quito Restaurant II,86,"7226 Amboy Road, Staten Island",563 Coney Island Ave,86
Cracker Barrel Deli,Deli,90,"180 Main Street, Staten Island",Main Street,90
Kim's Island,Theresa's Polish American Restaurant,86,"175 Main Street #1226, Staten Island",Main Street,90
Taqueria Oaxaca,Mi Barrio Taqueria Restaurant,86,"167 Main Street, Staten Island",Main Street,90
Towne Deli & Pizzeria,Deli,90,"5373 Arthur Kill Road #1152, Staten Island",2670 Coney Island Ave,86
Tropical Smoothie Cafe,Cafe 47,86,"7001 Amboy Road, Staten Island",563 Coney Island Ave,86
Villa Monte Pizzeria,Villa Monte Pizzeria & Restaurant,90,"Page Avenue, 1400, 7001 Amboy Road, Staten Island",Page Ave,90
Uncle Louie G,S&&G Restaurant & Sweets,86,"311 Page Avenue, Staten Island",Page Ave,90
Waterside,Walter's Deli,73,"225 Ellis Street, Staten Island",Street,90
Killmeyer's,Theresa's Polish American Restaurant,86,"4254 Arthur Kill Road, Staten Island",2670 Coney Island Ave,86
Artisan Bakers Group LLC,Little Sagion International Restaurant Group 小西龚越南美食集團,86,"708 Sharrotts Road, Staten Island",2670 Coney Island Ave,86
Chef Mike's Rodizio Grill,Moti's,86,"35 Androvette Street, Staten Island",Street,90
Project Brunch,The People Food Project,86,"4553 Arthur Kill Road, Staten Island",2670 Coney Island Ave,86
Millie's of Staten Island,Moti's,86,"185 Bricktown Way, Staten Island",2670 Coney Island Ave,86
Valducci's Pizza Truck’s,Valduccci's Pizza Truck,94,"3010 Veterans Road West, Staten Island",2670 Coney Island Ave,86
Valducci's Pizza,Pizza Pizza,95,"3010 Veterans Road West, Staten Island",2670 Coney Island Ave,86
Lobster House Joe's,Theresa's Polish American Restaurant,86,"4707 Arthur Kill Road, Staten Island",2670 Coney Island Ave,86
Z2 restaurant and lounge,Lounge & Restaurant,95,"2925 Veterans Road West, Staten Island",2670 Coney Island Ave,86
Z-Two Restaurant & Diner : 24 Hrs,Diner,90,"2925 Veterans Road West, Staten Island",2670 Coney Island Ave,86
Ariana's South,Ariana,90,"60 South Bridge Street, Staten Island",Street,90
Nucci's,Nucci's,100,"4842 Arthur Kill Road, Staten Island",2670 Coney Island Ave,86
Fushimi Page Ave,"Campagnola Restaurant 1382 1St Ave, New York, Ny 10021",86,"17 Page Avenue, Staten Island",Page Ave,90
Baya Bar Amboy Rd.,Bar Sol De Quito Restaurant II,86,"6833 Amboy Road, Staten Island",563 Coney Island Ave,86
pizza by lucille’s,Pizza by Lucilles,97,"26c Macombs Place, New York",New York,90
Modhu Mita,Famous Italian Mexican Restaurant,63,"2546 Adam Clayton Powell Junior Boulevard, New York",New York,90
Hot Pot Under the Tree,Hot Pot Jamaican & American Restaurant,86,"2839 Frederick Douglass Boulevard, New York",New York,90
Yong Sheng,Yong Sheng Restaurant,90,"2825 Frederick Douglass Boulevard, New York",New York,90
No 1 Wo Hop,No.1,90,"2825 Frederick Douglass Boulevard, New York",New York,90
City Island in the City,Island Runnings Jamaican Restaurant,86,"301 West 151st Street, New York",New York,90
Organic Deli & Inc,Deli,90,"2922 Frederick Douglass Boulevard, New York",New York,90
Tulcimexico,Tacos Mexico,70,"2798 Frederick Douglass Boulevard, New York",New York,90
Jing Hui,Jing Hui,100,"255 West 148th Street #1, New York",New York,90
Indian Express,Rajdhani Indian Restaurant,86,"301 West 154th Street, New York",New York,90
Red Star,Star,90,"2529 Adam Clayton Powell Junior Boulevard, New York",New York,90
Teng Dragon,Dragon Chinese Restaurant,86,"2923 Frederick Douglass Boulevard, New York",New York,90
Little Taste Of Seafood,Sea,90,"2528 Adam Clayton Powell Junior Boulevard, New York",New York,90
Mama's Fried Chicken,Theresa's Polish American Restaurant,86,"2925 Frederick Douglass Boulevard, New York",New York,90
Benyam,Bea,67,"2795 Frederick Douglass Boulevard, New York",New York,90
Charlie's Place,Theresa's Polish American Restaurant,86,"1960 Madison Avenue, New York",960 Madison Ave,90
Eatery 125,Lowes Eatery Jamaican & Southern Style Cuisine,86,"51 East 125th Street, New York",New York,90
Daps Eats,EATS DELICIOUS BAKERY & RESTUARANT,86,"63 East 125th Street, New York",New York,90
Daps,La Strada Pizzeria & Restaurant,68,"63 East 125th Street, New York",New York,90
Perfect Taste,Taste,90,"1884 Park Avenue, New York","New York, New York",95
Uptown Veg,Uptown African Restaurant,86,"52 East 125th Street, New York",New York,90
Serengeti Teas Food Wine,Sunshine Restaurant Food & Catering Inc,86,"22 East 125th Street, New York",New York,90
Q & N Food,Q&N Food,95,"107 East 125th Street, New York",New York,90
Sisters,Sisters,100,"47 East 124th Street, New York",New York,90
Danny's Delish Word Pizza,Pizza,90,"113 East 125th Street, New York",New York,90
Grab & Go Food,Grab & Go Food Inc,95,"2 West 129th Street #1, New York",New York,90
The Relief Bus,The Golden Glass Restaurant,86,"Park Ave. between 124th and, West 125th Street, New York",New York,90
fil a belly bella,a taberna Portuguese restaurant,86,"8 West 126th Street, New York",New York,90
Park Avenue,432 Park Avenue,95,"100 E West 124th Street, New York",New York,90
Sushi Inoue,Ginpachi Sushi Restaurant,86,"381A Malcolm X Boulevard, New York",New York,90
Harlem Hookah,Taipan Fusion Restaurant and Hookah Lounge,86,"381 Malcolm X Boulevard, New York",New York,90
Tio Luca,Tio Pepe Restaurant,86,"421 Malcolm X Boulevard, New York",New York,90
House of Seafood Express,Sea,90,"429 Malcolm X Boulevard, New York",New York,90
Petie Steak House,Hunan House Chinese Restaurant,86,"201-203 West 129th Street, New York",New York,90
Jacob,Jacob Restaurant,90,"373 Malcolm X Boulevard, New York",New York,90
Renaissance Harlem,Nabe Harlem Japanese Restaurant & Underground,86,"2245 Adam Clayton Powell Junior Boulevard, New York",New York,90
Hawa,Blue Hawaii Restaurant,90,"410 Malcolm X Boulevard, New York",New York,90
Great Wall Kitchen,Great Wall,90,"2238 Adam Clayton Powell Junior Boulevard #1, New York",New York,90
Chez Maty Et Sokhna (Formerly Keur Sokhna),Jonaki Caterers Restaurant (formerly Steve's Utica Jerk Center),86,"2249 Adam Clayton Powell Junior Boulevard, New York",New York,90
Yummy foods center,Yummy Foods,90,"2240 Adam Clayton Powell Junior Boulevard, New York",New York,90
Rusty's Flavor,Theresa's Polish American Restaurant,86,"2261 Adam Clayton Powell Junior Boulevard, New York",New York,90
Rejuvenate Juice bar,Bar Sol De Quito Restaurant II,86,"171 West 133rd Street, New York",New York,90
JERK HOUSE CARIBBEAN RESTAURANT,Caribbean Restaurant,90,"2143 Adam Clayton Powell Junior Boulevard, New York",New York,90
Tropical Grill,Tropical Grill & Restaurant,90,"2143 Adam Clayton Powell Junior Boulevard, New York",New York,90
Lenox Saphire Harlem,Saphire,90,"341 Lenox Avenue, New York","New York, New York",95
A&S Deli,A&S Deli,100,New York,New York,100
Bernard Theresa,Theresa's Polish American Restaurant,86,"Vermont Street, Brooklyn",brooklyn,90
Yamasa,Yamasa Restaurnat,90,"527 Stanley Avenue, Brooklyn",brooklyn,90
Caribbean Coffee Shop,Caribbean Coffee Shop,100,"527 Stanley Avenue, Brooklyn",brooklyn,90
Three Brother's,Theresa's Polish American Restaurant,86,"813 Van Siclen Avenue, Brooklyn",brooklyn,90
"Five Star Fish & Chips, The Taste Of Miami",Silver Star Restaurant,86,"521 Stanley Avenue, Brooklyn",brooklyn,90
Downs River Restaurant Inc,Restaurant,90,"517 Stanley Avenue, Brooklyn",517 Stanley Ave,90
Royal Jerk,Jerk-A-Rona Restaurant and Grill,86,"805 Van Siclen Avenue, Brooklyn",brooklyn,90
Soul Of The Sea Fish 'N' Chips,Fish,90,"787 Van Siclen Avenue, Brooklyn",brooklyn,90
Chang xing restanurant chinese food,Chinese Food,90,"835 Granville Payne Avenue, Brooklyn",brooklyn,90
Lee,Lee Xing,90,"2096 Linden Boulevard, Brooklyn",brooklyn,90
Ceci's,Ceci's,100,"423 Hegeman Avenue, Brooklyn",brooklyn,90
Caoba,Caoba Restaurant/ Coffee Shop,90,"762 Snediker Avenue, Brooklyn",762 Snediker Ave,90
Flava,FLAVA II  RESTAURANT AND BAKERY,90,"334 New Lots Avenue, Brooklyn",334 New Lots Ave,90
Garden Deli Inc,Garden Deli,95,"341 New Lots Avenue, Brooklyn",brooklyn,90
China Panda,China Gourmet Chinese Restaurant,86,"351 New Lots Avenue, Brooklyn",brooklyn,90
Hong Cheung,New Hong Cheung Chinese Restaurant,90,"407 New Lots Avenue, Brooklyn",407 New Lots Ave,90
Sajhoma,Sajoma Restaurant,77,"408 New Lots Avenue #6312, Brooklyn",brooklyn,90
Lechonera,Tropico Lechonera Y Restaurant,90,"429 New Lots Avenue, Brooklyn",429 New Lots Ave,90
Vermont Dell & Grill INC V,Golden Krust Caribbean Bakery and Grill,86,"669 Vermont Street, Brooklyn",brooklyn,90
Denny's,Denny's Delight,90,"805 Granville Payne Avenue, Brooklyn",brooklyn,90
797 Penn Burger LLC,Penn Plaza Deli and Restaurant,86,"797 Granville Payne Avenue, Brooklyn",brooklyn,90
Yolanda,Yolanda Restaurant,90,"188 Jamaica Avenue, Brooklyn",188 Jamaica Ave,90
Nicholas,Foodtown of St. Nicholas Ave,90,"2909 Fulton Street, Brooklyn",Fulton,90
D'Fanny,D Zion Restaurant,86,"2909 Fulton Street, Brooklyn",Fulton,90
Foo Lee,Foo On Restaurant,86,"2892 Fulton Street, Brooklyn",Fulton,90
El Tipico,El Tipico Restaurant,90,"2933 Fulton Street, Brooklyn",Fulton,90
El Ambiente,El Morro Restaurant & Bar,86,"2896 Fulton Street, Brooklyn",Fulton,90
Golden Panda,"Golden Forest Chinese Restaurant, Brooklyn Ny",86,"2824 Fulton Street #2624, Brooklyn",Fulton,90
Cm Restaurant,M Restaurant,96,Brooklyn,brooklyn,100
El Sabor,El Sabor No 2 Restaurant,90,"2908 Fulton Street, Brooklyn",Fulton,90
La Suprema,La Strada Pizzeria & Restaurant,86,"2942 Fulton Street, Brooklyn",Fulton,90
Nancy,Nancy's Resturant,90,"2961 Fulton Street # A, Brooklyn",Fulton,90
Bonao Bar & Grill,Bar Sol De Quito Restaurant II,86,"123 Jamaica Avenue, Brooklyn",brooklyn,90
New Tavares,New Fulin Kwok Seafood Restaurant,86,"234 Cleveland Street Btw Fulton Street &, Atlantic Avenue, Brooklyn",Fulton st,90
Long Cheng Chinese Food To Take Out,Chinese Food,90,"2977 Fulton Street, Brooklyn",Fulton,90
Crown Chicken & Burger,The Triple Crown Ale House & Restaurant,86,"2962 Fulton Street, Brooklyn",Fulton,90
Chubby Burger,Chubby Burger Chicken & Pizza,90,"2962 Fulton Street, Brooklyn",Fulton,90
Cibao Express,Cibao,90,Brooklyn,brooklyn,100
Chimis La Sabrosura,La Strada Pizzeria & Restaurant,86,"3104 Fulton Street, Brooklyn",Fulton,90
El Huequito,El Morro Restaurant & Bar,86,"3093 Fulton Street, Brooklyn",Fulton,90
Caterina Pizza,Caterina Pizza,100,"3035 Fulton Street, Brooklyn",Fulton,90
El Nuevo Puerto Plata,El Nuevo Puerto Plata Restaurant,90,"3123 Fulton Street, Brooklyn",Fulton,90
Kennedy fried chicken and pizza,Kennedy Fried Chicken and Pizza,100,"3127 Fulton Street, Brooklyn",Fulton,90
El Pulgarcito de America,El Pulgarcito De America: Restaurant Y Pupuseria,90,"3133 Fulton Street, Brooklyn",Fulton,90
Roti on the Run,The Golden Glass Restaurant,86,"3140 Fulton Street, Brooklyn",Fulton,90
Chimi Monumental,El Gran Chimi Deli & Grill,86,"3007 Fulton Street, Brooklyn",Fulton,90
Wo Hop Kitchen,Hip Wo Kitchen,88,"3150 Fulton Street, Brooklyn",Fulton,90
Nicaraguan Restaurant,Restaurant,90,"121 Essex Street, Brooklyn",brooklyn,90
Crown Fried Chicken & Coffee Shop,Crown Fried Chicken& Coffee Shop,98,"3149 Fulton Street, Brooklyn",Fulton,90
El Lempira,El Morro Restaurant & Bar,86,"3160 Fulton Street, Brooklyn",Fulton,90
Quang Qing Zheng,Zheng Chinese Restaurant,86,"787 Liberty Avenue, Brooklyn",brooklyn,90
The New Santiago,New Fulin Kwok Seafood Restaurant,86,"3412 Fulton Street, Brooklyn",Fulton,90
Lu Peking House,Peking House,95,"3408 Fulton Street, Brooklyn",Fulton,90
Tacosssssss,Ako,60,"3398 Fulton Street, Brooklyn",Fulton,90
Antojitos Ecuatorianos,Hermanos Ecuatorianos Restaurantes,86,"3398 Fulton Street, Brooklyn",Fulton,90
Wah Ming Kitchen,Wing Wah Kitchen,89,"3423 Fulton Street, Brooklyn",Fulton,90
Angela's Pizzeria,Angela's Pizza,90,"3435 Fulton Street, Brooklyn",Fulton,90
NYC Famous Chicken,famous restaurant Chinese food,86,"3367 Fulton Street, Brooklyn",Fulton,90
El cofre2,El Cofre,94,"3462 Fulton Street, Brooklyn",Fulton,90
Rico Pollo II,Bar Sol De Quito Restaurant II,86,"3352 Fulton Street, Brooklyn",Fulton,90
Carro Cafe,Stars Cafe & Restaurant,86,"3472 Fulton Street, Brooklyn",Fulton,90
Yip's Kitchen,Theresa's Polish American Restaurant,86,"3335 Fulton Street, Brooklyn",Fulton,90
Fu Xing House Chinese restaurant,Xing Xing Chinese Restaurant,95,"3235 Fulton Street, Brooklyn",Fulton,90
Cypress Pizzeria & Italian Restaurant,Cypress Pizzeria & Italian Restaurant,100,"3326 Fulton Street, Brooklyn",Fulton,90
EL Nuevo Barzola,Barzola,90,"3386 Atlantic Avenue, Brooklyn",3386 Atlantic Ave,90
Aztec Soul,95 South Soul Food Restaurant,86,"3372 Atlantic Avenue, Brooklyn",brooklyn,90
Chef Quang,King's Chef Chinese Restaurant,86,"3360 Atlantic Avenue, Brooklyn",brooklyn,90
Pollo Rey,Pica Pollo Restaurant,86,"315 Etna Street, Brooklyn",brooklyn,90
Andaman,Adam's Bagel and Deli,74,"1843 1st Avenue, New York","New York, New York",95
Merrion Square Pub,Merrion Square,95,"1840 2nd Avenue, New York","New York, New York",95
Hooda's Halal Food,Halal Food,90,"281 East 94th Street, New York",New York,90
Nick's Pizza,Nicks Pizza,96,"1814 2nd Avenue, New York","New York, New York",95
A-Jiao,A-HO RESTAURANT,86,"1817 2nd Avenue, New York","New York, New York",95
CHOCHIN,Coco Chinese Restaurant,77,"310 East 93rd Street, New York",New York,90
Fresh Wok,Wok Wok,95,"1777 1st Avenue #1, New York",New York,90
Yeti Spice Grill,Spice,90,"1764 1st Avenue, New York","New York, New York",95
Krua (Thai Kitchen),Mekong Thai & Vietnamese Restaurant,86,"1764 1st Avenue, New York","New York, New York",95
Akami,Matamin Dairy Restaurant,72,"1773 1st Avenue, New York","New York, New York",95
Au Jus,Au Bon Coin Restaurant,86,"1762 1st Avenue, New York","New York, New York",95
International Wings Factory,National,90,"1762 1st Avenue, New York","New York, New York",95
The Drunken Munkey - UES,The New Millenium Spanish Restaurant,86,"338 East 92nd Street, New York",New York,90
Mama Mia Pizza 1760 1st Ave,Pizza,90,"1760 1st Avenue, New York","New York, New York",95
PIZZA CITY,City Pizza,95,"1760 1st Avenue, New York","New York, New York",95
Mimmo,El Mismo,72,"1690 York Avenue, New York","New York, New York",95
The Mansion,The Golden Glass Restaurant,86,"1634 York Avenue, New York","New York, New York",95
Arturo's Pizza,Arturo's Pizza,100,"1610 York Avenue, New York","New York, New York",95
Arturo's,Arturo's,100,"1617 York Avenue, New York","New York, New York",95
Chez Nick,Nick's Restaurant & Pizzeria,86,"1737 York Avenue, New York","New York, New York",95
Nargila Grill,Golden Krust Caribbean Bakery and Grill,86,"1599 York Avenue, New York","New York, New York",95
Poke Fresh,Fresh Meadows Pizzeria and Restaurant,86,"1588 York Avenue, New York","New York, New York",95
Mumtaz,Mumtaz,100,"1582 York Avenue, New York","New York, New York",95
Sushi Suki,Ginpachi Sushi Restaurant,86,"1577 York Avenue, New York","New York, New York",95
Charley Mom,Charley Mom,100,"1580 York Avenue, New York","New York, New York",95
New Sunny East 88,Sunny East,90,"1680 1st Avenue, New York","New York, New York",95
Shorty's,Shorty's Roti Shop,90,"1678 1st Avenue, New York","New York, New York",95
PHO SHOP,O N Coffee Shop Restaurant,86,"1716 1st Avenue, New York","New York, New York",95
Phil Hughes Bar,El Morro Restaurant & Bar,86,"1682 1st Avenue, New York","New York, New York",95
The East End Bar & Grill,La Kuchara Ecuadorian Restaurant Bar,86,"1664 1st Avenue, New York","New York, New York",95
Noodle Fun,满粥麵 Wonton Noodle Garden Restaurant,86,"1744 1st Avenue, New York","New York, New York",95
East 86th Deli,Deli,90,"Easr, 86th Street, 1st Avenue, New York",New York,90
Sabor A Mexico,a taberna Portuguese restaurant,86,"1744 1st Avenue, New York","New York, New York",95
Guo's Garden,Guo's Garden,100,"1685 1st Avenue #4859, New York",1685 1st Ave,90
Aki Sushi,Azuki Sushi,90,"1531 York Avenue, New York","New York, New York",95
All star Deli & Grocery,All Star Deli & Grocery,100,"1525 York Avenue, New York","New York, New York",95
Inase,Inase Sushi,90,"1586 1st Avenue, New York","New York, New York",95
PuTawn Local Thai Kitchen,Chang Jiang Kitchen Chinese Restaurant,86,"1584 1st Avenue, New York","New York, New York",95
Sumela Mediterranean Cafe & Grill,Cafe 47,86,"1606 1st Avenue, New York","New York, New York",95
La Mia Pizza,La Mia Pizza,100,"1580 1st Avenue, New York","New York, New York",95
Tony Farm's Market J&J,Theresa's Polish American Restaurant,86,"1576 1st Avenue, New York","New York, New York",95
Gracie Mews Diner,Diner,90,"1550 1st Avenue, New York","New York, New York",95
Moon Star,Star,90,"17216 46th Avenue, Flushing",Between 39th and 40th street on 13th Avenue,86
Michael & Sons Italian Food & Pizza,Michael & Sons Pizza & Italian Food,95,"19213 47th Avenue, Flushing",7th Ave,90
BB'S Pub and Grill,Ghoroa Sweets and Restaurant,86,"17157 46th Avenue, Flushing",Between 39th and 40th street on 13th Avenue,86
Pado,Pado Sushi Restaurant,90,"171-53 46th Avenue, Flushing",171-53 46th Ave,90
황금어장 (구 파도횟집) Golden Sushi,"Golden Forest Chinese Restaurant, Brooklyn Ny",86,"171-53 46th Avenue, Flushing",171-53 46th Ave,90
Piccolo Sogno,Piccolo's,84,"195-14 47th Avenue, Flushing",7th Ave,90
Star Cafe,Star,90,"183-01 Horace Harding Expressway, New York",New York,90
Ali Baba,Ali Baba Turkish Cuisine,90,"183-10 Horace Harding Expressway, Queens",37-10 114th St,86
Chicken Festival Flushing,Chicken Festival,90,"196-17 Northern Boulevard, Flushing",147-18 Northern Blvd,86
Mythos Authentic Greek Cuisine,Amin Indian Cuisine,86,"19629 Northern Boulevard, Flushing",147-18 Northern Blvd,86
Oasis Cafe,Oasis Cafe,100,"196-30 Northern Boulevard, Flushing",147-18 Northern Blvd,86
Tang,TANG,100,"196-50 Northern Boulevard, Flushing",147-18 Northern Blvd,86
North Shore Diner,Diner,90,"19652 Northern Boulevard, Flushing",147-18 Northern Blvd,86
Gyro World Flushing,World Fair Marina Restaurant & Banquet,86,"194-21 Northern Boulevard, Flushing",147-18 Northern Blvd,86
Fontana Famous Pizza & Gyro,Pizza,90,"200-02 Northern Boulevard, Bayside",147-18 Northern Blvd,86
Galbi Ma Eul,신정갈비 | ShinJung Galbi (ShinJung Galbi),86,"19403 Northern Boulevard, Flushing",147-18 Northern Blvd,86
El Patron,El Patron Restaurant & Lounge Inc.,90,"194-01 Northern Boulevard, Flushing",147-18 Northern Blvd,86
Pho Che,SAPA Pho Vietnamese Restaurant,86,"193-16 Northern Boulevard, Flushing",147-18 Northern Blvd,86
Sasa Song,Song Thai Restaurant & Bar,86,"201-07 Northern Boulevard, Flushing",147-18 Northern Blvd,86
Manna Catering,Sunshine Restaurant Food & Catering Inc,86,"192-20 Northern Boulevard, Flushing",147-18 Northern Blvd,86
Hashi,Kamshing Take Out Restaurant,72,"192-12 Northern Boulevard, Flushing",147-18 Northern Blvd,86
Las Palmas Dominicanas,Alma,90,"201-09 Northern Boulevard, Bayside",147-18 Northern Blvd,86
Joong Koog Jip,Go Hyang Jip Korean Food Market,86,"203-16 Northern Boulevard, Bayside",147-18 Northern Blvd,86
Pizzarama,Pizza,90,"3715 Francis Lewis Boulevard, Bayside",33-25 Francis Lewis Blvd,86
K Town Foodcourt,K-Town Food Court,97,"46-66-46-78 Francis Lewis Boulevard, Bayside",Cristofordo Columbo Boulevard,86
Good Taste Restaurant,Good Taste Restaurant,100,"47-5 Francis Lewis Boulevard, Bayside",33-25 Francis Lewis Blvd,86
BKNY Thai Restaurant,BKNY Thai Restaurant,100,"47-11 Francis Lewis Boulevard, Bayside",33-25 Francis Lewis Blvd,86
Mr. Coco,Mr Triunfel Restaurant,86,"45-15 162nd Street, Flushing",Street,90
Gabriella's Family Pizza,Gabriella's Family Pizza,100,"4501 162nd Street, Queens",Street,90
I am Kimchi,M.I.A Restaurant Lounge,86,"45-14 162nd Street, Flushing",45-14 162nd St,90
New Dragon,New Dragon,100,"45-12 162nd Street #1Fl, Queens",Street,90
Daesung Korean Noodle (대성칼국수),Bonjuk Korean Traditional Porridge Restaurant,86,"45-04 162nd Street, Flushing",Street,90
Las Perlas,Las Perlas Restaurante Salvadoreño,90,"16008 46th Avenue, Flushing",Between 39th and 40th street on 13th Avenue,86
Java Day,Good Day Seafood Restaurant,86,"4358 162nd Street, Flushing",Street,90
Teriyaki Monster,teriyaki guys food truck,86,"43-54 162nd Street, Queens",Street,90
El Vicentino,El Vicentino Restaurant Salvadoreno,90,"43-37 162nd Street, Queens",Street,90
Mr. David's Chicken Joint,Moti's,86,"43rd ave and, 162nd Street, Flushing",3rd Ave.,90
Kyedong KONO Chicken,Crazy Chicken Restaurant & Coffee Shop,86,"171-02 Northern Boulevard, Flushing",147-18 Northern Blvd,86
San Soo Kap San 2 | Korean BBQ Flushing | Korean Restaurant Flushing NY | 산수갑산2,San Soo Kap San,90,"171-10 Northern Boulevard, Flushing",147-18 Northern Blvd,86
"Marrizzang 마리짱 | Korean Food Delivery in flushing, NY | 뉴욕 분식, 뉴욕 한정식/돈까스 맛집, 플러싱 맛집, 플러싱 분식집/냉면","Golden Forest Chinese Restaurant, Brooklyn Ny",86,"42-37 162nd Street, Queens",Street,90
Pizza Garden,Pizza Garden,100,"17101 Northern Boulevard, Flushing",147-18 Northern Blvd,86
Basak Chicken,Kennedy Fried Chicken,86,"171-07 Northern Boulevard, Flushing",147-18 Northern Blvd,86
Good Fortune,Good Fortune Restaurant,90,"46-45 Kissena Boulevard, Queens",Kissena,90
Taste Good Place,Taste,90,"46-26 Kissena Boulevard, Flushing",Kissena,90
Ya Jia Chinese Restaurant,Chinese Restaurant,95,"4626 Kissena Boulevard, Flushing",Kissena,90
Delicias Pizza & Chicken,Delicias Pizza & Fried Chicken,95,"141-20 Holly Avenue, Flushing",141-20 Holly Ave,90
369BBQ,Korean BBQ Restaurant,45,"46-20 Kissena Boulevard, Flushing",Kissena,90
Yu Garden Dumpling House,Dumpling House,90,"46-20 Kissena Boulevard, Flushing",Kissena,90
T & T,AT&T,95,"46-11A Kissena Boulevard, Flushing",Kissena,90
Temple Canteen,Samuels Temple Food Pantry,86,"45-57 Bowne Street, Flushing",Street,90
灶门签 Zao Men Qian Hot Pot,Hot Pot Jamaican & American Restaurant,86,"46-09 Kissena Boulevard, Flushing",Kissena,90
Dosa Hutt,Sea,60,"4563 Bowne Street, Flushing",Street,90
Liu Bu Inc.,Liu Liu Seafood Restaurant,86,"14008 Holly Avenue, Queens",Between 39th and 40th street on 13th Avenue,86
Huoban BBQ,Korean BBQ Restaurant,86,"46-01 Kissena Boulevard, Queens",Kissena,90
Satay,ATA,90,"46-01 Kissena Boulevard, Flushing",Kissena,90
Green Recipes,Green Pavilion Restaurant,86,"147-16 45th Avenue, Flushing",5th Avenue,90
Halal Brothers Chicken And Gyro,Halal,90,"14712 45th Avenue, Flushing",5th Avenue,90
Los Cuatro Reyes,El Rinconcito De Los Sabores Restaurant & Deli,86,"147-12 45th Avenue, Queens",5th Avenue,90
Skewer Hot Pot,Hot Pot Jamaican & American Restaurant,86,"147-10 45th Avenue, Queens",5th Avenue,90
Spicy Empire 辣帝國串串香,Empire Kitchen Chinese Restaurant,86,"147-10 45th Avenue, Flushing",5th Avenue,90
El Milagro Restaurant and Grocery,Restaurant,90,"147-07 45th Avenue, Flushing",5th Avenue,90
PaPa chicken,Kennedy Fried Chicken,86,"14709 45th Avenue, Queens",5th Avenue,90
Dr. Seafood Hot Pot & Bar,Hot Pot Jamaican & American Restaurant,86,"45-08 Parsons Boulevard, Flushing",45-21 Parsons Blvd,86
Sunrise Diner,Diner,90,"45-04 Parsons Boulevard, Flushing",45-21 Parsons Blvd,86
Rico's Chicken,Theresa's Polish American Restaurant,86,"146-04 45th Avenue, Flushing",5th Avenue,90
Yummy House,Yummy Yummy,95,"144-20 45th Avenue, Flushing",144-20,90
Sweet Haus Cafe,Stars Cafe & Restaurant,86,"143-1 45th Avenue, Flushing",5th Avenue,90
Chen Mommy Kitchen,Chang Jiang Kitchen Chinese Restaurant,86,"15605 45th Avenue, Flushing",5th Avenue,90
Whitlock Fried Chicken,Crazy Chicken Restaurant & Coffee Shop,86,The Bronx,"1095 Prospect Ave, Bronx, NY 10459",86
Parrilla Azteca,Azteca,90,"1288 Westchester Avenue, The Bronx",Westchester ave,90
Caribbean Grill,Caribbean Grill Restaurant,90,"1294 Westchester Avenue, The Bronx",Westchester ave,90
New Sheng,New Kam Sheng,95,"1029 East 167th Street, The Bronx",167th St.,90
Luke's Pizza,Luke's Pizza,100,"1226 Southern Boulevard, The Bronx",901 Southern Blvd,86
Zhu's Kitchen,Theresa's Polish American Restaurant,86,"971 East 167th Street, The Bronx",167th St.,90
La Nueva Lechonera,La Strada Pizzeria & Restaurant,86,"1250 Southern Boulevard, The Bronx",901 Southern Blvd,86
Happy Wok,Happy Wok,100,"1284 Southern Boulevard, The Bronx",901 Southern Blvd,86
Kennedy Fried Chicken And barges,Kennedy Fried Chicken,90,"1282 Southern Boulevard, The Bronx",901 Southern Blvd,86
Mireli Restaurant,Micelli Restaurant,91,"1122 Westchester Avenue, The Bronx",Westchester ave,90
Anarosy Juice bar,Bar Sol De Quito Restaurant II,86,"962 East 167th Street, The Bronx",167th St.,90
O N,O'Neill's,90,"962 East 167th Street, The Bronx",167th St.,90
Antillana Pizzeria,La Strada Pizzeria & Restaurant,86,"1112 Westchester Avenue, The Bronx",Westchester ave,90
Hot Chicks & Ballers Corporation,Red Hot Szechuan,86,"1027 Southern Boulevard, The Bronx",901 Southern Blvd,86
Lechonera Pollo Sabroso,Pollo Sabroso,90,"1089 Southern Boulevard, The Bronx",901 Southern Blvd,86
Julio Deli,Julio Deli,100,"953 Aldus Street, The Bronx",Street,90
Tetaj Brothers Pizzeria,Gino's Pizzeria,86,"957 Aldus Street # 1, The Bronx",Street,90
Merry Land Chinese Buffet,Merry Land Buffet,95,"505 East 163rd Street, The Bronx",Street,90
Cedeao Grill,Golden Krust Caribbean Bakery and Grill,86,"507 East 163rd Street, The Bronx",Street,90
