name_google,name_foursquare,ratio_name,address_google,address_foursquare,ratio_address
Lupita's,Lupita's Restaurant,90,"904 Melrose Avenue, The Bronx",904 Melrose Ave,90
Lechonera & Pollo Sabroso,Pollo Sabroso,90,"3326 3rd Avenue, The Bronx",3rd Ave.,90
Porto Salvo,Porto Bello Pizza and Restaurant,86,"424 East 161 Street, The Bronx",Street,90
Symphony Diner,Diner,90,"496 East 161 Street, The Bronx",Street,90
Linda's Pizzeria,Linda's Pizzeria,100,"3240 3rd Avenue, The Bronx",3rd Ave.,90
Bate Nabaya,Maya,68,"860 Melrose Avenue, The Bronx",860 Melrose Ave,90
Cinco De Mayo,Cinco de Mayo,100,"837 Washington Avenue, The Bronx",Washington Ave,90
K & L,C&L Of East Ocean Restaurant,86,"3204 3rd Avenue, The Bronx",3rd Ave.,90
Jalloh,Fouta Djallon Restaurant,75,"3396 3rd Avenue, The Bronx",396 3rd Ave,90
Flava’s Restaurant and Lounge,Flava’s Restaurant And Lounge,100,"3114 3rd Avenue, The Bronx",3114 3rd Ave,90
Adinkra,Raw,72,"1141 Washington Avenue, The Bronx",Washington Ave,90
Noches de Copas,Bar Sol De Quito Restaurant II,86,"3426 3rd Avenue, The Bronx",3rd Ave.,90
Dyckman Express,Dyckman Express,100,"101 Dyckman Street, New York",101 Dyckman St,90
Kennedy Chicken And Gyro,Ambrosia Italian and Albanian Restaurant,86,"158 Nagle Avenue, New York","New York, New York",95
Dyckman Dogs,Man Do,90,"105-A Dyckman Street, New York",New York,90
Cachapas y Mas Express,L & Y Wing Hing Chinese Restaurant,86,"105A Dyckman Street, New York",New York,90
Cachapas y Mas,Migueleno's Pizza Y Restaurant,86,"107 Dyckman Street, New York",New York,90
Rico Chimi,Pio Rico Restaurant,86,"111 Dyckman Street, New York",New York,90
La Suegra de Dyckman (Mexican food),LA Cazuela Restaurant,86,New York,New York,100
Havana tacos,Havana,90,"212 Nagle Avenue, New York","New York, New York",95
Jimbos Hamburger Palace,Leslies Palace Caribbean Bar and Restaurant,86,"117 Dyckman Street, New York",New York,90
Chinito Latino Hibachi Fusion,Tu Sabor Latino,86,"122 Dyckman Street, New York",New York,90
Pizza Palace,Pizza Palace,100,"121 Dyckman Street, New York",New York,90
Cevicos,Ciccio's,67,"125 Nagle Avenue, New York","New York, New York",95
Taqueria Los Jarritos,El Rinconcito De Los Sabores Restaurant & Deli,86,"121A Nagle Avenue, New York",New York,90
Brasier Restaurant & Lounge,Brasier Restaurant & Lounge,100,"402 West 202nd Street, New York",New York,90
Tenth Avenue | Grow Hospitality,Ann & Tony's - An Original Arthur Avenue Restaurant,86,"3775 10th Avenue, New York","New York, New York",95
Luxor NY,"Golden Forest Chinese Restaurant, Brooklyn Ny",86,"3775 10th Avenue Ste 7, New York",3775 10th Ave,90
Fruit Paradise Smoothies,Paradise Deli,86,"112 Nagle Avenue, New York","New York, New York",95
Genesis Restaurante Ecuatoriano,Restaurante Ecuatoriano,95,"538 West 207th Street, New York",38 w,90
La Casa del Mofongo & Piano Bar,Casa,90,"546 West 207th Street, New York",New York,90
Anubis bistro,Luna Asian Bistro and Japanese Rooftop Restaurant 日本料理,86,"524 West 207th Street, New York",New York,90
Stop 809,One Stop Restaurant Supply Corp.,86,"537 West 207th Street, New York",New York,90
John's Fried Chicken,Theresa's Polish American Restaurant,86,"512 West 207th Street, New York",New York,90
Kennedy's Chicken & Biscuit,Kennedy's,90,"521 West 207th Street, New York",New York,90
Noel's Pizza,Noel's Pizza,100,"553 West 207th Street, New York",New York,90
El nuevo valle seafood Restaurant,El Valle Seafood Restaurant,95,"231 Sherman Avenue, New York",231 Sherman Ave,90
Taqueria Emilio,Mi Barrio Taqueria Restaurant,86,"563 West 207th Street, New York",New York,90
RAICES RESTAURANT,Price Restaurant,91,"565 West 207th Street, New York",New York,90
Lina Restaurant,El Lina Restaurant,95,"500 West 207th Street, New York",New York,90
Ten-Tan,Tan Ten,95,"3864 10th Avenue, New York","New York, New York",95
Enjoy Kitchen & Bar NYC,La Kuchara Ecuadorian Restaurant Bar,86,"582 West 207th Street, New York",New York,90
El Tina Fish Market,Fish Market,90,"500 West 207th Street, New York",New York,90
Boca Chica Seafood,Sea,90,"584 West 207th Street, New York",New York,90
El Anafe Supreme,El Morro Restaurant & Bar,86,"584 West 207th Street, New York",New York,90
Galicia Tapas,Sangria Tapas Bar & Restaurant,86,"575 West 207th Street, New York",New York,90
Floridita,Floridita Restaurant,90,"3856 10th Avenue, New York","New York, New York",95
Pizza Nova,Pizza Nova,100,"150 Dyckman Street, New York",New York,90
La Verdadera Fritura,Dera,90,"87-101 Sherman Avenue, New York",101 Sherman Ave,90
brgr,Mi Barrio Taqueria Restaurant,68,"287 7th Avenue, New York","New York, New York",95
Forkright,Upright,62,"295 7th Avenue, New York","New York, New York",95
99 Cent Best & Fresh Pizza,99 Cent Best & Fresh Pizza,100,"166 West 27th Street, New York",New York,90
B & B,B & B Restaurant Corp,90,"165 West 26th Street, New York",New York,90
African Restaurant,Africana Restaurant,97,"109-119 West 26th Street, New York",New York,90
The Wilson NYC,The Golden Glass Restaurant,86,"132 West 27th Street, New York",New York,90
Chelsea Gourmet Deli,Sea,90,"259 7th Avenue #1, New York",7th Ave,90
Ciao Bella,Ciao Bella Restaurant,90,"257 7th Avenue, New York","New York, New York",95
Milanes,Milanes Spanish Restaurant,90,"168 West 25th Street, New York",New York,90
Jimmy'S House,Theresa's Polish American Restaurant,86,"162 West 25th Street, New York",New York,90
Serai,Sea,75,"150 West 17th Street, New York",New York,90
Portale,El Portal Restaurant,77,"126 West 18th Street, New York",New York,90
101 7th Avenue,Thai 101,86,"101 7th Avenue, New York","New York, New York",95
Cafeteria,Clifford Chance Cafeteria-Restaurant Associates,90,"119 7th Avenue, New York","New York, New York",95
Glur Thai,Mekong Thai & Vietnamese Restaurant,86,"144 West 19th Street, New York",New York,90
Gogi Grill,Golden Krust Caribbean Bakery and Grill,86,"599 6th Avenue, New York","New York, New York",95
Oramen,Ajisen Ramen,75,"579 6th Avenue, New York","New York, New York",95
The Hummus & Pita Co.,The Loft BKNY Restaurant & Lounge,86,"585 6th Avenue, New York","New York, New York",95
Telegraphe Cafe,Telegraphe Café,97,"107 West 18th Street, New York",New York,90
Go! Go! Curry! Chelsea,Sea,90,"144 West 19th Street, New York",New York,90
The Commons Chelsea,Chelsea Commons,95,"128 7th Avenue, New York","New York, New York",95
Sushi Tokyo,Ginpachi Sushi Restaurant,86,"121 West 19th Street, New York",New York,90
Mido’s,Mido's Halal Food Cart,90,"631-615 6th Avenue, New York",New York,90
Hollywood Diner,Diner,90,"574 6th Avenue, New York","New York, New York",95
Blue Valley Food Shop,Blue,90,"570 6th Avenue, New York","New York, New York",95
L&M Delicatessen and Catering,L&M Delicatessen & Catering,95,"80 7th Avenue Between 15th & 16th Streets, New York",7th Ave,90
Cafe Beyond,Stars Cafe & Restaurant,86,"620 6th Avenue, New York","New York, New York",95
Friedman's,Theresa's Polish American Restaurant,86,"450 10th Avenue, New York","New York, New York",95
Hudson Bar Room,El Morro Restaurant & Bar,86,"444 10th Avenue, New York","New York, New York",95
Hudson Yards Grill,Golden Krust Caribbean Bakery and Grill,86,"20 Hudson Yards 4th Floor, New York",20 Hudson Yards,90
Rocky's Pizza Bar & Restaurant,Rocky's Pizza Restaurant,95,"460 West 34th Street, New York",New York,90
Wild Ink,ALDI,68,"20 Hudson Yards, New York","New York, New York",95
Belcampo,El Campeon De Los Pollos,68,"20 Hudson Yards RU 401B, New York",20 Hudson Yards,90
Kdude,Due,75,"505 West 37th Street, New York",37th,90
Cook & Merchants,Food Merchants Cafe,75,"20 Hudson Yards, New York","New York, New York",95
Food Fair Deli & Pizza,Food Fair Deli & Pizza,100,"433 West 34th Street, New York",New York,90
TAK Room,Cam Tak Express Restaurant,86,"20 Hudson Yards 5th Floor, New York",20 Hudson Yards,90
Milos Wine Bar,El Morro Restaurant & Bar,86,"20 Hudson Yards 5th Floor, New York",20 Hudson Yards,90
The Zodiac Room,The Golden Glass Restaurant,86,"20 Hudson Yards, New York","New York, New York",95
St Tropez West Village,C B Finger Licking Jamaican and West Indian Restaurant,86,"304 West 4th Street, New York",New York,90
Cafe Cluny,Stars Cafe & Restaurant,86,"284 West 12th Street, New York",New York,90
Kawa Sushi,Ginpachi Sushi Restaurant,86,"24 8th Avenue, New York","New York, New York",95
Blenheim,Blue,68,"283 West 12th Street, New York",New York,90
La Bonbonniere,La Strada Pizzeria & Restaurant,86,"28 8th Avenue, New York","New York, New York",95
The Beatrice Inn,Bea,90,"285 West 12th Street, New York",New York,90
La Ripaille,La Strada Pizzeria & Restaurant,86,"605 Hudson Street, New York",New York,90
Bus Stop Cafe,Stars Cafe & Restaurant,86,"597 Hudson Street, New York",New York,90
Mémé,Yummy Restaurant,90,"581 Hudson Street, New York",581 Hudson Street,90
The Butcher's Daughter,The Butcher’s Daughter Bakery And Market,90,"581 Hudson Street, New York",581 Hudson Street,90
Bonsignour,Nori,68,"35 Jane Street, New York","New York, New York",95
Bistro Pierre Lapin,IKEA Bistro,86,"99 Bank Street, New York","New York, New York",95
Móle,Hamlet Coffee Company,90,"57 Jane Street #5131, New York",57 Jane St,90
Piccolo Angolo,Piccolo Angolo,100,"621 Hudson Street, New York",621 Hudson St,90
Tavern On Jane,Jane,90,"31 8th Avenue, New York","New York, New York",95
Brunetti,Barbetta,62,"626 Hudson Street, New York",New York,90
Anton's,Anton's,100,"570 Hudson Street, New York",570 Hudson St,90
Philip Marie,Li Li,86,"569 Hudson Street, New York",New York,90
Bar Veloce,El Morro Restaurant & Bar,86,"796 Greenwich Street, New York",New York,90
Cafe Angelique,Stars Cafe & Restaurant,86,"68 Bleecker Street, New York",New York,90
Rafiqi's,Rafiqi's Halal Food,90,New York,New York,100
Coco & Cru,Jis Coco Restaurant,86,"643 Broadway, New York","New York, New York",95
Sweetwater Social,Taste,72,"643 Broadway, New York","New York, New York",95
Bite,Best Bites,90,"333 Lafayette Street, New York",New York,90
BONDST,BONDST,100,"6 Bond Street, New York","New York, New York",95
GATO,Navigator Restaurant,90,"324 Lafayette Street, New York",New York,90
ATLA,Atlantic Restaurant Equipment,90,"372 Lafayette Street, New York",New York,90
Honeybrains,Whole Grains Health Food,66,"372 Lafayette Street, New York",New York,90
ACME,ACME,100,"9 Great Jones Street, New York",New York,90
The Smile,The Golden Glass Restaurant,86,"26 Bond Street, New York","New York, New York",95
The Landing at Pier 45,The Loft BKNY Restaurant & Lounge,86,"393 West Street, New York","New York, New York",95
Perry St,Perry St,100,"176 Perry Street, New York","New York, New York",95
Malatesta Trattoria,Malatesta Trattoria,100,"649 Washington Street, New York",649 Washington St,90
Golden Woks,"Golden Forest Chinese Restaurant, Brooklyn Ny",86,"159 Christopher Street, New York",New York,90
Sweet Life Cafe,Stars Cafe & Restaurant,86,"147 Christopher Street, New York",New York,90
Gaetana's,Gaetana's Cucina Italiana,90,"143 Christopher Street, New York",143 Christopher St,90
Wallsé,Great Wall,80,"344 West 11th Street, New York",New York,90
THE ELK,The ELK,100,"128 Charles Street, New York",New York,90
Jeju Noodle Bar,El Morro Restaurant & Bar,86,"679 Greenwich Street, New York",New York,90
Amber West Village,Amber,90,"135 Christopher Street, New York",New York,90
11th Street Cafe,11th Street Cafe,100,"327 West 11th Street, New York",New York,90
Orient Express Bar,Bar Sol De Quito Restaurant II,86,"325 West 11th Street, New York",New York,90
Flip Sigi,Flip Restaurant,86,"525 Hudson Street, New York",25 Hudson St,90
Ready to Eat,Ricky's Eat-Well Jamaican Restaurant,86,"525 Hudson Street, New York",25 Hudson St,90
Cowgirl,Spicy Girl Restaurant,64,"519 Hudson Street, New York",New York,90
Rivoli Pizza II,Rivoli Pizza II,100,"2805, 2805, 501 Hudson Street, New York",New York,90
Persone NYC,The NYC Bull - Restaurant & Rotisserie,86,"527 Hudson Street Suite #20135, New York",New York,90
RedFarm,Parm,68,"529 Hudson Street, New York",New York,90
Trattoria iL Gusto Wine Bar,"Caribbean American Ent. Bar, Lounge & Restaurant",86,"625 Columbus Avenue, New York",New York,90
Bodega 88,88 Chinese Restaurant,86,"573 Columbus Avenue, New York",New York,90
Bella Luna,Bella Luna,100,"574 Columbus Avenue, New York",New York,90
Columbus Cafe,Stars Cafe & Restaurant,86,"556 Columbus Avenue, New York",New York,90
Lucciola,Olea,77,"621 Amsterdam Avenue, New York",Amsterdam avenue,90
Lucciola,Olea,77,"621 Amsterdam Avenue, New York",Amsterdam avenue,90
New Amsterdam Burger Bar,La Kuchara Ecuadorian Restaurant Bar,86,"680 Columbus Avenue, New York",New York,90
Blockheads,Ocha,68,"175 West 90th Street, New York",New York,90
Mila Cafe,Stars Cafe & Restaurant,86,"694 Columbus Avenue, New York",New York,90
Mido,Mido's Halal Food Cart,90,"612 Amsterdam Avenue, New York",Amsterdam avenue,90
La Mirabelle,La Strada Pizzeria & Restaurant,86,"102 West 86th Street, New York",New York,90
Bodrum,Bodrum Mediterranean Restaurant,90,"584 Amsterdam Avenue, New York",Amsterdam avenue,90
Pekarna NYC,Kar,90,"594 Amsterdam Avenue, New York",Amsterdam avenue,90
Vive la Crêpe!,La Strada Pizzeria & Restaurant,86,"532 Columbus Avenue, New York",New York,90
Miyako Sushi,Ako,90,"642 Amsterdam Avenue, New York",Amsterdam avenue,90
Simply Sushi,Ginpachi Sushi Restaurant,86,"661 Amsterdam Avenue, New York",Amsterdam avenue,90
Pizza Pete's,Pizza Pete's,100,"528 Columbus Avenue, New York",New York,90
The Consulate,The Golden Glass Restaurant,86,"519 Columbus Avenue, New York",519 Columbus Ave,90
H&H Bagels,H J H Restaurant,86,"526 Columbus Avenue, New York",New York,90
BRAD'S BURGERS & BBQ,Theresa's Polish American Restaurant,86,"522 A Columbus Avenue, New York",New York,90
Geteburgers,Eros,68,"522 Columbus Avenue, New York",New York,90
Good Enough To Eat,Good Day Seafood Restaurant,86,"520 Columbus Avenue, New York",New York,90
The Viand,The Golden Glass Restaurant,86,"517 Columbus Avenue, New York",New York,90
Osteria Cotta,Ott,86,"513 Columbus Avenue, New York",New York,90
Tasca NYC,The NYC Bull - Restaurant & Rotisserie,86,"505 Columbus Avenue, New York",New York,90
Blossom on Columbus,620 on Caton Pizzeria and Restaurant,86,"507 Columbus Avenue, New York",New York,90
Motorino,Torigo,71,"510 Columbus Avenue, New York",New York,90
Spiga To Go,Good to Go Restaurant,86,"55 West 84th Street, New York",New York,90
Zhong Hua,Zhong Hua,100,"23 West 100th Street, New York",New York,90
Perfect Picnic NYC,The NYC Bull - Restaurant & Rotisserie,86,"405 Central Park West, New York",Central Park,90
Westside Grill,Golden Krust Caribbean Bakery and Grill,86,"808 Columbus Avenue, New York",New York,90
Dish & Saucery,The Dish,86,"808 Columbus Avenue, New York",New York,90
Chopped & Topped Salads,SALUD,72,"808 Columbus Avenue, New York",New York,90
Upper West Side Pizza,Upper West Side Pizza,100,"808 Columbus Avenue, New York",New York,90
King Columbus Gourmet Deli,Deli,90,"900 Columbus Avenue, New York",New York,90
Benny's Chao King,Theresa's Polish American Restaurant,86,"906 Columbus Avenue, New York",906 Columbus Ave,90
Empire Garden,Empire Garden,100,"911 Columbus Avenue, New York",New York,90
Mekong,Mekong Thai & Vietnamese Restaurant,90,"917 Columbus Avenue, New York",917 Columbus Ave,90
Noche Mexicana,Noche Mexicana II,95,"842 Amsterdam Avenue, New York",Amsterdam avenue,90
Mokja,Tomo Japanese Cafe,72,"852 Amsterdam Avenue, New York",Amsterdam avenue,90
Raenu,Church Avenue Restaurant,72,"844 Amsterdam Avenue, New York",Amsterdam avenue,90
Cafe Roma,Cafe R,90,"854 Amsterdam Avenue #1, New York",Amsterdam avenue,90
Pizza Ranch Deli & Nightlife,Pizza,90,"856 Amsterdam Avenue, New York",Amsterdam avenue,90
Pie Pie Pizza,Pie Pie Pizza,100,"924 Columbus Avenue, New York",New York,90
Pearls,Pearls,100,"796 Amsterdam Avenue, New York",Amsterdam avenue,90
Arco Cafe,Stars Cafe & Restaurant,86,"886 Amsterdam Avenue, New York",Amsterdam avenue,90
Titos halal food truck,Halal Food Truck,95,"107 East Gun Hill Road, The Bronx",107-01 37th Ave,86
Mario's Pizza,Mario's Pizza,100,"79 East Gun Hill Road, The Bronx",823 East 169th Street,86
Local Bodega,Food Corner Bodega,86,"85e East Gun Hill Road, The Bronx",823 East 169th Street,86
Kennedy fried chicken,Kennedy Fried Chicken,100,"381 Bedford Park Boulevard, The Bronx",4174 Bedford Ave,86
Rose Flower,Red Flower Chinese Restaurant,86,"383 Bedford Park Boulevard, The Bronx",4174 Bedford Ave,86
Rulay Lounge Bar & Restaurant,Restaurant,90,"2959 Webster Avenue, The Bronx",Webster Ave,90
Garden Coffee Shop,Nick's Garden Coffee Shop,95,"2955 Webster Avenue, The Bronx",Webster Ave,90
Rocco's Pizzeria,Rocky's Pizzeria,88,"397 Bedford Park Boulevard, The Bronx",4174 Bedford Ave,86
Jolly Tinker,Jolly's Halal Food,86,"2875 Webster Avenue, The Bronx",Webster Ave,90
Bedford Pizza,Pizza Pizza,95,"380 Bedford Park Boulevard, The Bronx",380 Avenue P,86
Webster Cafe & Diner,Diner,90,"2873 Webster Avenue, The Bronx",Webster Ave,90
Hung Hing,Hung Hing Chinese Restaurant,90,"239 Bedford Park Boulevard # 2, The Bronx",2-01 50th Ave,86
La Rola,La Strada Pizzeria & Restaurant,86,"400 East 198th Street, The Bronx",Street,90
Chilpancingo,Lan King,68,"366a East 204th Street, The Bronx",Street,90
EL PASO DEL VAQUERO,El Mexicano,86,"374 East 204th Street, The Bronx",Street,90
La Nueva Estrella,La Nueva Estrella Restaurant,90,"390 East 204th Street #1, The Bronx",Street,90
Barry Mamdou,Barry's West Indian & American Restaurant,86,"2771 Webster Avenue, The Bronx",2771 Webster Ave,90
El Rinconcito Del Sabor Dominicano,El Patio Restaurant,86,"254 East 204th Street, The Bronx",Street,90
La Madrina,La Strada Pizzeria & Restaurant,86,"334 East Gun Hill Road, The Bronx",823 East 169th Street,86
Crown Chicken Burger & pizza,Pizza,90,"332 East Gun Hill Road, The Bronx",823 East 169th Street,86
Estrella Mileni,La Estrella Bar & Restaurant,86,"352 East Gun Hill Road, The Bronx",823 East 169th Street,86
Club Valle,El Valle Restaurant,86,"352 East Gun Hill Road, The Bronx",823 East 169th Street,86
Syana Fish Market,Fish Market,90,"337 East Gun Hill Road, The Bronx",823 East 169th Street,86
Empanadas on the Hill,620 on Caton Pizzeria and Restaurant,86,"343 East Gun Hill Road, The Bronx",823 East 169th Street,86
Yummie,Yummy Yummy,68,"376 East Gun Hill Road, The Bronx",823 East 169th Street,86
5 Star Pizza and Burgers,Star,90,"295 East Gun Hill Road, The Bronx",823 East 169th Street,86
Sing Fei,Sing Fei Chinese Restaurant,90,"263 East Gun Hill Road, The Bronx",823 East 169th Street,86
New Ming Liang Kitchen,New Fulin Kwok Seafood Restaurant,86,"236 East Gun Hill Road, The Bronx",823 East 169th Street,86
Dragon Garden,Tony's Dragon Garden Chinese Restaurant,90,"3178 Bainbridge Avenue, The Bronx",bainbridge ave,90
Mar Y Tierra,Mar y Tierra Restaurant and Lounge,90,"3236 Bainbridge Avenue, The Bronx",3236 Bainbridge Ave,90
New Star Coffee Shop & Deli,New Star Coffee Shop and Deli,95,"3150 Bainbridge Avenue, The Bronx",bainbridge ave,90
Nicky's Coffee Shop Inc,Nicky's Coffee Shop,95,"3140 Bainbridge Avenue, The Bronx",bainbridge ave,90
Sal's Pizzeria,Sal's Pizzeria,100,"3167 Bainbridge Avenue, The Bronx",bainbridge ave,90
La Casa De Frida,Casa,90,"307 East 204th Street, The Bronx",Street,90
Rodeo,Broadway Rodeo Restaurant,90,"2765 Webster Avenue, The Bronx",2765 Webster Ave,90
Billy’s Chimi-Fritura,Theresa's Polish American Restaurant,86,"2740 Webster Avenue, The Bronx",Webster Ave,90
Lagondol,La Gondola Deli,79,"2701 Decatur Avenue, The Bronx",2701 Decatur Ave,90
My Place Family Pizza,My Place Family Pizza,100,"240 East 198th Street, The Bronx",Street,90
Hong Kong Kitchen,Hong Kong Kitchen,100,"214 East 198th Street, The Bronx",Street,90
Kings Fried Chicken & Pizza,Pizza Fried Chicken,95,"232 East 198th Street, The Bronx",Street,90
Corky's,Corky's,100,"2537 Grand Concourse, The Bronx",Grand Concourse,90
Fordham Restaurant,Fordham Restaurant,100,"2506 Grand Concourse, The Bronx",Grand Concourse,90
Best Italian Pizza,Pizza,90,"202 East Fordham Road, The Bronx",Fordham Road,90
Bedford Luncheonette,Deli & Luncheonette (Nasser Candy Store),86,"26 Bedford Park Boulevard, The Bronx",4174 Bedford Ave,86
Wai Kang,Wai Kang Kitchen Chinese Food,90,"39 Bedford Park Boulevard, The Bronx",4174 Bedford Ave,86
Mi Casa Bakery,Mi Casa Bakery,100,"18 Bedford Park Boulevard West, The Bronx",147-18 Northern Blvd,86
Boca Restaurant and Lounge,Boca Restaurant And Lounge,100,"2458 Webster Avenue, The Bronx",2458 Webster Ave,90
3 Way,3 Way Restaurant,90,"384 East 188th Street, The Bronx",Street,90
Cris Juice Bar,El Morro Restaurant & Bar,86,"370 East 188th Street #5549, The Bronx",Street,90
Monte Pizza,Pizza Pizza,95,"360 East 188th Street, The Bronx",Street,90
Mega Seafood II,Sea,90,"2500 Webster Avenue, The Bronx",Webster Ave,90
Lucky Coming,Lucky,90,"2387 Washington Avenue, The Bronx",Washington Ave,90
Parrilla Latina,Cocina Latina Restaurant Corp,86,"2501 Webster Avenue, The Bronx",Webster Ave,90
China City,China City,100,"308 East 188th Street, The Bronx",Street,90
Kennedy's Chicken & Biscuits,Kennedy's,90,"4652 3rd Avenue, The Bronx",3rd Ave.,90
C & M Pizza,C&M Pizza,95,"2519 Webster Avenue, The Bronx",Webster Ave,90
Pizza Studio - Fordham,Pizza,90,"444 East Fordham Road, The Bronx",Fordham Road,90
Abraham,Abraham Restaurant,90,"2350 Washington Avenue, The Bronx",2350 Washington Ave,90
Fierce,Fiore,73,"2427 Morris Avenue, The Bronx",311 Avenue X,86
Diamante Poblano,Diamante Poblano 1 Bar & Restaurant,90,"2431 Jerome Avenue, The Bronx",2431 Jerome Ave,90
Gyro King,King Chinese Restaurant,86,"50 East Fordham Road, The Bronx",Fordham Road,90
Familys Cafe,Stars Cafe & Restaurant,86,"2378 Jerome Avenue, The Bronx",2378 Jerome Ave,90
3 Bros 99 Cent Pizza,Pizza,90,"5 West Fordham Road, The Bronx",Fordham Road,90
Taqueria Tenochtitlan,tacontendo taqueria y restaurant,86,"2445 Creston Avenue, The Bronx",Creston Ave,90
Beautiful Paradise,Bea,90,"2362 Jerome Avenue, The Bronx",2362 Jerome Ave,90
Fresh Frutii Juice Bar,La Kuchara Ecuadorian Restaurant Bar,86,"2449 Creston Avenue, The Bronx",Creston Ave,90
Maria Bonita Bakery Juice Bar,Bonita,90,"42 West Fordham Road, The Bronx",Fordham Road,90
Noel's Pizza 2,Noel's Pizza,95,"40 West Fordham Road, The Bronx",Fordham Road,90
Joey Pepperoni's Pizza,Joey Pepperoni's Pizza,100,"114 East Fordham Road, The Bronx",Fordham Road,90
Pico De Gallo Restaurant,Restaurant,90,"2233 Grand Concourse, The Bronx",Grand Concourse,90
Fa Bene Pizza,Pizza Pizza,95,"2197 Grand Concourse, The Bronx",Grand Concourse,90
Taco's Puebla # 1,Theresa's Polish American Restaurant,86,"2181 Grand Concourse, The Bronx",Grand Concourse,90
Le Wafou,Le Fatima Bar & Grill Restaurant,86,"2255 Grand Concourse, The Bronx",Grand Concourse,90
Lulo Seafood,Sea,90,"104 East 183rd Street, The Bronx",Street,90
Outfield,Butterfield 8,68,"106 East 183rd Street, The Bronx",Street,90
Estrella Mexicana,Mexicana,90,"106 East 183rd Street, The Bronx",Street,90
$ 1 Pizza Salvatore's,Pizza,90,The Bronx,"1095 Prospect Ave, Bronx, NY 10459",86
Marimba Bar Restaurant,Restaurant,90,"East 182nd Street, The Bronx",Street,90
Jamaican West Indies Restaurant,Restaurant,90,"2119 Grand Concourse, The Bronx",Grand Concourse,90
Paulette & Danny's Jamaican Restaurant,Restaurant,90,"2119 Grand Concourse, The Bronx",Grand Concourse,90
Lulo,Lulo Restaurant,90,"2264 Grand Concourse, The Bronx",Grand Concourse,90
Toms Coffee Shop,Tom's Coffee Shop,97,"250 East Burnside Avenue, The Bronx",196 23 Jamaica Avenue,86
AA Chinese Restaurant,AA Chinese Restaurant,100,"214 East Burnside Avenue, The Bronx",196 23 Jamaica Avenue,86
Nick's Pizza Lounge,Pizza,90,"292 East Burnside Avenue, The Bronx",196 23 Jamaica Avenue,86
El Conquistador,El Morro Restaurant & Bar,86,"301 East Burnside Avenue, The Bronx",196 23 Jamaica Avenue,86
Kennedy Chicken And Pizza,Kennedy Chicken and Pizza,100,"2041 Grand Concourse, The Bronx",Grand Concourse,90
La Estre,La Estrella Restaurant,90,"2051 Webster Avenue, The Bronx",2051 Webster Ave,90
The Point African Restaurant,The Point Restaurant,95,"2037 Webster Avenue #1, The Bronx",Webster Ave,90
La Estrella,La estrella,100,"2051 Webster Avenue, The Bronx",2051 Webster Ave,90
La Estrella,La estrella,100,"2104 Grand Concourse, The Bronx",Grand Concourse,90
Golden Wheel,Golden Wheel Chinese Restaurant,90,"2108 Grand Concourse, The Bronx",Grand Concourse,90
哲旺 KEE WONG RESTAURANT,Wong Kee Restaurant,95,"2129 Valentine Avenue, The Bronx",2129 Valentine Ave,90
Kennedy Fried Chicken pizza,Kennedy Fried Chicken & Pizza,96,"2115 Grand Concourse, The Bronx",Grand Concourse,90
Madison Cafe,Stars Cafe & Restaurant,86,"126 East Burnside Avenue, The Bronx",196 23 Jamaica Avenue,86
Chinese Kitchen,Halal Chinese Kitchen,95,"114 East Burnside Avenue, The Bronx",196 23 Jamaica Avenue,86
Beto's Mexican Food Pizza & Burgers,Pizza,90,"301 East 181st Street, The Bronx",181st,90
Pastarific,Star,90,"301 East 181st Street, The Bronx",181st,90
Chimichurri Frituras,MIMI,68,"1-7 East 181st Street, The Bronx",181st,90
El Jobo,El Jobo Seafood Restaurant,90,"54 East 181st Street, The Bronx",181st,90
Grand Express Deli Grocery,Express Deli & Grocery,95,The Bronx,"1095 Prospect Ave, Bronx, NY 10459",86
Running Cool Restaurant,Running Cool Restaurant,100,"2263 Jerome Avenue, The Bronx",2263 Jerome Ave,90
Oli 99 Cent Fresh Pizza,99 Cent Fresh Pizza,95,"2 East Burnside Avenue, The Bronx",2-01 50th Ave,86
El Caridad Burnside Restaurant,Restaurant,90,"90 East Burnside Avenue, The Bronx",90 Church Ave,86
183 Gold Fish Fish Market,Fish Market,90,"12 West 183rd Street, The Bronx",Street,90
Levulose Juice Bar & Cafe,Cafe 47,86,"13 West Burnside Avenue, The Bronx",196 23 Jamaica Avenue,86
Mia Pizza & Subs,Pizza Pizza,95,"13 West Burnside Avenue, The Bronx",196 23 Jamaica Avenue,86
Burnside finest deli,Deli,90,"6 West Burnside Avenue, The Bronx",196 23 Jamaica Avenue,86
King Dragon,King Dragon Restaurant,90,"120 East Mount Eden Avenue, The Bronx",196 23 Jamaica Avenue,86
Loly Pizza Restaurant,Pizza Restaurant,95,The Bronx,"1095 Prospect Ave, Bronx, NY 10459",86
Dominicana Pollo Sabroso,Lechonera Dominicana Pollo Sabroso - Del Valle Restaurant,90,"105 East Mount Eden Avenue, The Bronx",196 23 Jamaica Avenue,86
Aurora Fish,Fish,90,"128 East 174th Street, The Bronx",Street,90
Thaiba Fried Chicken,Crazy Chicken Restaurant & Coffee Shop,86,"162 East 174th Street, The Bronx",Street,90
Lo Tiger Grocery,Las Banderas Grocery & Restaurant,86,"230 East 174th Street, The Bronx",Street,90
Tigre Pizza,Pizza Pizza,95,"234 East 174th Street, The Bronx",Street,90
Taqueria Huarache,Mi Barrio Taqueria Restaurant,86,"16 East Mount Eden Avenue, The Bronx",196 23 Jamaica Avenue,86
Tuti Fruti Bakery,bakery,90,"9E East Mount Eden Avenue, The Bronx",196 23 Jamaica Avenue,86
Banana Queen,Queen,90,"6 East Mount Eden Avenue, The Bronx",196 23 Jamaica Avenue,86
La Moneda,La Moneda Restaurant,90,"1690 Jerome Avenue, The Bronx",1690 Jerome Ave,90
Thelma's Kitchen,Hell's Kitchen,87,"282 East 174th Street, The Bronx",Street,90
Nanny's Kichen LLC,Theresa's Polish American Restaurant,86,"282 East 174th Street, The Bronx",Street,90
Seafood House INC,Sea,90,"12 East Mount Eden Avenue, The Bronx",152-12 Northern Blvd,86
Food Hut,Food Hut,100,"3497 Boston Road, The Bronx",Boston Road,90
My Dream,Dream Restaurant,86,"3429 Eastchester Road, The Bronx",Rutland Road,86
Parrilla Internacional,Dominicano Internacional Restaurant,86,"3429 Eastchester Road, The Bronx",Rutland Road,86
Boston Road China,China Gourmet Chinese Restaurant,86,"3483 Boston Road, The Bronx",Boston Road,90
Mile Gully Restaurant & Lounge,Restaurant,90,The Bronx,"1095 Prospect Ave, Bronx, NY 10459",86
J&M Bella Pizza Corp.,Bella Pizza,90,The Bronx,"1095 Prospect Ave, Bronx, NY 10459",86
Little Negril,Little Bandgladesh Restaurant,86,"3470 Boston Road, The Bronx",Boston Road,90
Bambino's Best Pizza,Bambino's Pizza,95,"3467 Boston Road, The Bronx",Boston Road,90
Jerry's Pizza,Jerry's Pizza,100,"3430 Boston Road, The Bronx",Boston Road,90
Cooyah Restaurant,Restaurant,90,"3563 Boston Road, The Bronx",Boston Road,90
Flaming Delicious Jerk Cuisine,Deli,90,"3563B Boston Road, The Bronx",Boston Road,90
Deleecious Jerk Cuisine,Annie Chan's Japanese Cuisine Restaurant,86,"3563B Boston Road, The Bronx",Boston Road,90
China Top,China Gourmet Chinese Restaurant,86,"3563 A Boston Road, The Bronx",Boston Road,90
Hall Rentals,Zaffran Party Hall & restaurant,86,"3427 Boston Road, The Bronx",Boston Road,90
Vegan's Delight,Deli,90,"3565 Boston Road, The Bronx",Boston Road,90
EazyLife Restaurant & Lounge,Lounge & Restaurant,95,"1300 East 222nd Street, The Bronx",Street,90
Triple Deuce Restaurant & Grill,Restaurant,90,"3601 Boston Road, The Bronx",Boston Road,90
Hong Hsi,Hong Kong Restaurant,86,"2051 Bartow Avenue, The Bronx",2051 Bartow Ave,90
Joyful Dragon,Dragon Chinese Restaurant,86,"2829 Edson Avenue, The Bronx",Between 39th and 40th street on 13th Avenue,86
Dragon City,Dragon City Chinese Restaurant,90,"2102 Bartow Avenue, The Bronx",311 Avenue X,86
Bagel Cafe,Stars Cafe & Restaurant,86,"2214 Bartow Avenue, The Bronx",311 Avenue X,86
Capri II Pizzeria,La Strada Pizzeria & Restaurant,86,"149 Dreiser Loop, The Bronx",149-44 41st Ave,86
Triple T,T&G Restaurant Spot,86,"3740 Boston Road, The Bronx",Boston Road,90
Family Pizza Restaurant,Pizza Restaurant,95,The Bronx,"1095 Prospect Ave, Bronx, NY 10459",86
The Original Dumpling Shop,Dumpling House,86,"3435 Baychester Avenue, The Bronx",Baychester Avenue,90
Country Thyme Cuisine,Annie Chan's Japanese Cuisine Restaurant,86,"1455 East 222nd Street, The Bronx",Street,90
Dunkin donuts,Dunkin',90,"3800 Boston Road, The Bronx",Boston Road,90
The Dumpling Cove,The Golden Glass Restaurant,86,"1530 East 222nd Street #2619, The Bronx",Street,90
WIFGlobal,Glow,68,"120 Erdman Place, The Bronx",120 W 45th St,86
Jade Palace Restaurant,Jade Restaurant,95,"163 Einstein Loop North, The Bronx",1924 Cross Bronx Expy,86
ANDY’S Taco Japanese & Mexican Food,Moti's,86,"Co-op City Sec 5, 171 Einstein Loop South, The Bronx",171-01 Northern Blvd,86
Section 5 Pizza,Pizza Pizza,95,"133 Einstein Loop North, The Bronx",133 Rockaway Ave,86
Sbarro,Mi Barrio Taqueria Restaurant,75,"200 Baychester Avenue, The Bronx",Baychester Avenue,90
Thai Max,Max,90,"Mall at Bay Plaza, 200 Baychester Avenue, The Bronx",Baychester Avenue,90
Chicken Now,Kennedy Fried Chicken,86,"Mall at Bay Plaza, 200 Baychester Avenue FF3, The Bronx",Baychester Avenue,90
Dairy Queen Grill & Chill,Queen,90,"200 Baychester Avenue, The Bronx",Baychester Avenue,90
Alex's Tacos,Theresa's Polish American Restaurant,86,"744 East Tremont Avenue, The Bronx",196 23 Jamaica Avenue,86
Home Garden,Garden 13 Dairy Restaurant and Pizza,86,"1806 Crotona Avenue, The Bronx",311 Avenue X,86
Cosmo's,Theresa's Polish American Restaurant,86,"726 East Tremont Avenue, The Bronx",196 23 Jamaica Avenue,86
J & J Restaurant & Cuchifritos,J J Restaurant & Cuchifritos,97,"718 East Tremont Avenue, The Bronx",196 23 Jamaica Avenue,86
Vicjona Meat Market,Seafish Market Seafood Restaurant,86,"733 East Tremont Avenue, The Bronx",196 23 Jamaica Avenue,86
Linda's Pizza,Pizza Pizza,95,"729 East Tremont Avenue, The Bronx",196 23 Jamaica Avenue,86
10:02,Fooda at 10 Hudson Yards,86,"806 East Tremont Avenue, The Bronx",196 23 Jamaica Avenue,86
El Nuevo Bohío,El Nuevo Bohio,96,"791 East Tremont Avenue, The Bronx",196 23 Jamaica Avenue,86
North Star Cafe,Star,90,"850 East Tremont Avenue, The Bronx",196 23 Jamaica Avenue,86
Yaque River Lounge,Taipan Fusion Restaurant and Hookah Lounge,86,"860 East Tremont Avenue, The Bronx",196 23 Jamaica Avenue,86
Sanbra Door Restaurant,Restaurant,90,"861 East Tremont Avenue, The Bronx",196 23 Jamaica Avenue,86
Sanbra African Market,Seafish Market Seafood Restaurant,86,"861 East Tremont Avenue # 4, The Bronx",196 23 Jamaica Avenue,86
Jumbo,Jumbo Chinese Restaurant,90,"1915 Southern Boulevard, The Bronx",1915 Coney Island Ave,86
Anthony & Joe's Pizza,Anthony and Joe's Pizza,95,"1941 Southern Boulevard, The Bronx",901 Southern Blvd,86
Roy's Restaurant & Bar,Roy's Restaurant,95,"880 East Tremont Avenue, The Bronx",196 23 Jamaica Avenue,86
kennedy Chicken.Pizza.Burger,Kennedy Pizza & Chicken,95,United States,"2578 Broadway, New York, NY 10025, United States",90
Rainbow Chinese Restaurant,Rainbow Chinese Restaurant,100,"613 East Tremont Avenue, The Bronx",196 23 Jamaica Avenue,86
TGI Isaac,Isaac Natural Food,86,"2357 Prospect Avenue, The Bronx",311 Avenue X,86
Angels Cafe',Stars Cafe & Restaurant,86,"743 East 187th Street, The Bronx",Street,90
Dragon Sea,Sea,90,"2302 Crotona Avenue, The Bronx",2302 Crotona Ave,90
Kennedy Chicken & Pizza,Kennedy Chicken & Pizza,100,"2273 Crotona Avenue, The Bronx",311 Avenue X,86
Majestic Restaurant Bronx,Restaurant,90,"711 East 187th Street, The Bronx",Street,90
Sake II,Bar Sol De Quito Restaurant II,86,"690 East 187th Street, The Bronx",Street,90
Niniscake,Esca,68,"788 East 182nd Street, The Bronx",Street,90
Mario's Pizza And Homemade Cuisine,Mario's Pizza,90,"699 East 187th Street, The Bronx",Street,90
Fish Chip Fish Market & Seafood,Fish Market,90,"684 East 187th Street, The Bronx",Street,90
Luconi NYC,The NYC Bull - Restaurant & Rotisserie,86,"New York, 689 East 187th Street Store #1",New York,90
ARTHUR AVENUE,Ann & Tony's - An Original Arthur Avenue Restaurant,90,"East 187th Street, The Bronx",Street,90
Joe's Italian Deli,Deli,90,"685 East 187th Street, The Bronx",Street,90
SYL fish market,Fish Market,95,"East 187th Street, The Bronx",Street,90
kennedy fried chicken,Kennedy Fried Chicken,100,"667 East 187th Street, The Bronx",Street,90
Knapp Street Deli,Deli,90,"2771 Knapp Street, Brooklyn",brooklyn,90
Jordans Lobster,Gold Lobster Restaurant,86,"2771 Knapp Street, Brooklyn",brooklyn,90
La Vue,La Vue Restaurant,90,"3202 Emmons Avenue, Brooklyn",3202 Emmons Ave,90
Kouros Bay Diner,Diner,90,"3861 Nostrand Avenue, Brooklyn",Nostrand Avenue,90
Connie's Pizzeria,Connie's Pizzeria,100,"3845 Nostrand Avenue, Brooklyn",Nostrand Avenue,90
Flaming Grill and Modern Buffet,C B Finger Licking Jamaican and West Indian Restaurant,86,"3839 Nostrand Avenue, Brooklyn",Nostrand Avenue,90
Knights of Columbus,Ranch Restaurant and Bar of Guyana,86,"3000 Emmons Avenue, Brooklyn",brooklyn,90
Roll N Roaster,All Refrigeration 'N Restaurant Equipment,86,"2901 Emmons Avenue, Brooklyn",brooklyn,90
Cactus,Castros,62,"3850 Nostrand Avenue, Brooklyn",Nostrand Avenue,90
Jordan's Lobster Dock,Theresa's Polish American Restaurant,86,"3165 Harkness Avenue, Brooklyn",brooklyn,90
TGI Fridays,R/GA Friday Food Truck Fantastico,66,"3181 Harkness Avenue, Brooklyn",brooklyn,90
Vanka Cafe,Stars Cafe & Restaurant,86,"3810 Nostrand Avenue, Brooklyn",Nostrand Avenue,90
Chopstix Restaurant,Restaurant,90,"3790 Nostrand Avenue, Brooklyn",Nostrand Avenue,90
Rocca Cafe & Lounge,Cafe 47,86,"2712 Emmons Avenue, Brooklyn",brooklyn,90
Liman,Liman Restaurant,90,"2710 Emmons Avenue, Brooklyn",2710 Emmons Ave,90
Clemente's Maryland Crab House,Clement,90,"3939 Emmons Avenue, Brooklyn",brooklyn,90
Victoria Pizzeria,La Strada Pizzeria & Restaurant,86,"2716 Gerritsen Avenue, Brooklyn",brooklyn,90
Private Dining,Restaurant With Private Rooms,86,"184 Oxford Street, Brooklyn",brooklyn,90
Panini Tozt Cafe,Cafe 47,86,"1617 Oriental Boulevard, Brooklyn",brooklyn,90
Burger Box,Sammy's Fish Box Restaurant,86,"2930 Avenue X, Brooklyn",brooklyn,90
Thai Basil,Mekong Thai & Vietnamese Restaurant,86,"3682 Nostrand Avenue, Brooklyn",Nostrand Avenue,90
Pia's Pizzeria Ristorante,Moti's,86,"3682A Nostrand Avenue, Brooklyn",Nostrand Avenue,90
BBQ & GYRO Halal,Halal,90,"3680 Nostrand Avenue, Brooklyn",Nostrand Avenue,90
Mei Mei,Mei Mei Chinese Restaurant,90,"3566 Nostrand Avenue, Brooklyn",3566 Nostrand Ave,90
King Wok TakeOut,King Wok,90,"3510 Nostrand Avenue, Brooklyn",Nostrand Avenue,90
Brisas Del Mar,El Monstro del Sazon Pizzaria & Restaurant,86,"9902 Rockaway Beach Boulevard, New York",New York,90
Happy Jack's,Theresa's Polish American Restaurant,86,"108-13 Rockaway Beach Drive, Queens",188-13 Jamaica Ave,86
RBQ,Korean BBQ Restaurant,60,"97-20 Rockaway Beach Boulevard, Far Rockaway",Cristofordo Columbo Boulevard,86
Xing Xing,Lee Xing,95,"9712 Rockaway Beach Boulevard, Rockaway Beach",Cristofordo Columbo Boulevard,86
Whit's End,Theresa's Polish American Restaurant,86,"97-02 Rockaway Beach Boulevard, Far Rockaway",Cristofordo Columbo Boulevard,86
La Barracuda,La Strada Pizzeria & Restaurant,86,"Beach 97th Street, Queens",Street,90
Ciro's Pizza,Pizza Pizza,95,"11303 Beach Channel Drive, Far Rockaway",133 Rockaway Ave,86
Te Quiero,Te-Amo Deli Express,86,"11114 Rockaway Beach Boulevard, New York",New York,90
Rockaway Dog House,Hunan House Chinese Restaurant,86,"95-19 Rockaway Beach Boulevard, Rockaway Beach",Cristofordo Columbo Boulevard,86
Bernadette’s,Theresa's Polish American Restaurant,86,"95-19 Rockaway Beach Boulevard, Rockaway Beach",Cristofordo Columbo Boulevard,86
Thai Rock,Mekong Thai & Vietnamese Restaurant,86,"375 Beach 92nd Street, Far Rockaway",Street,90
Stop on the rock,The Golden Glass Restaurant,86,"112-16 Rockaway Beach Boulevard, Rockaway Park",Cristofordo Columbo Boulevard,86
Bungalow Bar,El Morro Restaurant & Bar,86,"377 Beach 92nd Street, Queens",Street,90
Meyermac Elmhurst,Coffee Truck Front Entrance @ Elmhurst,86,"9118 Beach Channel Drive, Rockaway Beach",133 Rockaway Ave,86
Big Apple,Big Apple Restaurant,90,"114-07 Beach Channel Drive, Rockaway Park",95-07 31st Ave,86
La Cevicheria,La Strada Pizzeria & Restaurant,86,"97-01 Shore Front Parkway, Rockaway Beach",171-01 Northern Blvd,86
Palenque,Le Banquet,67,"9701 Shore Front Parkway, Far Rockaway",Front,90
Pico RBNY,Poco,68,"419 Beach 129th Street, New York",New York,90
harbor light pub,Big D's Old Harbor Restaurant,86,"129-18 Newport Avenue, Rockaway Park",147-18 Northern Blvd,86
Two Dudes,Two Four One St Cafe Restaurant,86,"16702 Rockaway Beach Blvd Bay 2, Rockaway Park",147-18 Northern Blvd,86
Palenque Colombian food,Sunshine Restaurant Food & Catering Inc,86,Rockaway Park,1430 Rockaway Parkway,90
O'Sake,O S Restaurant,86,"263 B 116th Street, New York",New York,90
Kam Fung,Kam Hung,88,"261 B 116th Street, Rockaway Park",Street,90
Belle Harbor Steak House,Tokyo Steak,86,"268 B 116th Street, New York",New York,90
Ed & Ben's,Theresa's Polish American Restaurant,86,"16702 Rockaway Beach Boulevard, Rockaway Park",Cristofordo Columbo Boulevard,86
Ample Hills,Tuscan Hills Restaurant,86,"16702 Rockaway Beach Boulevard, Rockaway Park",Cristofordo Columbo Boulevard,86
The Dropout,The Golden Glass Restaurant,86,"16702 Rockaway Beach Boulevard, Far Rockaway",Cristofordo Columbo Boulevard,86
Riis Park Beach Bazaar,Bea,90,"16702 Rockaway Beach Boulevard, Rockaway Park",Cristofordo Columbo Boulevard,86
Riis Park Beach Bazaar,Bea,90,"16702 Rockaway Beach Boulevard, Queens",13861 Queens Blvd,86
Kim's Restaurant,Karim's Restaurant,94,"116-06 Rockaway Beach Boulevard, Rockaway Park",Cristofordo Columbo Boulevard,86
Last Stop Gourmet Shop,Acapella Gourmet Pizza & Restaurant,86,"222 B 116th Street, New York",New York,90
Pizza D'amore,Pizza D'Amore,100,"208 B 116th Street, Queens",Street,90
Sakura Japanese restaurant,Asakura Japanese Restaurant,98,"215 B 116th Street, Queens",Street,90
Rockaway Crown,The Triple Crown Ale House & Restaurant,86,"115-9 Rockaway Beach Boulevard, Rockaway Park",Cristofordo Columbo Boulevard,86
Ciro's,Ciro,90,"171 B 116th Street, Rockaway Park",Street,90
Brisas Del Mar II,Bar Sol De Quito Restaurant II,86,"160 B 116th Street, Rockaway Park",Street,90
Tiberio Di Mare,Fontana Di Trevi Restaurant,86,"155 B 116th Street, New York",New York,90
Cuisine By Claudette,Annie Chan's Japanese Cuisine Restaurant,86,"143 B 116th Street, Queens",Street,90
The RoadHouse,The Golden Glass Restaurant,86,"1400 Clove Road, Staten Island",563 Coney Island Ave,86
New Wing Hing,New Win Hing,96,"1282 Clove Road, Staten Island",563 Coney Island Ave,86
La Rosa Chicken & Grill - Victory Boulevard,LA Cazuela Restaurant,86,"1172 Victory Boulevard, Staten Island",2670 Coney Island Ave,86
Napoli Pizza,Napoli pizza,100,"1206 Victory Boulevard, Staten Island",2670 Coney Island Ave,86
Clove Lakes Boat House,Dumpling House,86,"1150 Clove Road, Staten Island",563 Coney Island Ave,86
Marie's Gourmet,Theresa's Polish American Restaurant,86,"977 Victory Boulevard, Staten Island",2670 Coney Island Ave,86
Alhumza,Al-Humza,93,"629 Richmond Road, Staten Island",2670 Coney Island Ave,86
El Pollo Restaurant,El Pollo Restaurant,100,"558-60 Richmond Road, Staten Island",2670 Coney Island Ave,86
My Pizza and Restaurant,Pizza Restaurant,95,"755 Targee Street, Staten Island",Street,90
Inch Away Healthy Diet Food,Inch Away Healthy Diet Food,100,"943 Van Duzer Street, Staten Island",Street,90
New Phoenix,New Phoenix Restaurant,90,"480 Targee Street # 4, Staten Island",480 Targee St,90
TRI Lounge & Cafe,Cafe 47,86,"1938 Clove Road, Staten Island",563 Coney Island Ave,86
Mama's Cuisine,Theresa's Polish American Restaurant,86,"360 Targee Street, Staten Island",Street,90
Mona's Cuisine,Theresa's Polish American Restaurant,86,"360 Targee Street, Staten Island",Street,90
Richmond Pizza,Pizza Pizza,95,"1060 Richmond Road, Staten Island",2670 Coney Island Ave,86
Tolins Gourmet Deli,Deli,90,"2050 Clove Road, Staten Island",563 Coney Island Ave,86
Ambrosio Italian Restaurant & Banquet Hall,Ambrosio Italian Restaurant & Banquet Hall,100,"2071 Clove Road, Staten Island",2071 Clove Road,90
The Coupe,The Golden Glass Restaurant,86,"379 Van Duzer Street, Staten Island",Street,90
The Hop Shoppe,The Golden Glass Restaurant,86,"372 Van Duzer Street, Staten Island",Street,90
The Best Coffee Shop,Best Coffee Shop,95,"117 Water Street, Staten Island",Water Street,90
Bay House Bistro,Hunan House Chinese Restaurant,86,"574 Bay Street, Staten Island",Bay St,90
El Patron Restaurant and Lounge,Restaurant,90,"520 Bay Street, Staten Island",520 Bay St,90
The Corner Grind Cafe & the Corner Pocket Billiards,Stars Cafe & Restaurant,86,"510 Bay Street, Staten Island",Bay St,90
Bari's Pizza Pasta,pizza & pasta,95,"596 Bay Street, Staten Island",Bay St,90
Candy Zone Wholesale Distributor,The Restaurant Zone,86,"92 Canal Street, Staten Island",Street,90
The Gallery Banquet Room,World Fair Marina Restaurant & Banquet,86,"293 Van Duzer Street, Staten Island",Street,90
Frank's Bay Pizza,Frank's Pizza,95,"117 Broad Street, Staten Island",Street,90
Romeo's Pizza,Romeo's Pizza,100,"117 Broad Street, Staten Island",Street,90
Mexico Azteca,Mexico Azteca Grocery Deli & Restaurant,90,"33 Broad Street, Staten Island",33 Broad St,90
La Cabaña Del Tio,La Strada Pizzeria & Restaurant,86,"635 Bay Street, Staten Island",635 Bay St,90
Tia’s Restaurant,Tita's Restaurant,97,"635 Bay Street, Staten Island",635 Bay St,90
Crust Pizzeria,CRUST,90,"2071 Clove Road, Staten Island",2071 Clove Road,90
Golden Star,Golden Star,100,"2110 Clove Road, Staten Island",563 Coney Island Ave,86
Zabrosura,Que Sabrosura Restaurant,80,"2110 Clove Road, Staten Island",563 Coney Island Ave,86
Phil-Am Kusina,Phil & Sons Pizzeria & Restaurant,86,"556 Tompkins Avenue, Staten Island",Tompkins Ave,90
Via Margherita Ristorante Italiano,Pino's Ristorante,86,"452 Tompkins Avenue, Staten Island",Tompkins Ave,90
Pizza Mia,La Mia Pizza,95,"529 Tompkins Avenue, Staten Island",Tompkins Ave,90
Good Wok,Wok Wok,95,"375 Tompkins Avenue, Staten Island",Tompkins Ave,90
J&A In & Out Deli & Grill,Deli,90,"147 Fingerboard Road, Staten Island",147-18 Northern Blvd,86
New Choi Hee,New Choi Hee,100,"426 Bay Street, Staten Island",426 Bay St,90
My Family Pizza,My Place Family Pizza,95,"340 Victory Boulevard, Staten Island",2670 Coney Island Ave,86
Ceylon Curry,Kabab & Curry Restaurant,86,"324 Victory Boulevard, Staten Island",2670 Coney Island Ave,86
New Asha,New Asha,100,"322 Victory Boulevard, Staten Island",2670 Coney Island Ave,86
Dosa Garden,Garden 13 Dairy Restaurant and Pizza,86,"323 Victory Boulevard, Staten Island",2670 Coney Island Ave,86
NEW YORK LANKA INC.,New Fulin Kwok Seafood Restaurant,86,"313 Victory Boulevard, Staten Island",2670 Coney Island Ave,86
Morelos Mexican Restaurant & Deli,Restaurant,90,"6 Cebra Avenue, Staten Island",311 Avenue X,86
Chez Adja,Adja Khady Food Distributor,86,"226 Bay Street, Staten Island",Bay St,90
Craft House,Craft,90,"60 Van Duzer Street, Staten Island",Street,90
Tacos El Pinguino,El TRI MX Restaurant & Bar,86,"181 Bay Street, Staten Island",Bay St,90
O'Henry's Publick House,Theresa's Polish American Restaurant,86,"10 Minthorne Street, Staten Island",Street,90
Daddy'Os BBQ & Sports Bar,"Caribbean American Ent. Bar, Lounge & Restaurant",86,"181 Bay Street, Staten Island",Bay St,90
ADAM'S HALAL FOOD,Adam's Halal Food,100,"181 bay street Cross street from Tompkinsville park, Staten Island",Between 39th and 40th street on 13th Avenue,86
M & K,L&K Jamaican Restaurant,86,"190 Bay Street, Staten Island",190 Bay St,90
Chef Hong Kitchen,Chang Jiang Kitchen Chinese Restaurant,86,"55 Victory Boulevard, Staten Island",2670 Coney Island Ave,86
SI FISH & MORE INC,Fish,90,"137 Montgomery Avenue, Staten Island",196 23 Jamaica Avenue,86
Shorty's Roti Shop,Shorty's Roti Shop,100,"65 Victory Boulevard, Staten Island",2670 Coney Island Ave,86
El Pastorcito,El Morro Restaurant & Bar,86,"74 Victory Boulevard, Staten Island",2670 Coney Island Ave,86
Holland Bay Restaurant,Bay restaurant,90,"78 Victory Boulevard, Staten Island",2670 Coney Island Ave,86
Taqueria el gallo azteca,Azteca,90,"75 Victory Boulevard, Staten Island",2670 Coney Island Ave,86
Cinderellas,Cinderellas Restaurant,90,"108 Victory Boulevard, Staten Island",2670 Coney Island Ave,86
Sagara,Agra,80,"98 Victory Boulevard, Staten Island",2670 Coney Island Ave,86
Fire Grilled Burgers,"Kennedy's Fried Chicken, Pizza & Burgers",86,"1077 Bay Street #1, Staten Island",Bay St,90
Bayou,Les Babouches Restaurant,72,"1072 Bay Street, Staten Island",Bay St,90
Montalbano's,Montalbano's Italian Food Specialties,90,"1140 Bay Street G, Staten Island",1140 Bay St,90
Tony's Brick Oven,Theresa's Polish American Restaurant,86,"1140 Bay Street, Staten Island",1140 Bay St,90
J's On The Bay,Theresa's Polish American Restaurant,86,"1189 Bay Street, Staten Island",1189 Bay St,90
Sofia's Taqueria,Sofia's,90,"977 Bay Street, Staten Island",Bay St,90
Maizal Restaurant & Tequila Bar,Restaurant,90,"990 Bay Street, Staten Island",Bay St,90
New Win Hing,New Win Hing,100,"1180 Bay Street, Staten Island",1180 Bay St,90
Bin 5,Kyoto Sushi 5,86,"1233 Bay Street, Staten Island",Bay St,90
The Phunky Elephant,The Loft BKNY Restaurant & Lounge,86,"1271 Bay Street, Staten Island",Bay St,90
Kum Fung,Sum Fung,88,"838 Bay Street, Staten Island",Bay St,90
Island Garden,Garden 13 Dairy Restaurant and Pizza,86,"1364 Bay Street, Staten Island",Bay St,90
Rose Bank Pizza,Pizza Pizza,95,"1372 Bay Street, Staten Island",Bay St,90
Bay Street Tavern,Golden Bay Parkway Restaurant Inc,86,"1384 Bay Street, Staten Island",Bay St,90
Best Yummy,Yummy Yummy,95,"16057 Rockaway Boulevard, Queens",13861 Queens Blvd,86
Rockaway Plaza Delicatessen,'Essen,90,"160-49 Rockaway Boulevard, Jamaica",196 23 Jamaica Avenue,86
L'amici Pizza & Pasta,Pizza,90,"16053 Rockaway Boulevard, Jamaica",196 23 Jamaica Avenue,86
Forever Jerk,Jerk-A-Rona Restaurant and Grill,86,"145-94 Guy R Brewer Boulevard, Jamaica",196 23 Jamaica Avenue,86
Devine Bickles Restaurant,Devine Bickles Restaurant,100,"157-21 Rockaway Boulevard, Queens",45-21 Parsons Blvd,86
China Inn Express,China Express,95,"157-15 Rockaway Boulevard, Jamaica",91-15 31st Ave,86
TASTEMYPLATE,Taste,90,"158-02 Rockaway Boulevard, Queens",205-02 Hillside Ave,86
Maru Express Grill,Golden Krust Caribbean Bakery and Grill,86,"158-02 Rockaway Boulevard, Jamaica",196 23 Jamaica Avenue,86
New Butterfly Restaurant,Restaurant,90,"145-109 Guy R Brewer Boulevard, Jamaica",109-08 Northern Blvd,86
Rockaway Deli & Restaurant,Restaurant,90,"158th Street, Jamaica",Street,90
Fortune Cafe,Stars Cafe & Restaurant,86,"15707 Rockaway Boulevard, Jamaica",196 23 Jamaica Avenue,86
Early B Cuisine,Annie Chan's Japanese Cuisine Restaurant,86,"137-42 Guy R Brewer Boulevard, Jamaica",196 23 Jamaica Avenue,86
Xinbao Restaurant,Cibao Restaurant,91,"13742 Guy R Brewer Boulevard, Jamaica",196 23 Jamaica Avenue,86
Pimento Jamaican Cuisine,Annie Chan's Japanese Cuisine Restaurant,86,"137-42 Guy R Brewer Boulevard, Jamaica",196 23 Jamaica Avenue,86
Jamaican Flavors Restaurant & Bakery,Jamaican Flavors Restaurant,95,"14795 Farmers Boulevard, Jamaica",196 23 Jamaica Avenue,86
Breakfast Club,Sugar Hill Restaurant & Supper Club,86,"147-07 Guy R Brewer Boulevard, Jamaica",147-18 Northern Blvd,86
BBQ Mississippi Joe,Ding BBQ and Hot Pot Restaurant,86,"147-07 Guy R Brewer Boulevard, Jamaica",147-18 Northern Blvd,86
The Queens Food Court,Queen,90,"147-07 Guy R Brewer Boulevard, Jamaica",147-18 Northern Blvd,86
Catfish Cafe,Catfish,90,"14707 Guy R Brewer Boulevard, Jamaica",196 23 Jamaica Avenue,86
NYC Wild Wings,The NYC Bull - Restaurant & Rotisserie,86,"147-07 Guy R Brewer Boulevard, Jamaica",147-18 Northern Blvd,86
Philly Mob Burgers,"Kennedy's Fried Chicken, Pizza & Burgers",86,"147-07 Guy R Brewer Boulevard, Jamaica",147-18 Northern Blvd,86
Best Deli,Best Buy Deli,95,"147-45 182nd Street, Jamaica",Street,90
Erica's Caribbean Cruise,Bea,90,"219-25 North Conduit Avenue, Springfield Gardens",33-25 Francis Lewis Blvd,86
Mario's Pizza,Mario's Pizza,100,"14929 Guy R Brewer Boulevard, Jamaica",196 23 Jamaica Avenue,86
Boulevard Deli & Grill,Deli,90,"14924 Guy R Brewer Boulevard, Queens",13861 Queens Blvd,86
Foo An Kitchen,Halal Chinese Kitchen,86,"22318 South Conduit Avenue, Jamaica",196 23 Jamaica Avenue,86
Breezes Island Grill Resturant and Lounge,Breezes Island Grill Restaurant and Lounge,99,"230-06 & 08, South Conduit Avenue, Rosedale",109-08 Northern Blvd,86
Alta Villa Cafe,Alta,90,"230-59 Rockaway Boulevard, Springfield Gardens",Cristofordo Columbo Boulevard,86
Pa-Nash Eurosoul,Eros,68,"144-14 243rd Street, Rosedale",Street,90
3 In 1 FS&H Jamaican Restaurant,Restaurant,90,"14412 243rd Street, Rosedale",Street,90
Winner Restaurant,Wine Restaurant,94,"14406 243rd St, Rosedale, Rosedale, NY, 11422+2328, Rosedale",1100 60th St,86
Jamaican Flavors,Jamaican Flavors Restaurant,90,"22409 141st Avenue, Jamaica",22409 141st Ave,90
Camille Curtis Co Inc,Sunshine Restaurant Food & Catering Inc,86,"2249 141st Avenue, Jamaica",1st ave.,90
S. Gardens,Theresa's Polish American Restaurant,86,"140-14 Springfield Boulevard, Jamaica",196 23 Jamaica Avenue,86
Husky Meals INC,Sunshine Restaurant Food & Catering Inc,86,"18417 140th Avenue, Springfield Gardens",196 23 Jamaica Avenue,86
C.C. deli grocery inc.,Grocery Deli Inc,95,"138-69 Francis Lewis Boulevard, Jamaica",33-25 Francis Lewis Blvd,86
Best Wok,Wok Wok,95,"13875 Francis Lewis Boulevard, Rosedale",33-25 Francis Lewis Blvd,86
Henrica's,Henrica's Restaurant And Lounge,90,"138-89 Francis Lewis Boulevard, Rosedale",33-25 Francis Lewis Blvd,86
Calabash Experience,The Blessed Kitchen Experience,86,"21706 Merrick Boulevard, Springfield Gardens",Cristofordo Columbo Boulevard,86
Empire Pan Asian Bistro,Asian Food Ltd.,86,"2740 Hylan Boulevard, Staten Island",Hylan Boulevard,90
Empire East,C&L Of East Ocean Restaurant,86,"2740 Hylan Boulevard, Staten Island",Hylan Boulevard,90
Canlon's,Canlon's,100,"1825 North Railroad Avenue, Staten Island",196 23 Jamaica Avenue,86
Jersey Mike's Subs,Theresa's Polish American Restaurant,86,"2714 Hylan Boulevard, Staten Island",Hylan Boulevard,90
La Rosa Chicken & Grill - Guyon Avenue,LA Cazuela Restaurant,86,"84 Guyon Avenue, Staten Island",311 Avenue X,86
La Rosa Chicken & Grill - Guyon Avenue,LA Cazuela Restaurant,86,"84 Guyon Avenue, Staten Island",311 Avenue X,86
Justino's Pizza,Pizza Pizza,95,"89 Guyon Avenue, Staten Island",311 Avenue X,86
Greek Festival Food Truck,Food Truck,90,"Hylan Blvd Ebbitts Road 2700, Staten Island",Hylan Blvd,90
La Fontana,La Fontana Restaurant,90,"2879 Amboy Road, Staten Island",563 Coney Island Ave,86
Gourmet Chef,China Gourmet Chinese Restaurant,86,"3201 Richmond Road # A, Staten Island",29-30  A Union St,86
Classic Pizza,Pizza Pizza,95,"3201 Richmond Road, Staten Island",2670 Coney Island Ave,86
Li's Happy Family,Theresa's Polish American Restaurant,86,"8 New Dorp Lane, Staten Island",4417 New Utrecht Ave,86
Trackside Bar & Grill,La Kuchara Ecuadorian Restaurant Bar,86,"61 New Dorp Plaza, Staten Island",4417 New Utrecht Ave,86
Nori sushi,Nori,90,"55 New Dorp Plaza, Staten Island",4417 New Utrecht Ave,86
"Changes Nutritional Therapy, Fitness and Wellness Center",Ghoroa Sweets and Restaurant,86,"14 Rockland Avenue, Staten Island",196 23 Jamaica Avenue,86
Plaza Pizza,Pizza Pizza,95,"50 New Dorp Plaza, Staten Island",4417 New Utrecht Ave,86
Cafe Con Pan,Stars Cafe & Restaurant,86,"32 New Dorp Plaza, Staten Island",4417 New Utrecht Ave,86
Ambrosino's Pizzeria & Restaurant,Restaurant,90,"3161 Amboy Road, Staten Island",563 Coney Island Ave,86
Oakwood Diner,Diner,90,"3161 Amboy Road, Staten Island",563 Coney Island Ave,86
Domenico's Pizzeria,Domenick's Pizzeria,95,"3295 Amboy Road, Staten Island",563 Coney Island Ave,86
Supreme Memorials,Taste Supreme Jamaican Restaurant,86,"3316 Amboy Road, Staten Island",563 Coney Island Ave,86
Casa Verde Restaurant,Restaurant,90,"3471 Richmond Road, Staten Island",2670 Coney Island Ave,86
Corner House BBQ,Hunan House Chinese Restaurant,86,"100 Lincoln Avenue, Staten Island",100 Lincoln Ave,90
Panino Rustico Staten Island,Sushi Island,86,"2110 Richmond Road, Staten Island",2670 Coney Island Ave,86
Cucina Fresca,Esca,90,"2110 Richmond Road, Staten Island",2670 Coney Island Ave,86
Fushimi,Fushimi Japanese Restaurant,90,"2110 Richmond Road, Staten Island",2670 Coney Island Ave,86
Inca's Grill Peruvian Kitchen,Moti's,86,"126 Lincoln Avenue, Staten Island",126 Lincoln Ave,90
New Panda Garden,Panda Garden,95,"128 Lincoln Avenue, Staten Island",196 23 Jamaica Avenue,86
Violette's Cellar,Theresa's Polish American Restaurant,86,"2271 Hylan Boulevard, Staten Island",Hylan Boulevard,90
La Strada,La Strada,100,"139 New Dorp Lane, Staten Island",4417 New Utrecht Ave,86
Simple Asia,Asia Chinese Restaurant,86,"2333 Hylan Boulevard, Staten Island",Hylan Boulevard,90
John's Famous Deli,Deli,90,"173 New Dorp Lane, Staten Island",4417 New Utrecht Ave,86
Poke Fusion,Taipan Fusion Restaurant and Hookah Lounge,86,"2351 Hylan Boulevard, Staten Island",Hylan Boulevard,90
The Chinese Kitchen,"Golden Forest Chinese Restaurant, Brooklyn Ny",86,"201 New Dorp Lane, Staten Island",4417 New Utrecht Ave,86
99 Favor Taste,Favor Taste,95,"201 New Dorp Lane, Staten Island",4417 New Utrecht Ave,86
Verrazano Grill,Golden Krust Caribbean Bakery and Grill,86,"628 Midland Avenue, Staten Island",196 23 Jamaica Avenue,86
Cuzzin Joe's Pizza,Pizza,90,"572 Midland Avenue, Staten Island",196 23 Jamaica Avenue,86
New Everybody's Kitchen,Theresa's Polish American Restaurant,86,"581 Midland Avenue, Staten Island",196 23 Jamaica Avenue,86
Lilya's Restaurant & Grill Cafe Gourmand,Restaurant,90,"548 Lincoln Avenue, Staten Island",196 23 Jamaica Avenue,86
Fig & Vine,D'VINE Restaurant & Wine Bar,86,"710 New Dorp Lane, Staten Island",4417 New Utrecht Ave,86
Uncle Louie G's Gourmet Italian Ice & Ice Cream New Dorp Lane,Ambrosia Italian and Albanian Restaurant,86,"706 New Dorp Lane #4932, Staten Island",4417 New Utrecht Ave,86
Juicy Lucy BBQ,Korean BBQ Restaurant,86,"809 Father Capodanno Boulevard, Staten Island",Cristofordo Columbo Boulevard,86
St Mary Abo Sefen Deli,Deli,90,"185 Roma Avenue, Staten Island",311 Avenue X,86
Shaloka Healthy Eatery - Staten Island,Island Grove Restaurant,86,"2230 Hylan Boulevard, Staten Island",Hylan Boulevard,90
How Greek it is!!,The Greek Family Restaurant,86,"2224 Hylan Boulevard, Staten Island",Hylan Boulevard,90
Ronnie's Sandwich Shoppe,Theresa's Polish American Restaurant,86,"2300 Hylan Boulevard, Staten Island",Hylan Boulevard,90
El dorado restaurante,El Dorado Restaurant,98,"2236 Hylan Boulevard, Staten Island",Hylan Boulevard,90
Nunzio's Pizzeria Restaurant,Nunzio's Pizzeria & Restaurant,97,"2155 Hylan Boulevard, Staten Island",Hylan Boulevard,90
Hook & Reel Cajun Seafood & Bar,"Caribbean American Ent. Bar, Lounge & Restaurant",86,"2590 Hylan Boulevard, Staten Island",Hylan Boulevard,90
New China Buffet,New China,90,"2626 Hylan Boulevard, Staten Island",Hylan Boulevard,90
Hylan Diner,Diner,90,"2561 Hylan Boulevard, Staten Island",Hylan Boulevard,90
寶島,Bo Sing Bakery 寶城,30,"374 New Dorp Lane, Staten Island",4417 New Utrecht Ave,86
Precious Island Tea Shop,Sushi Island,86,"366 New Dorp Lane, Staten Island",4417 New Utrecht Ave,86
SHM Bagel & Coffee Shop,Coffee Shop,90,Brooklyn,brooklyn,100
A-Pou's Taste 台灣阿婆的味道,Taste,90,"963 Grand Street, Brooklyn",Grand street,90
Asian Bok Choy,Yang No. 1 Asian Restaurant,86,"969 Grand Street, Brooklyn",Grand street,90
Day and Night Deli Grill,Deli,90,"73 Bushwick Avenue, Brooklyn",brooklyn,90
Loving Hut,Tropical Hut Restaurant,86,"76 Bushwick Avenue, Brooklyn",brooklyn,90
Grand Seafood & Fish Market,Fish Market,90,"98 Bushwick Avenue, Brooklyn",brooklyn,90
Taste Of Heaven,Taste,90,"251 Jackson Street, Brooklyn",brooklyn,90
PASTRAMI MASTERS & WAFA'S EXPRESS,Moti's,86,"812 Grand Street, Brooklyn",Grand street,90
Wafa’s Express,Theresa's Polish American Restaurant,86,"812 Grand Street, Brooklyn",Grand street,90
Thip Osha,Ocha,68,"795 Grand Street, Brooklyn",Grand street,90
Masa Empanadas and Pizza,Pizza,90,"804 Grand Street, Brooklyn",Grand street,90
Crown Grill & Salad,Golden Krust Caribbean Bakery and Grill,86,"802 Grand Street, Brooklyn",Grand street,90
TACO EDITION,Mister Taco Mexican Restaurant,86,"800 Grand Street, Brooklyn",800 Grand St,90
Aburi Sushi,Ginpachi Sushi Restaurant,86,"769 Grand Street, Brooklyn",Grand street,90
Hungry Burrito,Great Burrito,74,"510 Morgan Avenue, Brooklyn",brooklyn,90
Healthy Family,Happy Family Restaurant,86,"59-37 Driggs Avenue, Brooklyn",brooklyn,90
Fabio’s pizzeria and restaurant,Pizzeria & Restaurant,95,"635 Meeker Avenue, Brooklyn",635 Meeker Ave,90
One Stop,One & One,95,"134 Kingsland Avenue, Brooklyn",brooklyn,90
18th Ward Brewing,Threes Brewing,71,"300 Richardson Street, Brooklyn",brooklyn,90
Nonna's Pizzeria,La Strada Pizzeria & Restaurant,86,"253 Nassau Avenue, Brooklyn",Nassau Ave.,90
Little Dokebi,Little Bandgladesh Restaurant,86,"85 Driggs Avenue, Brooklyn",brooklyn,90
Sunset Diner,Sunset Diner,100,"593 Meeker Avenue, Brooklyn",593 Meeker Ave,90
Peking Express,Peking Chinese Restaurant,86,"237 Nassau Avenue, Brooklyn",Nassau Ave.,90
The Place Bar & Lounge,La Kuchara Ecuadorian Restaurant Bar,86,"269 Norman Avenue, Brooklyn",brooklyn,90
Kingsland Bar & Grill,La Kuchara Ecuadorian Restaurant Bar,86,"269 Norman Avenue #3634, Brooklyn",brooklyn,90
Ho May Kitchen,Halal Chinese Kitchen,86,"100 Woodpoint Road, Brooklyn",brooklyn,90
Homemade Taqueria Meeker Ave.,Park Ave Chinese,86,"517 Meeker Avenue, Brooklyn",brooklyn,90
Dar525,Kar,60,"168 Driggs Avenue, Brooklyn",168 Driggs Ave,90
Ringolevio,Olea,68,"490 Humboldt Street, Brooklyn",brooklyn,90
Brooklyn Standard Deli,Deli,90,"188 Nassau Avenue, Brooklyn",Nassau Ave.,90
Asaba Kitchen - Supper Club,Supper,90,"179 Leonard Street, Brooklyn",brooklyn,90
Apollonia,Apollo,90,"128 Meserole Street, Brooklyn",brooklyn,90
Pizzette,Lizzette Bakery,79,"191 Graham Avenue, Brooklyn",1 Graham Ave,90
Casa Ora,Casa,90,"148 Meserole Street, Brooklyn",brooklyn,90
New Mexico Place,New Fulin Kwok Seafood Restaurant,86,"189 Graham Avenue #325, Brooklyn",brooklyn,90
Healthy Choice Kitchen,Chang Jiang Kitchen Chinese Restaurant,86,"181 Graham Avenue, Brooklyn",1 Graham Ave,90
Haab,Haab,100,"202 Leonard Street, Brooklyn",brooklyn,90
Mike Deli & Grill,Deli & Grill,95,Brooklyn,brooklyn,100
Win Son,Win Son Bakery,90,"159 Graham Avenue, Brooklyn",brooklyn,90
The Starlight,Star,90,"596 Grand Street, Brooklyn",596 Grand St,90
"Hi hello crepes , coffee shop",Coffee Shop,90,"192 Graham Avenue, Brooklyn",brooklyn,90
Yummy Puti Veggie (formerly Tofubox),Yummy Restaurant,86,"632 Grand Street, Brooklyn",Grand street,90
Ikura Sushi,Ikura Sushi,100,"646 Grand Street, Brooklyn",Grand street,90
Fuji,Fuji Hana,90,"1115 Hylan Boulevard, Staten Island",Hylan Boulevard,90
Nino's,Nino's,100,"1110 Hylan Boulevard, Staten Island",Hylan Boulevard,90
Fuel House Cafe,Stars Cafe & Restaurant,86,"1144 Hylan Boulevard, Staten Island",Hylan Boulevard,90
Fortune Hawaii,Fortune Hawaii,100,"900 Hylan Boulevard, Staten Island",Hylan Boulevard,90
Indian Xpress 2,Rajdhani Indian Restaurant,86,"1201 Hylan Boulevard, Staten Island",Hylan Boulevard,90
Bocelli,Maloney & Porcelli,77,"1250 Hylan Boulevard, Staten Island",Hylan Boulevard,90
Brooklyn's Finest Pizza,S&S Brooklyn Pizza,95,"1250 Hylan Boulevard, Staten Island",Hylan Boulevard,90
No 1 Chinese Kitchen,No. 1 Chinese Kitchen,98,"1250 Hylan Boulevard, Staten Island",Hylan Boulevard,90
Cafe Luna,Stars Cafe & Restaurant,86,"1300 Hylan Boulevard, Staten Island",Hylan Boulevard,90
Via Ponte Pizzeria,La Strada Pizzeria & Restaurant,86,"147 McClean Avenue, Staten Island",147-18 Northern Blvd,86
Chinar On The Island,620 on Caton Pizzeria and Restaurant,86,"283 Sand Lane, Staten Island",41 City Island Ave,86
"La Michoacana Dell, Inc. Comida Mexicana",Mexicana,90,Staten Island,"1118 Castleton Ave, Staten Island, NY 10310",90
Dragon House,Dragon House Restaurant,90,"280 Sand Lane, Staten Island",41 City Island Ave,86
D Restaurant,Ds Restaurant,96,"315 Sand Lane, Staten Island",41 City Island Ave,86
Darina Restaurant,Marina Restaurant,94,"317 Sand Lane, Staten Island",41 City Island Ave,86
Kestane Seaside Seafood & Grill,Chili's Grill & Bar,86,"124 Ocean Avenue, Staten Island",124 Ocean Ave,90
Seaside Turkish Grill Restaurant,Seaside Turkish Restaurant,95,"124 Ocean Avenue, Staten Island",124 Ocean Ave,90
J & R Pizza II,Pizza Pizza,95,"133 McClean Avenue, Staten Island",196 23 Jamaica Avenue,86
Basilio Inn,Basilio's Inn,95,"6 Galesville Court, Staten Island",2670 Coney Island Ave,86
Italianissimo,Italianissimo,100,"107 McClean Avenue, Staten Island",107 McClean Ave,90
Boardwalk Grill,Golden Krust Caribbean Bakery and Grill,86,"Franklin D Roosevelt Boardwalk, Staten Island",Boardwalk,90
Grand Sahara Mediterranean Grill,Sahara Restaurant,86,"1828 Hylan Boulevard, Staten Island",Hylan Boulevard,90
Michaels Martinis And Meatballs,C B Finger Licking Jamaican and West Indian Restaurant,86,"1816 Hylan Boulevard, Staten Island",Hylan Boulevard,90
China Taste,Taste Of China,95,"1812 Hylan Boulevard, Staten Island",Hylan Boulevard,90
Jac Mao,ACME,68,"1771 Hylan Boulevard, Staten Island",Hylan Boulevard,90
G Yummy Inc,Yummy Yummy,95,"1854 Hylan Boulevard, Staten Island",Hylan Boulevard,90
Prime Pizza Kitchen,Prime Pizza,90,"1778 Hylan Boulevard, Staten Island",Hylan Boulevard,90
Alba,Alba's Pizza & Restaurant,90,"1880 Hylan Boulevard, Staten Island",Hylan Boulevard,90
Lobster House Joe's,Theresa's Polish American Restaurant,86,"1898 Hylan Boulevard, Staten Island",Hylan Boulevard,90
Bagels on the Boulevard,620 on Caton Pizzeria and Restaurant,86,"1728 Hylan Boulevard, Staten Island",Hylan Boulevard,90
Red Apple,Red Apple,100,"1724 Hylan Boulevard, Staten Island",Hylan Boulevard,90
Cafe Bella Vita Italian Restaurant,Restaurant,90,"1919 Hylan Boulevard, Staten Island",Hylan Boulevard,90
Lorenzo's Pizza of New York,Pizza,90,"1910 Hylan Boulevard, Staten Island",Hylan Boulevard,90
Not Just Bagels,Just Combo,86,"1910 Hylan Boulevard #2122, Staten Island",Hylan Boulevard,90
The Original Goodfella's Brick Oven Pizza,The Original Goodfella's Brick Oven Pizza,100,"1718 Hylan Boulevard, Staten Island",Hylan Boulevard,90
Lee's Tavern,Lee's,90,"60 Hancock Street, Staten Island",Street,90
Railroad Quickstop,Ciro,68,"635 North Railroad Avenue, Staten Island",196 23 Jamaica Avenue,86
Cafe Latte,Stars Cafe & Restaurant,86,"309 Cromwell Avenue, Staten Island",196 23 Jamaica Avenue,86
Skippy's,Theresa's Polish American Restaurant,86,"1952 Hylan Boulevard #1942, Staten Island",Hylan Boulevard,90
Pauls Dogs.. Famous Hot Dog Truck,Red Hot Szechuan,86,"475 Seaview Avenue, Staten Island",196 23 Jamaica Avenue,86
Yellow Truck... S.I. HOSPITAL FAVORITE,Moti's,86,"475 Seaview Avenue, Staten Island",196 23 Jamaica Avenue,86
Cafetería Staten Island hospital,Sushi Island,86,"475 Seaview Avenue, Staten Island",196 23 Jamaica Avenue,86
Gennaro's At Country Pizza,Pizza,90,"1600 Hylan Boulevard, Staten Island",Hylan Boulevard,90
Bruno's Bakery & Restaurant Hylan Blvd,Restaurant,90,"1650 Hylan Boulevard, Staten Island",Hylan Boulevard,90
Paco's,Theresa's Polish American Restaurant,86,"1642 Hylan Boulevard, Staten Island",Hylan Boulevard,90
Trattoria Romana,Maria's Trattoria Restaurant,86,"1476 Hylan Boulevard, Staten Island",Hylan Boulevard,90
El patron restaurant & lounge 2,El Patron Restaurant & Lounge Inc.,94,"1491 Hylan Boulevard, Staten Island",Hylan Boulevard,90
Kuzina,Deli - Kulinarija,75,"1458 Hylan Boulevard, Staten Island",Hylan Boulevard,90
San Marino Oriental Restaurant,Oriental Restaurant,90,"1465 Hylan Boulevard, Staten Island",Hylan Boulevard,90
Cielo,Cielo Ristorante,90,"1435 Hylan Boulevard, Staten Island",Hylan Boulevard,90
Jack the Horse Tavern,The Loft BKNY Restaurant & Lounge,86,"66 Hicks Street, Brooklyn",brooklyn,90
Terraza Hotel 1,Lucky 1 Chinese Restaurant,86,"90 Furman Street, Brooklyn",brooklyn,90
Tutt Heights,Purity Restaurant At Prospect Heights,86,"47 Hicks Street, Brooklyn",brooklyn,90
Ferry Market,Seafish Market Seafood Restaurant,86,"20 Old Fulton Street, Brooklyn",Fulton,90
Noodle Pudding,满粥麵 Wonton Noodle Garden Restaurant,86,"38 Henry Street, Brooklyn",brooklyn,90
Asya Indian Restaurant,Asya Indian Restaurant,100,"46 Henry Street, Brooklyn Heights",46 Henry St,90
Henry Street Ale House,Dumpling House,86,"62 Henry Street, Brooklyn",brooklyn,90
Bevacco,Becco,83,"60 Henry Street, Brooklyn",brooklyn,90
Henry's End,Henry's End,100,"72 Henry Street, Brooklyn",brooklyn,90
Kogane,Koda,68,"76 Henry Street, Brooklyn",brooklyn,90
Fortune House,Fortune House,100,"82 Henry Street, Brooklyn",82 Henry St,90
Grimaldi's Pizzeria,ALDI,90,"1 Front Street, Brooklyn",1 Front St,90
Juliana's,Juliana's Pizza,90,"19 Old Fulton Street, Brooklyn",Fulton,90
Heights Falafel,Benny's Kosher Pizza Falafel & Dairy Restaurant,86,"78 Henry Street, Brooklyn",brooklyn,90
7 Old Fulton,7 Old Fulton Restaurant and Wine Bar,90,"7 Old Fulton Street, Brooklyn",Fulton,90
GRAN ELÉCTRICA,La Gran Cabana Restaurant,86,"5 Front Street, Brooklyn",5 Front St,90
Fulton Burger,Fulton China Restaurant,86,"17 Old Fulton Street, Brooklyn",Fulton,90
Caffe Buon Gusto,El Buen Gusto Mexican Restaurante,86,"132 Montague Street, Brooklyn",brooklyn,90
Pinto Restaurant,Pronto Restaurant,91,"128 Montague Street, Brooklyn",brooklyn,90
San Blas,San Blas Restaurant,90,"140 Montague Street, Brooklyn",140 Montague St,90
Saketumi,Deli Basket Mini Market,68,"118 Montague Street, Brooklyn",brooklyn,90
Happy Days Diner,Diner,90,"148 Montague Street, Brooklyn",brooklyn,90
Hanco's,Theresa's Polish American Restaurant,86,"147 Montague Street, Brooklyn",brooklyn,90
Monty Q's,Theresa's Polish American Restaurant,86,"158 Montague Street, Brooklyn",brooklyn,90
Grand Canyon,Grand Canyon Diner,90,"143 Montague Street, Brooklyn",143 Montague St,90
Lichee Nut,Li Li,86,"162 Montague Street, Brooklyn Heights",162 Montague St,90
Nanatori Japanese,Nanatori,90,"Nanatori Japanese, 162 Montague Street, Brooklyn",162 Montague St,90
Curry Heights Authentic Indian Cuisine,Amin Indian Cuisine,86,"151 Remsen Street, Brooklyn",brooklyn,90
Lantern,Lantern Thai Kitchen,90,"101 Montague Street, Brooklyn",101 Montague St,90
Dellarocco's,Theresa's Polish American Restaurant,86,"214 Hicks Street, Brooklyn Heights",brooklyn,90
Blossom Poke Bowl,Campus Sugar Bowl Restaurant,86,"153 Remsen Street, Brooklyn",brooklyn,90
Kazi Halal Food,Kazi Halal Food Truck,95,"61 Clinton Street, Brooklyn",brooklyn,90
O'Keefe's Bar & Grill,O'Keefe's Bar & Grill,100,"62 Court Street, Brooklyn",Court st.,90
Court Order,Max Court Restaurant,86,"52 Court Street, Brooklyn",Court st.,90
Queen,Queen,100,"84 Court Street, Brooklyn",Court st.,90
honeygrow,Glow,68,"194 Joralemon Street, Brooklyn",brooklyn,90
Bahnmigos,Bann,68,"92 Court Street, Brooklyn",Court st.,90
Banhmigos,Bann,68,"92 Court Street, Brooklyn",Court st.,90
Salma Halal Food,Salma Halal Food,100,"Court Street, Brooklyn",Court st.,90
Poke City,Green City Restaurant,86,"80 Livingston Street, Brooklyn",brooklyn,90
Perelandra Natural Food Center,Food Center,90,"175 Remsen Street, Brooklyn",brooklyn,90
Chu's Gourmet,Theresa's Polish American Restaurant,86,"82 Livingston Street, Brooklyn",brooklyn,90
SCRAM,Cream,80,"175 Remsen Street, Brooklyn",brooklyn,90
Lavatera Grill,Golden Krust Caribbean Bakery and Grill,86,"88 Livingston Street, Brooklyn",brooklyn,90
New Golden Fried Dumpling,"Golden Forest Chinese Restaurant, Brooklyn Ny",86,"192 Duffield Street, Brooklyn",brooklyn,90
Brooklyn Deli,Brooklyn Deli,100,"115 Willoughby Street, Brooklyn",brooklyn,90
Cafe Luluc,Stars Cafe & Restaurant,86,"214 Smith Street, Brooklyn",brooklyn,90
Clover Club,Club Deli Restaurant,86,"210 Smith Street, Brooklyn",brooklyn,90
Kor Tor Mor,R&R Food Store,61,"204 Smith Street, Brooklyn",brooklyn,90
Buddy's,Theresa's Polish American Restaurant,86,"260 Court Street, Brooklyn",Court st.,90
Verde on Smith,620 on Caton Pizzeria and Restaurant,86,"216 Smith Street, Brooklyn",brooklyn,90
Kitchen at Cobble Hill,Chang Jiang Kitchen Chinese Restaurant,86,"254 Court Street, Brooklyn",Court st.,90
Osaka,Osaka Japanese restaurant,90,"272 Court Street, Brooklyn",Court st.,90
June,Pier 53 Restaurant (June's),90,"231 Court Street, Brooklyn",Court st.,90
Sam's,Sam's Restaurant,90,"238 Court Street, Brooklyn",Court st.,90
GATSU GATSU,Signature Restaurant,68,"196 Smith Street, Brooklyn",brooklyn,90
Mooburger,GO Burger Truck,70,"240 Court Street, Brooklyn",Court st.,90
Ghang Thai Kitchen,Mekong Thai & Vietnamese Restaurant,86,"229 Court Street, Brooklyn",Court st.,90
Portal Latino,Sabor Latino Cuchifrito Restaurant,86,"217 Smith Street, Brooklyn",brooklyn,90
Leyenda,Legendary Bar and Restaurant,77,"221 Smith Street, Brooklyn",brooklyn,90
Indian Table,Rajdhani Indian Restaurant,86,"234 Court Street, Brooklyn",Court st.,90
New York Best Halal,New York's Best Halal Food,95,"182 Smith Street, Brooklyn",brooklyn,90
Purépecha Mexican Restaurant,Restaurant,90,"213 Smith Street, Brooklyn",brooklyn,90
Panzerotti Bites,Ott,90,"235 Smith Street, Brooklyn",brooklyn,90
Lobo,Bobo,75,"218 Court Street, Brooklyn",Court st.,90
Philly Pretzel Factory,Food Factory,86,"408 Jay Street, Brooklyn",Jay St.,90
Smith Food Express,Smith Food Express,100,"21 Smith Street, Brooklyn",brooklyn,90
Jay St. Fresh 99¢ Pizza,Pizza,90,"408 Jay Street, Brooklyn",Jay St.,90
New Apollo Diner,New Apollo Diner,100,"155 Livingston Street, Brooklyn",155 Livingston St,90
Doner Kebab NYC,The NYC Bull - Restaurant & Rotisserie,86,"34 Willoughby Street, Brooklyn",brooklyn,90
Buffalo Boss,TLC Cake Boss Cafe,86,"400 Jay Street, Brooklyn",Jay St.,90
CAVA,Cava Restaurant,90,"345 Adams Street, Brooklyn",brooklyn,90
Norm’s,Theresa's Polish American Restaurant,86,"345 Adams Street, Brooklyn",brooklyn,90
The Juice Shop,The Golden Glass Restaurant,86,"345 Adams Street #3719, Brooklyn",brooklyn,90
99 cent supreme pizza,Pizza,90,"44 Willoughby Street, Brooklyn",brooklyn,90
WHITE NOISE COFFEE CO.,White Noise Coffee Co.,100,"57 Smith Street, Brooklyn",brooklyn,90
Beer Barrel,Beer Garden at Battery Gardens,86,"52 Willoughby Street, Brooklyn",brooklyn,90
Mill Basin Deli,Mill Basin Kosher Deli,95,"5823 Avenue T, Brooklyn",brooklyn,90
King Gourmet Deli & Grill,Gourmet Deli & Grill,95,"5819 Avenue T, Brooklyn",brooklyn,90
Yoshi Traditional Japanese,Bonjuk Korean Traditional Porridge Restaurant,86,"5827 Avenue T, Brooklyn",brooklyn,90
Hard Times Sundaes,Haru,68,"5700 Avenue U, Brooklyn",Avenue U,90
Sbarro,Mi Barrio Taqueria Restaurant,75,"2509 Flatbush Avenue, Brooklyn",Flatbush ave,90
Master Wok,Wok Wok,95,"5100 Kings Plaza, Brooklyn",brooklyn,90
China Tokyo,China Gourmet Chinese Restaurant,86,"5908 Avenue N, Brooklyn",5908 Avenue N,90
Everything Yogurt,Hing Wong,70,5371 Kings Plaza,"The Plaza Food Hall, 1 W 59th St",86
BKLN Diner,Diner,90,"5924 Avenue N, Brooklyn",5924 Avenue N,90
Panino Rustico of Mill Basin,Queen of Tacos,86,"5801 Avenue N, Brooklyn",brooklyn,90
The Gourmet Bagel Shoppe,The New Millenium Spanish Restaurant,86,"6220 Avenue U, Brooklyn",Avenue U,90
Dolce Vita,Dolce Vita,100,"5811 Avenue N, Brooklyn",5811 Avenue N,90
Yong Kang Street,Waj Kang Take Out Restaurant,86,"2, 5100 Kings Plaza, Brooklyn",brooklyn,90
Sunny John Pizzeria,La Strada Pizzeria & Restaurant,86,"5408 Avenue N, Brooklyn",brooklyn,90
Pizza D'Amore,Pizza D'Amore,100,"2147 Mill Avenue, Brooklyn",brooklyn,90
Plum Tree,Plum Tree restaurant & catering,90,"1832 Schenectady Avenue, Brooklyn",1832 Schenectady Ave,90
Brand New Hot Wok,New Fulin Kwok Seafood Restaurant,86,"4912 Avenue K, Brooklyn",brooklyn,90
Embers,Chambers St Halal Food,75,"1904 Utica Avenue, Brooklyn",brooklyn,90
Topaze,Topaze West Indian & American Restaurant,90,"1875 Utica Avenue, Brooklyn",brooklyn,90
Brooklyn Barge Fish & Chips,Fish,90,"1859 Utica Avenue, Brooklyn",brooklyn,90
Pizza Bell,Pizza Bella,95,"1955 Flatbush Avenue, Brooklyn",Flatbush ave,90
Island Choiz,Mike's Island Grill Restaurant,86,"1792 Utica Avenue, Brooklyn",1792 Utica Ave,90
Utica Deli Grill,Deli & Grill,95,"1786 Utica Avenue, Brooklyn",brooklyn,90
Jay's Quick Bites Halal Gyro Palace,Halal,90,"1961 Flatbush Avenue, Brooklyn",Flatbush ave,90
Bed Stuy Fish Fry,Fish,90,"1716 Utica Avenue, Brooklyn",brooklyn,90
Bronze,NumberOneChineseRestaurant,75,"2021 Flatbush Avenue, Brooklyn",Flatbush ave,90
Original Pizza,Original Pizza,100,"2351 Ralph Avenue, Brooklyn",brooklyn,90
Fontanas,Fontana Di Trevi Restaurant,79,"2359 Ralph Avenue, Brooklyn",brooklyn,90
Courtneys Rotisserie & Grill,Breezes Island Grill Restaurant and Lounge,86,"2175 Ralph Avenue, Brooklyn",brooklyn,90
Hook & Reel Cajun Seafood & Bar,"Caribbean American Ent. Bar, Lounge & Restaurant",86,"2183B Ralph Avenue, Brooklyn",brooklyn,90
Mill Basin Bagel Cafe,Cafe 47,86,"6319 Avenue N, Brooklyn",brooklyn,90
Ahome,Lahore Restaurant,72,"6329 Avenue N, Brooklyn",6329 Avenue N,90
Baya Bar Mill Basin,Bar Sol De Quito Restaurant II,86,"6305 Avenue N, Brooklyn",5 ave,90
Sosaku,Sosaku,100,"6328 Avenue N, Brooklyn",6328 Avenue N,90
Gourmet Grill,gourmet deli grill,95,"6334 Avenue N, Brooklyn",brooklyn,90
Mr Kam,Mr Triunfel Restaurant,86,"6342 Veterans Avenue, Brooklyn",brooklyn,90
Golden Bay Kitchen,"Golden Forest Chinese Restaurant, Brooklyn Ny",86,"6604 Bay Parkway, Brooklyn",brooklyn,90
Pizza Daddy,Pizza Daddy,100,"6422 Bay Parkway, Brooklyn",brooklyn,90
Ortobello's,Ortobello's Restaurant,90,"6401 Bay Parkway, Brooklyn",brooklyn,90
Golden Dynasty,"Golden Forest Chinese Restaurant, Brooklyn Ny",86,"6316 Bay Parkway, Brooklyn",brooklyn,90
Vetro Restaurant & Lounge,Vetro Restaurant & Lounge,100,"164-49 Cross Bay Boulevard, New York",New York,90
DiVino Pizzeria Restaurant,Pizzeria & Restaurant,95,"164-02 Cross Bay Boulevard, Queens",205-02 Hillside Ave,86
Frenasia,Golden Asian Restaurant,68,"163-35 Cross Bay Boulevard, Howard Beach",184-35 Jamaica Ave,86
That's A Wrap,Theresa's Polish American Restaurant,86,"163-12 Cross Bay Boulevard, Howard Beach",152-12 Northern Blvd,86
Howard Beach Bagel Cafe,Bea,90,"162-54 Cross Bay Boulevard, Howard Beach",6702 Bay Pkwy,86
ginos pizza restorante,Pizza,90,"Cross Bay Boulevard, Howard Beach",6702 Bay Pkwy,86
Saffron,Saffron,100,"16150 Cross Bay Boulevard #3441, Queens",13861 Queens Blvd,86
Prima Pasta & Cafe,Cafe 47,86,"161, 50 b Cross Bay Boulevard",187-50 Jamaica Ave,86
Brothers Ravioli,Brothers Ravioli,100,"16116 Cross Bay Boulevard, Howard Beach",6702 Bay Pkwy,86
Hagane Hibachi & Japanese Grill,Chili's Grill & Bar,86,"161-02 Cross Bay Boulevard, Queens",205-02 Hillside Ave,86
Lenny's Clam Bar,El Morro Restaurant & Bar,86,"161-03 Cross Bay Boulevard, Howard Beach",156-03 Northern Blvd,86
Cross Bay Diner,Diner,90,"160-31 Cross Bay Boulevard, Howard Beach",6702 Bay Pkwy,86
Gino's,Gino's Pizzeria,90,"158-46 Cross Bay Boulevard, Howard Beach",6702 Bay Pkwy,86
NYC's Fried Chicken & Dinner,Moti's,86,"844 Jamaica Avenue, Brooklyn",brooklyn,90
The Showroom BK Peruvian Restaurant,Restaurant,90,"23 Lincoln Avenue, Brooklyn",brooklyn,90
Dany's Pizza Restaurant,Danys Pizza Restaurant,98,"956 Jamaica Avenue, Brooklyn",956 Jamaica Ave,90
El Nuevo Azteca Maya,Maya,90,"351 Ridgewood Avenue, Brooklyn",brooklyn,90
Pop Pot Noodle &Tea Spot,Hot Pot Jamaican & American Restaurant,86,"7508 Jamaica Avenue, Woodhaven",Jamaica ave,90
New Lane Pizzeria,New Lane Pizzeria And Restaurant,90,"7519 Jamaica Avenue, Jamaica",7519 Jamaica Ave,90
SOFRA - Albanian & Greek Cuisine,Amin Indian Cuisine,86,"2011A Williamsbridge Road, The Bronx",Rutland Road,86
Pasta Pasta,Lamarca Pasta,95,"2023 Williamsbridge Road, The Bronx",Rutland Road,86
City Island Seafood Shack,China City,86,"2049 Williamsbridge Road, The Bronx",Rutland Road,86
Liberty Diner,Diner,90,"2059 Williamsbridge Road, The Bronx",Rutland Road,86
Golden Eagle Diner,Diner,90,"2107 Williamsbridge Road, The Bronx",Rutland Road,86
Sorrento's Pizzeria Restaurant,Pizzeria & Restaurant,95,"2004 Williamsbridge Road, The Bronx",Rutland Road,86
Mr Q's,Theresa's Polish American Restaurant,86,"2115 Williamsbridge Road, The Bronx",Rutland Road,86
Fresh Tortillas,Fresh Tortillas (Tex-Mex Express) & Japanese Restaurant,90,"2123 Williamsbridge Road, The Bronx",Rutland Road,86
Imperial Cafe,Imperial Cafe & Deli,90,"2133A Williamsbridge Road, The Bronx",Rutland Road,86
Nana's Kitchen,Theresa's Polish American Restaurant,86,"1809 Hone Avenue, The Bronx",Between 39th and 40th street on 13th Avenue,86
Emilio's of Morris Park,Morris Park,90,"1051 Morris Park Avenue, The Bronx",park avenue,90
EZ Grill NYC,Golden Krust Caribbean Bakery and Grill,86,"790 Lydig Avenue, The Bronx",790 Lydig Ave,90
The Fresco Tortillas,The Loft BKNY Restaurant & Lounge,86,"1041 Morris Park Avenue, The Bronx",park avenue,90
Healthy Fresh,Fresh Meadows Pizzeria and Restaurant,86,"1033 Morris Park Avenue, The Bronx",park avenue,90
Luciano Pizza,Pizza Pizza,95,"1005 Morris Park Avenue # A, The Bronx",park avenue,90
Azul Tequila,gabriela's restaurant and tequila bar,86,"783 Lydig Avenue, The Bronx",783 Lydig Ave,90
VAYA,Maya,75,"2022 Eastchester Road, The Bronx",Rutland Road,86
Tana Thai Restaurant,Tana Thai Restaurant,100,"1890 Eastchester Road, The Bronx",Rutland Road,86
Rice House,Hunan House Chinese Restaurant,86,"1890 Eastchester Road, The Bronx",Rutland Road,86
Monte Grab & Go Market,Seafish Market Seafood Restaurant,86,"1790 Eastchester Road, The Bronx",Rutland Road,86
Chicken vs lamb,Crazy Chicken Restaurant & Coffee Shop,86,"Jack D. Weiler Hospital of the Albert Einstein College of Medicine, 1825 Eastchester Road, The Bronx","Terminal D, near Gate D11",86
Anthony & Sal's Pizza Express,Sal's Pizza,90,"1809 Williamsbridge Road, The Bronx",Rutland Road,86
The Healthy Kitchen,The Loft BKNY Restaurant & Lounge,86,"1135C Morris Park Avenue, The Bronx",park avenue,90
Ann Clair's Salumeria,Theresa's Polish American Restaurant,86,"1130 Morris Park Avenue, The Bronx",park avenue,90
Xokotl Deli,Deli,90,"1605 Williamsbridge Road, The Bronx",Rutland Road,86
S & J Deli,J& J Deli,95,"1572 Williamsbridge Road, The Bronx",Rutland Road,86
Aguilar’s Mexican Grocery,Moti's,86,"1060 Morris Park Avenue, The Bronx",park avenue,90
Addeo’s of the Bronx,Theresa's Polish American Restaurant,86,"1056 Morris Park Avenue, The Bronx",1056 Morris Park Ave,90
Morris Park Inn,Morris Park,95,"1024 Morris Park Avenue, The Bronx",1024 Morris Park Ave,90
Burger Time,Ten Ren's Tea Time 天仁,86,"1080 Morris Park Avenue, The Bronx",park avenue,90
Patricia's of Morris Park,Morris Park,90,"1082 Morris Park Avenue, The Bronx",park avenue,90
La Masa Restaurant,La Pasta Restaurant,92,"1000 Morris Park Avenue, The Bronx",1000 Morris Park Ave,90
Golden Eagle Restaurant,Golden Eagle Restaurant,100,"975 Morris Park Avenue, The Bronx",975 Morris Park Ave,90
Patsy's Pizzeria Morris Park,Morris Park,90,"980 Morris Park Avenue, The Bronx",park avenue,90
Libertador,Li Li,86,"404 Henry Street, Brooklyn",brooklyn,90
Bonafide Delicatessen & Cafe,'Essen,90,"118 Kane Street, Brooklyn",brooklyn,90
Krok,Moldova Restaurant Brooklyn,68,"117 Columbia Street, Brooklyn",brooklyn,90
Popina,Apolinar Restaurant,75,"127 Columbia Street, Brooklyn",brooklyn,90
Vekslers,Eros,68,"521 Hicks Street, Brooklyn",brooklyn,90
Saint Julivert,Li Li,86,"264 Clinton Street, Brooklyn",4 Clinton St,90
Boutique BK,Boutique BK,100,"187 Sackett Street, Brooklyn",187 Sackett St,90
Alma,Alma,100,"187 Columbia Street, Brooklyn",187 Columbia St,90
Brooklyn Farmacy & Soda Fountain,Estihana Brooklyn,86,"513 Henry Street, Brooklyn",brooklyn,90
Ling Ling Kitchen,Ming Hing Kitchen,88,"508 Henry Street, Brooklyn",brooklyn,90
New Ling Ling Inc,New Fulin Kwok Seafood Restaurant,86,"508 Henry Street, Brooklyn",brooklyn,90
Mex Carroll's Diner,Diner,90,"192 Columbia Street, Brooklyn",brooklyn,90
Francesco's Pizzeria & Trattoria,Moti's,86,"529 Henry Street, Brooklyn",brooklyn,90
Hibino,Hibino,100,"333 Henry Street, Brooklyn",333 Henry St,90
Henry Public,New Henry's Chinese Restaurant,86,"329 Henry Street, Brooklyn",brooklyn,90
Sultan,Sultana Restaurant,90,"144 Atlantic Avenue, Brooklyn",144 Atlantic Ave,90
Tripoli Restaurant,Restaurant,90,"156 Atlantic Avenue, Brooklyn",brooklyn,90
Chez Moi,Malinche Mexican Restaurant,68,"135 Atlantic Avenue, Brooklyn",brooklyn,90
Colonie,La Colonial Restaurant,77,"127 Atlantic Avenue, Brooklyn",brooklyn,90
Darna Falafel,Benny's Kosher Pizza Falafel & Dairy Restaurant,86,"200 Court Street, Brooklyn",Court st.,90
Layla Jones,Layla Jones,100,"214 Court Street, Brooklyn",Court st.,90
Cafe Chili Authentic Thai Kitchen,Cafe 47,86,"172 Court Street, Brooklyn",Court st.,90
Luzzo's,Luzzo's,100,"145 Atlantic Avenue, Brooklyn",brooklyn,90
Beasts & Bottles,Ott,90,"151 Atlantic Avenue, Brooklyn",brooklyn,90
Brado,O Lavrador,72,"155 Atlantic Avenue, Brooklyn",brooklyn,90
Alfagieh Hassan,Alma,68,"172 Atlantic Avenue, Brooklyn",172 Atlantic Ave,90
Bohemien Bar,El Morro Restaurant & Bar,86,"97 Atlantic Avenue, Brooklyn",brooklyn,90
Solber Pupusas,Olea,68,"Corner of Bay and, Clinton Street, Brooklyn",brooklyn,90
El Olomega Pupusas,El Coyote Mexican Restaurant,86,"160 Bay St, Brooklyn, NY 11231, Brooklyn",brooklyn,90
Other Half Brewing Company,Threes Brewing,86,"195 Centre Street, Brooklyn",brooklyn,90
Za-Ya Ramen,Ota-Ya Japanese Restaurant,86,"545 Court Street, Brooklyn",Court st.,90
Pizza Moto,Pizza Moto,100,"338 Hamilton Avenue, Brooklyn",brooklyn,90
El Mate,El Morro Restaurant & Bar,86,"550 Court Street, Brooklyn",Court st.,90
CREMINI'S - Aperitivo&Kitchen,Moti's,86,"521 Court Street, Brooklyn",Court st.,90
Santo Brúklin,Santo Domingo Restaurant,86,"548 Court Street, Brooklyn",Court st.,90
El Mexicano,El Mexicano,100,"142 West 9th Street, Brooklyn",brooklyn,90
Big Daddy's Pizza,Pizza,90,"68 Lorraine Street, Brooklyn",brooklyn,90
Cheng's Chinese Take Out,Cheng's Chinese,90,"52 Lorraine Street, Brooklyn",brooklyn,90
Edward Lunch & Restaurant,Restaurant,90,"56 Lorraine Street, Brooklyn",brooklyn,90
Mezcal's,Mezcal's,100,"522 Court Street, Brooklyn",522 Court St,90
Patoug Persian Cuisine,Patoug Persian Cuisine,100,"220-06 Horace Harding Expressway, New York",New York,90
Sevan,Sevan Armenian Restaurant,90,"216-07 Horace Harding Expressway, Oakland Gardens",95-07 31st Ave,86
L'Italiano Trattoria,L & Y Wing Hing Chinese Restaurant,86,"216-01 Horace Harding Expressway, Bayside",171-01 Northern Blvd,86
Fukuoka Shabu Shabu,Pasha,72,"6102 Springfield Boulevard, Oakland Gardens",133-38 Springfield Blvd,86
Hi Tea Bakery & Restaurant,Restaurant,90,"6124 Springfield Boulevard, Queens",11632 Springfield Blvd,86
Gino's Pizzeria,Gino's Pizzeria,100,"61-32 Springfield Boulevard, Queens",147-32 41st Ave,86
The Empanada Spot,The Golden Glass Restaurant,86,"61-09 Springfield Boulevard, Queens",133-38 Springfield Blvd,86
"Little Dumpling, Bayside",Little Sagion International Restaurant Group 小西龚越南美食集團,86,"221-02A Horace Harding Expressway, Queens",18422 Horace Harding Expy,86
Empire Garden,Empire Garden,100,"61-17 Springfield Boulevard, Bayside",133-38 Springfield Blvd,86
Supreme Dumpling,Kai Feng Fu Dumpling House,86,"6142 Springfield Boulevard, Oakland Gardens",133-38 Springfield Blvd,86
Rolly Kimbab,Barzola,61,"61-23 Springfield Boulevard, Bayside",196 23 Jamaica Avenue,86
River Japanese Cuisine,Yan Jing Chinese and Japanese Restaurant,86,"61-44 Springfield Boulevard, Oakland Gardens",Cristofordo Columbo Boulevard,86
Chilsung Garden,Garden 13 Dairy Restaurant and Pizza,86,"221-28 Horace Harding Expressway, Oakland Gardens",152-28 Northern Blvd,86
미스터 짜장/Mr. Jjajang,Mr. Chan's Chinese Restaurant,86,"221-34 Horace Harding Expressway, Oakland Gardens",18422 Horace Harding Expy,86
Kokio Chicken and Beer,Ambrosia Italian and Albanian Restaurant,86,"221-40 Horace Harding Expressway, Oakland Gardens",40-11 150th St,86
Biwon Restaurant,Restaurant,90,"61-58 Springfield Boulevard #1, Bayside",1 Worlds Fair Marina,86
Lie Bagels,Kosher Pizza & Bagels,86,"210-25 Horace Harding Expressway, Oakland Gardens",33-25 Francis Lewis Blvd,86
Blue Bay Diner,Diner,90,"5850 Francis Lewis Boulevard, Flushing",33-25 Francis Lewis Blvd,86
Constantine's Delicatessen,'Essen,90,"205-10 48th Avenue, Oakland Gardens",8th Ave.,90
Fiamma 41,Amma,90,"214-26 41st Avenue, Queens",1st ave.,90
Maggie Mays,Maggie Reilly's Pub & Restaurant,86,"21422 41st Avenue, Bayside",1st ave.,90
Monahan & Fitzgerald,Agra,68,"21417 41st Avenue, Flushing",1st ave.,90
Donovan's,Donovan's Pub,95,"21416 41st Avenue, Bayside",1st ave.,90
You Garden Xiao Long Bao,Garden 13 Dairy Restaurant and Pizza,86,"41-07 Bell Boulevard, Queens",41-87 Bowne St,86
I Heart Mac & Cheese,X-tra Cheese Pizzeria & Restaurant,86,"41-19 Bell Boulevard, Bayside",41-87 Bowne St,86
Taste of 3,Taste,90,"41-17 Bell Boulevard, Bayside",41-87 Bowne St,86
Cafeteria,Clifford Chance Cafeteria-Restaurant Associates,90,"41-17 Bell Boulevard, Flushing",41-87 Bowne St,86
Press 195,Daily Press Coffee,86,"4011 Bell Boulevard, Bayside",4011 149th Pl,86
Mickey's Place,Theresa's Polish American Restaurant,86,"40-17 Bell Boulevard, Bayside",40-11 150th St,86
Krave It Sandwich Shop & Eatery,Tropical Coffe Shop,86,"40-15 Bell Boulevard, Bayside",40-11 150th St,86
Bourbon Street,Bourbon Street Restaurant and Catering,90,"40-12 Bell Boulevard, Bayside",40-11 150th St,86
One Station Plaza,Number One Chinese Restaurant,86,"213-10 41st Avenue, Bayside",1st ave.,90
Kenta Sushi Bar,El Morro Restaurant & Bar,86,"39-23 Bell Boulevard, Bayside",189-23 Union Tpke,86
Spanglish NYC,The NYC Bull - Restaurant & Rotisserie,86,"4004 Bell Boulevard, Bayside",4004 Boston Rd,86
Bell Garden,Bell Garden,100,"39-21 Bell Boulevard, Flushing",45-21 Parsons Blvd,86
Sangarita's Tapas Wine,Theresa's Polish American Restaurant,86,"40-02 Bell Boulevard, Bayside",40-11 150th St,86
Papazzio Restaurant & Caterer,Restaurant,90,"39-38 Bell Boulevard, Bayside",38 w,86
Fauzia's Heavenly Delights,Deli,90,"E 161st St &, Concourse Village West, The Bronx",1100 60th St,86
Sheridan Market,Seafish Market Seafood Restaurant,86,"191 East 161 Street, The Bronx",Street,90
CityView,Cityview Plaza,90,"901 Sheridan Avenue, The Bronx",311 Avenue X,86
Chris Super Deli Inc,Deli,90,"903 Sheridan Avenue, The Bronx",311 Avenue X,86
Smokey Island Grille,Mike's Island Grill Restaurant,86,"260 East 161 Street, The Bronx",Street,90
Aminas Cafe,Stars Cafe & Restaurant,86,"890 Morris Avenue, The Bronx",890 Morris Ave,90
Italian Pizza,Italia Pizza,96,"890 Morris Avenue, The Bronx",890 Morris Ave,90
PG Pizza,Pizza Pizza,95,"904 Morris Avenue, The Bronx",904 Morris Ave,90
Happy Deli,Happy Deli,100,"201 East 163rd Street, The Bronx",Street,90
Acelas Cafe Juice Bar,Cafe 47,86,"181 East 163rd Street, The Bronx",Street,90
Court Deli,Court Deli,100,"96 East 161 Street, The Bronx",Street,90
Bomber's Stadium Pizza,Stadium Pizza,90,"86 East 161 Street, The Bronx",Street,90
House of Cheng,C&L Of East Ocean Restaurant,86,"89 East 165th Street, The Bronx",65th street,90
Jersey Mike's Subs,Theresa's Polish American Restaurant,86,"Yankee Stadium One, East 161 Street, The Bronx",Yankee Stadium,90
Andrea's 1,Theresa's Polish American Restaurant,86,"104 East 165th Street, The Bronx",65th street,90
Johnny Rockets,Johnny's Famous Reef Restaurant,86,"One East 161 Street, The Bronx",Street,90
The Pearl,The Golden Glass Restaurant,86,"River Avenue, The Bronx",Between 39th and 40th street on 13th Avenue,86
Glacken's Bar & Grill,Theresa's Polish American Restaurant,86,"135 East 149th Street, The Bronx",9th St,90
Cafe Royale,Cafe R,90,"553 Walton Avenue, The Bronx",553 Walton Ave,90
Glenroy Lunch & Tavern Inc,Sunshine Restaurant Food & Catering Inc,86,"145 East 149th Street, The Bronx",9th St,90
1 Dollar Pizza,Dollar Pizza,95,"555 Grand Concourse, The Bronx",Grand Concourse,90
Giovanni's,Giovanni's,100,"579 Grand Concourse, The Bronx",Grand Concourse,90
G Bar,Paulding Bar and Restaurant,90,"579 Grand Concourse, The Bronx",Grand Concourse,90
Häagen-Dazs,Gen,90,"573 Grand Concourse, The Bronx",Grand Concourse,90
Brothers Seafood,Sea,90,"632 Walton Avenue, The Bronx",Between 39th and 40th street on 13th Avenue,86
Sam's,Sam's Restaurant,90,"598 Grand Concourse, The Bronx",Grand Concourse,90
Zona De Cuba,Cuba,90,"558 Grand Concourse, The Bronx",Grand Concourse,90
American Fiesta,Theresa's Polish American Restaurant,86,"120 East 144th Street, The Bronx",Street,90
S &E Café,Theresa's Polish American Restaurant,86,"176 East 149th Street, The Bronx",9th St,90
Sofrito,Nori,68,"679 Riverside Drive, New York",679 Riverside Dr,90
La Lonchera,La Strada Pizzeria & Restaurant,86,"600 West 139th Street, New York",New York,90
Trufa Restaurant,Restaurant,90,"3431 Broadway, New York","New York, New York",95
Lyn-Genet's Kitchen,Gen,90,"3473 Broadway, New York","New York, New York",95
Lyn-Genet's Kitchen,Gen,90,"3473 Broadway, New York","New York, New York",95
La Flor De Broadway,La Strada Pizzeria & Restaurant,86,"3395 Broadway, New York","New York, New York",95
Familia Fruit Market,Seafish Market Seafood Restaurant,86,"3430 Broadway, New York","New York, New York",95
Silver Palace,Silver Palace,100,"3438 Broadway, New York","New York, New York",95
Frijolito's,Theresa's Polish American Restaurant,86,"3446 Broadway, New York","New York, New York",95
Picante,El Picante,95,"3424 Broadway, New York","New York, New York",95
ROKC,King Wok Chinese Restaurant,68,"3452 Broadway, New York","New York, New York",95
Madg Deli Corp,Deli,90,"3440 Broadway, New York","New York, New York",95
Chinese Food,Chinese Food,100,"3371 Broadway, New York","3371 Broadway, New York, NY 10031",95
Geisha Sushi,Ginpachi Sushi Restaurant,86,"3472 Broadway, New York","New York, New York",95
TACOSALGUSTONYC,August,75,"3372-3394 Broadway, New York",New York,90
Mi Gran sueño bar&restaurant,Restaurant,90,"3379 Broadway, New York","New York, New York",95
New Good Taste,Good Taste,95,"3371 Broadway, New York","3371 Broadway, New York, NY 10031",95
La Rubia,La Strada Pizzeria & Restaurant,86,"3517 Broadway, New York","New York, New York",95
WHOLESOME GARDEN PIZZA,Pizza,90,"3529 Broadway, New York","New York, New York",95
Good Hope Pagaar,Good Day Seafood Restaurant,86,"3529 Broadway, New York","New York, New York",95
Solace Bar & Grill,Sol Bar & Grill,91,"3496 Broadway, New York","New York, New York",95
LA VIAGRA,Agra,90,"3536 Broadway, New York","New York, New York",95
Yolanda’s Tamales,Theresa's Polish American Restaurant,86,"Broadway &, West 145th Street, New York",45th street,90
Wimpy's,Wimpy's Hamburger Place,90,"1822 Amsterdam Avenue, New York",Amsterdam avenue,90
El Nuevo Amanecer,El Nuevo Amanecer Restaurant,90,"3660 Broadway, New York","New York, New York",95
El Nuevo Amanecer Restaurant and lounge,El Nuevo Amanecer Restaurant,95,"3666 Broadway, New York","New York, New York",95
Taqueria San Pedro,Mi Barrio Taqueria Restaurant,86,"3662 Broadway, New York","New York, New York",95
New Deli,New Deli,100,"3660 Broadway, New York","New York, New York",95
Bono Trattoria,Maria's Trattoria Restaurant,86,"3658 Broadway, New York","New York, New York",95
Buddha Taco Bar,El Morro Restaurant & Bar,86,"3628 Broadway, New York","New York, New York",95
Barepas,Keats Bar,71,"1792 Amsterdam Avenue, New York",Amsterdam avenue,90
