name_google,name_foursquare,ratio_name,address_google,address_foursquare,ratio_address
Tommy's,Tommy's,100,"3750 Broadway, New York","New York, New York",95
Grandma's Margherita Pizza & Pasta,Margherita Pizza,90,"3750 Broadway #2, New York","New York, New York",95
Road to philly,Good to Go Restaurant,86,"3750 Broadway, New York","New York, New York",95
Big City Burger,Dragon City Chinese Restaurant,86,"3750 Broadway, New York","New York, New York",95
Uptown Melt,Uptown African Restaurant,86,"3750 Broadway, New York","New York, New York",95
Harlem Public,El Nuevo Harlem Restaurant,86,"3612 Broadway, New York","New York, New York",95
Teddy's F&B Bar,El Morro Restaurant & Bar,86,"256 E112th street, New York",New York,90
Sidewalk Tacos,Tacos Puebla Restaurant,86,"2163 2nd Avenue, New York","New York, New York",95
Indo Pak Halal,Indo Pak Halal Restaurant,90,"2173 2nd Avenue #2909, New York",2173 2nd Ave,90
Made In Mexico Harlem,Mexico 2000,86,"2161 2nd Avenue, New York","New York, New York",95
Brother’s bakery Café,bakery,90,"2155 2nd Avenue, New York","New York, New York",95
Mountain Bird,Blue Mountain Restaurante,86,"2162 2nd Avenue, New York","New York, New York",95
GAUDir,Gaudio's Pizzeria & Restaurant,75,"251 East 110th Street, New York",New York,90
Sushi Lemon Life,Ginpachi Sushi Restaurant,86,"255 East 110th Street, New York",New York,90
La Nostra Pizzeria,La Strada Pizzeria & Restaurant,86,"2146 2nd Avenue #3207, New York",New York,90
Halal Kitchen,Halal Kitchen,100,"2135 2nd Avenue #2, New York",2135 2nd Ave,90
Las Panteras Negras,Las Panteras Negras,100,"2130 2nd Avenue, New York","New York, New York",95
Cascalote,Pascalou,71,"2126 2nd Avenue, New York","New York, New York",95
Dragon Town,Dragon Town Chinese Restaurant,90,"2030 3rd Avenue, New York","New York, New York",95
Amor Cubano,Cuba,90,"2018 3rd Avenue, New York","New York, New York",95
Pee Dee Steak House,Hunan House Chinese Restaurant,86,"2006 3rd Avenue, New York","New York, New York",95
El Chevere,El Morro Restaurant & Bar,86,"2000 3rd Avenue, New York","New York, New York",95
Rong Sheng,New Rong Cheng Restaurant,86,"2102 2nd Avenue, New York","New York, New York",95
New Good Taste,Good Taste,95,"1974 2nd Avenue A, New York",1974 2nd Ave,90
China Gourmet,China Gourmet Chinese Restaurant,90,"2014 2nd Avenue, New York","New York, New York",95
Malii Thai Kitchen,Mekong Thai & Vietnamese Restaurant,86,"2028 2nd Avenue, New York","New York, New York",95
Bindaas Modern Indian,C B Finger Licking Jamaican and West Indian Restaurant,86,"2036 2nd Avenue, New York","New York, New York",95
Spice Hut,Spice Hut Restaurant,90,"2036 2nd Avenue, New York","New York, New York",95
Mj Pizza,MJ's Pizza,95,"1976 1st Avenue, New York","New York, New York",95
Lupitas,Lupita Food Corp.,79,"2049 2nd Avenue, New York","New York, New York",95
Dave's Marketplace,Theresa's Polish American Restaurant,86,"1944 1st Avenue, New York","New York, New York",95
Bangklyn East Harlem,East Dynasty Chinese Restaurant,86,"2051 2nd Avenue, New York","New York, New York",95
106 Fish Market,Fish Market,95,"2055 2nd Avenue, New York","New York, New York",95
Rano's Chicken Burgers,Theresa's Polish American Restaurant,86,"2041 1st Avenue, New York","New York, New York",95
Rano's Chicken & Burgers,Theresa's Polish American Restaurant,86,"2041 1st Avenue, New York","New York, New York",95
TRIPLE A1 RESTAURANT,Triple A Restaurant,97,"2061 2nd Avenue # 106, New York",2061 2nd Ave,90
Five Star,Star,90,"2039 1st Avenue, New York","New York, New York",95
Dreamer's Pizza,Pizza Pizza,95,"1850 3rd Avenue, New York","New York, New York",95
La Amistad,La Amistad Bakery And Restaurant,90,"2067 2nd Avenue, New York","New York, New York",95
McDonald,McDonald's,95,"2075 1st Avenue, New York","New York, New York",95
BM Deli Grocery,Deli Grocery,95,"1916 3rd Avenue # 1, New York",New York,90
San Cristobal,Restaurant San Cristobal,90,"339 East 108th Street, New York",New York,90
Hole in the Wall,The Golden Glass Restaurant,86,"445 East 35th Street, New York",New York,90
Bread & Butter,Center of Hope International Bread of Life Food Bank,86,"401 East 34th Street, New York",New York,90
Pizza & Pita Halal Food,Halal Food,90,"344 East 34th Street, New York",New York,90
Panini Cafe,Stars Cafe & Restaurant,86,"589 1st Avenue, New York","New York, New York",95
El Parador Cafe,El Morro Restaurant & Bar,86,"325 East 34th Street, New York",New York,90
Panini Natural Food,famous restaurant Chinese food,86,"589 1st Avenue, New York","New York, New York",95
Townhouse Diner,Diner,90,"696 2nd Avenue, New York","New York, New York",95
Bravest,Korean BBQ Restaurant,64,"700 2nd Avenue, New York","New York, New York",95
El Pote Español,El Pote,90,"718 2nd Avenue, New York","New York, New York",95
Montagu's Gusto,Theresa's Polish American Restaurant,86,"645 2nd Avenue, New York","New York, New York",95
Profit,Profit  Chinese Restaurant II,90,"643 2nd Avenue, New York","New York, New York",95
Profit,Profit  Chinese Restaurant II,90,"643 2nd Avenue, New York","New York, New York",95
Tacos Grand Central,Tacos Puebla,86,"711 2nd Avenue, New York","New York, New York",95
251 Ginza Sushi,Ginpachi Sushi Restaurant,86,"251 East 35th Street, New York",New York,90
Best Wingers,Best Food Restaurant,86,"711 2nd Avenue, New York","New York, New York",95
Gemini Diner,Diner,90,"641 2nd Avenue, New York","New York, New York",95
Lan Larb,Lan King Chinese Restaurant,86,"637 2nd Avenue, New York","New York, New York",95
Exotic Empanadas,Brick Lane Exotic Indian Restaurant,86,"635 2nd Avenue, New York","New York, New York",95
Antique Cafe & Bakery,bakery,90,"909 3rd Avenue, New York","New York, New York",95
Hillstone,Hillstone,100,"888 3rd Avenue, New York","New York, New York",95
Little Thai Kitchen,Little Bandgladesh Restaurant,86,"231 East 53rd Street, New York",New York,90
Souvlaki GR Kouzina,Lali,68,"231 East 53rd Street, New York",New York,90
D Napoli Pizza,Napoli pizza,95,"906 3rd Avenue, New York","New York, New York",95
Little Tong Noodle Shop,Little Sagion International Restaurant Group 小西龚越南美食集團,86,"235 East 53rd Street, New York",New York,90
Hudson Malone,The Shops & Restaurants at Hudson Yards,86,"218 East 53rd Street, New York",New York,90
P.J. Clarke's,Theresa's Polish American Restaurant,86,"915 3rd Avenue, New York","New York, New York",95
Go! Go! Curry! E 53rd St.,Perry St,86,"235 East 53rd Street 2nd and 3rd, 5th Avenue, New York",5th Avenue,90
OBAO,Bobo,75,"222 East 53rd Street, New York",New York,90
Angelo Bellini,Angelo Bellini,100,"224 East 53rd Street, New York",New York,90
Jukai,Ukrainian East Village Restaurant,72,"237 East 53rd Street, New York",New York,90
Kati Shop : Thai • Curry • Rice,Thai 101,86,"162 East 55th Street, New York",New York,90
Tomi Jazz,Tomi Sushi Japanese Restaurant,86,"239 East 53rd Street, New York",New York,90
Lucky Cat,Lucky,90,"232 East 53rd Street, New York",New York,90
7 Green & Grain,Green Pavilion Restaurant,86,"875 3rd Avenue, New York","New York, New York",95
Peking Duck House,Peking Duck House,100,"236 East 53rd Street, New York",New York,90
Halal Food,Halal Food,100,New York,New York,100
Delegates Dining Room,Neptune Room Restaurant and Bait Bar,86,"1 United Nations Plaza, New York",New York,90
Ambassador Grill & Lounge,Taipan Fusion Restaurant and Hookah Lounge,86,"Millennium Hilton, 1 United Nations Plaza, New York",New York,90
Tudor City Steakhouse,China City,86,"45 Tudor City Place, New York",45 Tudor City Pl,90
Peace Cafe,Peace Cafe & Restaurant,90,"342 East 47th Street, New York",New York,90
UN Plaza Grill,Golden Krust Caribbean Bakery and Grill,86,"845 United Nations Plaza, New York",New York,90
Mysttik Masaala,Mysttik Masaala (Indian Food Truck),90,"304 East 44th Street, New York",New York,90
XPL Halal Food Truck,XPL Halal Food Truck,100,"820 2nd Avenue, New York","New York, New York",95
Kaoru,Kar,75,"306 East 46th Street, New York",New York,90
The Palm - Palm Too,The Palm,90,"840 2nd Avenue, New York","New York, New York",95
La Trattoria Pizza,Pizza,90,"844 2nd Avenue, New York","New York, New York",95
Chelsea Bagel of Tudor City,China City,86,"800 2nd Avenue, New York","New York, New York",95
Calico's jack Cantina,Theresa's Polish American Restaurant,86,"800 2nd Avenue, New York","New York, New York",95
McFadden's Saloon,McFadden's Saloon,100,"800 2nd Avenue, New York","New York, New York",95
East Palace,C&L Of East Ocean Restaurant,86,"819 2nd Avenue, New York","New York, New York",95
John's Coffee Shop,John's Coffee Shop,100,"823 2nd Avenue, New York","New York, New York",95
Cafe Fresco,Stars Cafe & Restaurant,86,"1239 1st Avenue, New York","New York, New York",95
Greek Eats,The Greek Family Restaurant,86,"1229 1st Avenue, New York","New York, New York",95
Pizza Park,Pizza Park,100,"1233 1st Avenue #6309, New York",New York,90
Bagelworks,Glow,68,"1229 1st Avenue, New York","New York, New York",95
Java Girl,Java Indonesian Rijsttafel,86,"348 East 66th Street, New York",St 6,90
Mini Deli,Deli,90,"1266 2nd Avenue, New York","New York, New York",95
Mediterraneo,Mediterraneo,100,"1260 2nd Avenue, New York","New York, New York",95
Zawa Japanese,Yan Jing Chinese and Japanese Restaurant,86,"354 East 66th Street, New York",St 6,90
New Wong Asian Food,Asian Food,90,"1217 1st Avenue, New York","New York, New York",95
Tai Sheng,Yong Sheng Restaurant,86,"1217 1st Avenue, New York","New York, New York",95
Le Gourmet Manhattan,China Gourmet Chinese Restaurant,86,"1267 1st Avenue, New York","New York, New York",95
Donna Margherita,Villa Margherita Italian Restaurant,86,"1304A 2nd Avenue, New York","New York, New York",95
Kuu,Kubus,75,"1275 1st Avenue, New York","New York, New York",95
Za Za,Zaffran Party Hall & restaurant,86,"1207 1st Avenue, New York","New York, New York",95
Morso,Orso,89,"420 East 59th Street, New York",New York,90
Bistro Vendôme,Luna Asian Bistro and Japanese Rooftop Restaurant 日本料理,86,"405 East 58th Street, New York",New York,90
Amaze Fusion & Lounge,Taipan Fusion Restaurant and Hookah Lounge,86,"1066 1st Avenue, New York","New York, New York",95
Pa Pa Thai Cuisine,Mekong Thai & Vietnamese Restaurant,86,"1069 1st Avenue, New York","New York, New York",95
Kiss My Slice Pizza,Pizza,90,"401 East 57th Street, New York",New York,90
Suzu Japanese Sushi NY,"Golden Forest Chinese Restaurant, Brooklyn Ny",86,"1075 1st Avenue #A, New York",New York,90
Pa Pa,Zaffran Party Hall & restaurant,86,"1069 1st Avenue, New York","New York, New York",95
Go Noodle,Go Noodle,100,"1069 1st Avenue, New York","New York, New York",95
Rosa Mexicano,Rosa Mexicano,100,"1063 1st Avenue, New York","New York, New York",95
Fusha Asian Cuisine,Annie Chan's Japanese Cuisine Restaurant,86,"1065 1st Avenue, New York","New York, New York",95
Adyar Ananda Bhavan,Ariana,75,"1071 1st Avenue, New York","New York, New York",95
Under The Bridge,The Golden Glass Restaurant,86,"1079 1st Avenue, New York","New York, New York",95
Brooklyn Pizza Masters,Pizza,90,"1055 1st Avenue, New York","New York, New York",95
Best Pizza,Best Pizza,100,"1038 1st Avenue, New York","New York, New York",95
John & Tony's Pizzeria,John & Joe's Pizzeria,88,"1097 1st Avenue, New York","New York, New York",95
Sutton Cafe,Sutton Cafe,100,"1026 1st Avenue, New York","New York, New York",95
Anable Basin Sailing Bar & Grill,"Caribbean American Ent. Bar, Lounge & Restaurant",86,"4-40 44th Drive, Queens",44th,90
Blend on the Water,The Golden Glass Restaurant,86,"45-40 Center Boulevard, Queens",40-11 150th St,86
Long Island City Chinese Restaurant | Clear Lake 麗湖中餐厅,Chinese Restaurant,90,"44-29 9th Street, Long Island City",9th St,90
Sweetleaf Coffee & Cocktail Bar,Coffee,90,"4615 Center Boulevard, New York",New York,90
Maiella,Graziella Pizza & Restaurant,77,"4610 Center Boulevard, Long Island City",4610 8th Ave,86
BLVD Wine Bar,El Morro Restaurant & Bar,86,"4720 Center Boulevard, Long Island City",2670 Coney Island Ave,86
John Brown Smokehouse,John Barry's,86,"10-43 44th Drive, Long Island City",37-10 114th St,86
SHI,Sun Shine Restaurant,90,"4720 Center Boulevard, Long Island City",2670 Coney Island Ave,86
Dai Hachi,Dai Hing Chinese Restaurant,86,"46-18 Vernon Boulevard, Long Island City",147-18 Northern Blvd,86
Mysttik Masaala,Mysttik Masaala (Indian Food Truck),90,"4702 5th Street, Long Island City",Street,90
Go Nonna,Good to Go Restaurant,86,"10-50 44th Drive, New York","New York, New York",95
Skinny's Cantina,Theresa's Polish American Restaurant,86,"4705 Center Boulevard, Long Island City",2670 Coney Island Ave,86
Niforos Coffee Shop,Coffee Shop,90,"43-57 11th Street, Long Island City",43-57 11th St,90
Pizza Al Forno,Pizza Pizza,95,"4629 Vernon Boulevard, Long Island City",2670 Coney Island Ave,86
Cyclo,Piccolo's,72,"5-51 47th Avenue, Long Island City",7th Ave,90
Basil Brick Oven Pizza,Brick Oven Pizza,95,"28-17 Astoria Boulevard, Long Island City",152-28 Northern Blvd,86
Basil Brick Oven Pizza,Brick Oven Pizza,95,"28-17 Astoria Boulevard, Queens",152-28 Northern Blvd,86
Casa Rubio Café,Casa,90,"25-17 Astoria Boulevard, Astoria",25-25 Parsons Blvd,86
bz grill,Golden Krust Caribbean Bakery and Grill,86,"27-02 Astoria Boulevard, Queens",10015 Astoria Blvd,86
Andy's Cafe,Andy's Cafe,100,"23-39 Astoria Boulevard, Queens",10015 Astoria Blvd,86
Jimbos Restaurant & Bar,Restaurant,90,"3005 Astoria Boulevard, Astoria",10015 Astoria Blvd,86
BLVD Bagel Cafe,Stars Cafe & Restaurant,86,"30-07 Astoria Boulevard, Astoria",29-30  A Union St,86
INFINITEA NY,"Golden Forest Chinese Restaurant, Brooklyn Ny",86,"2309 Astoria Boulevard, Astoria",10015 Astoria Blvd,86
SVL Bar,El Morro Restaurant & Bar,86,"30-18 Astoria Boulevard b, Astoria",147-18 Northern Blvd,86
Titan Foods,Eisenberger's Health Foods,86,"2556 31st Street, Astoria",31st Street,90
Crescent Gourmet,China Gourmet Chinese Restaurant,86,"27-02 Crescent Street, Astoria",Crescent St.,90
Astoria Fine Gourmet Deli,fine gourmet deli,95,"2217 Astoria Boulevard, Astoria",10015 Astoria Blvd,86
Neptune Diner,Diner,90,"3105 Astoria Boulevard North, Astoria",10015 Astoria Blvd,86
Macoletta,Olea,68,"2815 24th Avenue, Long Island City",4th Ave,90
Koroni Souvlaki and Grill,Ambrosia Italian and Albanian Restaurant,86,"29-37 Newtown Avenue, Astoria",29-30  A Union St,86
Bohemian Hall & Beer Garden,Pizza Garden,86,"2919 24th Avenue, Astoria",4th Ave,90
Fresco's Cantina,Theresa's Polish American Restaurant,86,"12-14 31st Avenue, Astoria",1st ave.,90
Brother's Pizzeria,Brother's II Pizzeria,95,"3050 14th Street, Astoria",14th St,90
El Buen Gusto Mexican Restaurante,El Buen Gusto Mexican Restaurante,100,"30-85 14th Street, Queens",30-85 14th St,90
S & S Calabro Pizzeria,S & S Calabro Pizza,93,"30-65 14th Street, Astoria",14th St,90
Compton's,Theresa's Polish American Restaurant,86,"30-02 14th Street, Queens",14th St,90
Vidali's Pizza,Vidali's Pizza,100,"31-06 21st Street, Astoria",Street,90
Mary's Grocery And Taqueria,Moti's,86,"1213 Astoria Boulevard, Long Island City",10015 Astoria Blvd,86
Arcadia Bar and Kitchen,Ambrosia Italian and Albanian Restaurant,86,"12-21 Astoria Boulevard, Astoria",152-12 Northern Blvd,86
Rosa's Pizza,Rosa's Pizza,100,"31-01 21st Street, Astoria",31-01 21st St,90
Astoria Provisions,Astoria Restaurant Supply Store,86,"12-23 Astoria Boulevard, Long Island City",152-12 Northern Blvd,86
Spring Food Spot,Spring Food Spot,100,"14-21 Broadway, Astoria",14-21 Broadway,90
Mexican Deli,Mexican Deli,100,"3113 21st Street, Astoria",Street,90
Vesta Trattoria & Wine Bar,"Caribbean American Ent. Bar, Lounge & Restaurant",86,"21-02 30th Avenue, Queens",30th Avenue,90
Samaria,Samaria Pizza,90,"2107 Broadway, Astoria",2107 Broadway,90
El Ancla,El Morro Restaurant & Bar,86,"28-08 21st Street, Astoria",Street,90
Astoria Craft Bar & Kitchen,Craft,90,"1801 26th Road, Queens","207-13 Jamaica Ave, Queens, NY 11428",86
Twisted Mexican Grill,Golden Krust Caribbean Bakery and Grill,86,"18-33 Astoria Boulevard, Astoria",147-18 Northern Blvd,86
Zeus Kitchen,Halal Chinese Kitchen,86,"27 24 21st Street, Queens",Street,90
Chubby Burgers Chicken & Pizza,Chubby Burger Chicken & Pizza,98,"21-02 Newtown Avenue, Astoria",45-21 Parsons Blvd,86
Roti Boti,Roti Boti,100,"2709 21st Street, Astoria",2709 21st St,90
M.I.A,M.I.A Restaurant Lounge,90,"27-35 21st Street, Astoria",27-35 21st St,90
Pier 81,Tony's Pier Restaurant,86,"12th Avenue, New York","New York, New York",95
Lucky Strike Manhattan,Lucky,90,"660 West 42nd Street, New York",New York,90
Hook'd on the Hudson,620 on Caton Pizzeria and Restaurant,86,"557 12th Avenue, New York","New York, New York",95
Kings of Kobe,C&L Of East Ocean Restaurant,86,"650 West 42nd Street, New York",New York,90
42nd Street Pizza,Pizza,90,"647 West 42nd Street, New York",New York,90
Sunac Natural Market | Midtown west Deli | Supermarket,Natural Market,90,"600 West 42nd Street, New York",New York,90
La Vela Dining & Bar,La Strada Pizzeria & Restaurant,86,"558 11th Avenue, New York","New York, New York",95
McQuaids,Cuba,68,"589 11th Avenue, New York","New York, New York",95
Authentic NYC Street Food,Sunshine Restaurant Food & Catering Inc,86,"601-699 West 45th Street, New York",45th street,90
Corner Bistro,Roti Corner Restaurant,86,"600 11th Avenue, New York","New York, New York",95
Robert's Steakhouse,Robert,90,"603 West 45th Street, New York",45th street,90
Corner Slice,Roti Corner Restaurant,86,"600 11th Avenue at, West 45th Street, New York",45th street,90
Sushi on Jones x Don Wagyu,Foo On Restaurant,86,"Gotham West Market, 600 11th Avenue, New York",New York,90
La Palapa Taco Bar Gotham Market,La Palapa,90,"600 11th Avenue, New York","New York, New York",95
La Caridad 78,La Caridad 78,100,"2199 Broadway, New York","New York, New York",95
Europan Bakery Cafe,Europan Bakery Cafe,100,"2197 Broadway, New York","New York, New York",95
Oath Pizza - West 77th Street,Pizza,90,"2169 Broadway, New York","New York, New York",95
New Wave Cafe,New Fulin Kwok Seafood Restaurant,86,"2210 Broadway, New York","New York, New York",95
Pier 72,Tony's Pier Restaurant,86,"270 West 72nd Street, New York",New York,90
RedFarm,Parm,68,"2170 Broadway, New York","New York, New York",95
Pee Dee Steak House,Hunan House Chinese Restaurant,86,"50 West 125th Street, New York",New York,90
Lenox Public Smokehouse,Manna's Soul Food Restaurant - Lenox Avenue,86,"308 Lenox Avenue, New York","New York, New York",95
Marcus Samuelsson Group,Little Sagion International Restaurant Group 小西龚越南美食集團,86,"310 Malcolm X Boulevard, New York",New York,90
Uptown Gourmet,China Gourmet Chinese Restaurant,86,"304 Malcolm X Boulevard, New York",New York,90
Sylvia's,Sylvia's Restaurant,90,"328 Malcolm X Boulevard, New York",New York,90
Caribbean Starr,Star,90,"280 Malcolm X Boulevard, New York",New York,90
Just Combo,Just Combo,100,"21-01 21st Street, Queens",Street,90
Astoria Live Chicken & Meat Market,Live Restaurant,86,"3137 20th Avenue, Astoria",6103 20th Ave,86
No Partners Bar,El Morro Restaurant & Bar,86,"2911 21st Avenue, Astoria",1st ave.,90
Astoria Pizza Factory,Pizza,90,"19-46 37th Street, Astoria",37th,90
Dragon Gate,Dragon Gate Chinese Restaurant,90,"1944 37th Street, Queens",37th,90
Niko's Souvlaki,Theresa's Polish American Restaurant,86,"19-33 Ditmars Boulevard, Queens",165-19 Northern Blvd,86
Astoria Family Pizza,Pizza,90,"3637, 1927 Ditmars Boulevard, Astoria",10015 Astoria Blvd,86
Mia Pizza,La Mia Pizza,95,"24-17 Ditmars Boulevard, Astoria",10015 Astoria Blvd,86
No.1 Flower Drum House,No.1,90,"21-05 31st Street, Astoria",31st Street,90
Agnanti,Agnanti Meze,90,"19-06 Ditmars Boulevard, Astoria",165-19 Northern Blvd,86
Vintage,Vintage Delicatessen and Restaurant,90,"23-14 Ditmars Boulevard, Queens",189-23 Union Tpke,86
Astorias Finest Bagels,Kennedy Fried Chicken / Pizza King / Sunrise Bagels,86,"3306 Ditmars Boulevard, Astoria",10015 Astoria Blvd,86
Chicken Festival Astoria,Chicken Festival,90,"2919 Ditmars Boulevard, Queens",13861 Queens Blvd,86
Trattoria L'incontro,L & Y Wing Hing Chinese Restaurant,86,"21-76 31st Street, Astoria",31st Street,90
Pizza Palace,Pizza Palace,100,"29-29 Ditmars Boulevard, Queens",29-30  A Union St,86
KX burger bar,El Morro Restaurant & Bar,86,"29-04 Ditmars Boulevard, Astoria",29-30  A Union St,86
Create,Create Food Truck,90,"29-21 Ditmars Boulevard, Astoria",45-21 Parsons Blvd,86
Roma's Deli American & Spanish Food,Spanish Food,90,"4125 20th Avenue, Queens",6103 20th Ave,86
Antonio's Kitchen,Theresa's Polish American Restaurant,86,"76-08 21st Avenue, Queens",1st ave.,90
Gyro Express,Gyro express,100,"7706 21st Avenue, East Elmhurst",1st ave.,90
Apicius Pizzeria,Apicius Pizza,90,"20-72 Steinway Street, Astoria",Steinway Street,90
Krave Cafe & Grill,Krave Cafe & Grill,100,"45-01 Ditmars Boulevard, Queens",171-01 Northern Blvd,86
Loukoumi Taverna,Loukoumi Taverna,100,"45-07 Ditmars Boulevard, Queens",45-21 Parsons Blvd,86
Forno Siciliano,Il Forno Pizza and Pasta Restaurant,86,"43-19 Ditmars Boulevard, Astoria",165-19 Northern Blvd,86
Sergio's Pizza,Sergio's Pizza,100,"4803 Ditmars Boulevard, Astoria",10015 Astoria Blvd,86
Victory Garden Cafe,Garden 13 Dairy Restaurant and Pizza,86,"2169 Steinway Street, Astoria",Steinway Street,90
Victory Sweet Shop,Loma restaurant and coffee shop,86,"21-69 Steinway Street, Astoria",Steinway Street,90
Xing's Chef,King's Chef,91,"46-20(B, Ditmars Boulevard, Queens",144-20,86
Wah Fung,Wah Fung Chinese Restaurant,90,"21-75 Steinway Street, Astoria",21-75 Steinway St,90
Jack Jones Astoria,Astoria Restaurant Supply Store,86,"38-01 Ditmars Boulevard, Astoria",171-01 Northern Blvd,86
Elias Corner,Roti Corner Restaurant,86,"24-02 31st Street, Astoria",31st Street,90
Meet the Meat,The Golden Glass Restaurant,86,"2392 21st Street, Astoria",Street,90
Palermo Restaurant & Bar,Palermo Restaurant & Bar,100,"23-92 21st Street, Queens",23-92 21st St,90
Brooklyn National Enterprises,National,90,"8 North Service Road, Jamaica",19625 Jamaica Ave,86
Krispy Krunchy Halal Chicken,Halal,90,"135-1 130th Avenue, Jamaica",30th Avenue,90
Idlewild,Idlewild restaurant & bar,90,"138-10 135th Avenue, South Ozone Park",5th Avenue,90
Qdoba Mexican Grill,La Asuncion Mexican Restaurant,86,"Bldg. 125, JFK Airport Plaza, 147th Ave. & 147th St, Jamaica",403 Church Ave,86
The Italian Market,Ambrosia Italian and Albanian Restaurant,86,"150th Avenue & 147th Street, Jamaica",Street,90
Cascata,ATA,90,"JFK Access Road, Jamaica","207-13 Jamaica Ave, Queens, NY 11428",86
144 Restraunt,403 Restaurant,74,"144-02 135th Avenue, Jamaica",144-02 135th Ave,90
Abitino's,Abitino's,100,"JFK International Airport Concourse C at, Gate B38, Jamaica","Terminal D, near Gate D11",86
The Bistro – Eat. Drink. Connect.®,The Pine Restaurant,86,"145-11 North Conduit Avenue, Jamaica",40-11 150th St,86
Brooklyn Deli,Brooklyn Deli,100,"Terminal 8 Concourse C, JFK Expressway, Jamaica","Terminal D, near Gate D11",86
SoHo Bistro,Luna Asian Bistro and Japanese Rooftop Restaurant 日本料理,86,Jamaica,196 23 Jamaica Avenue,90
Cuenca Coffee Shop,Cuenca Coffee Shop,100,"95-29 Jamaica Avenue, Jamaica",Jamaica ave,90
Danny's Cafe,Andy's Cafe,87,"9327 Jamaica Avenue, Woodhaven",Jamaica ave,90
Pollos Doña Maria,Pollos Doña Maria,100,"93-03 Jamaica Avenue, Woodhaven",93-03 Jamaica Ave,90
La Casa Del Pandebono,Casa,90,"9012 Jamaica Avenue, Jamaica",Jamaica ave,90
L&Y Deli&Grocery INC,Deli & Grocery,95,"95-14 Jamaica Avenue, Woodhaven",Jamaica ave,90
Tajadas,Tajadas Bakery Restaurant,90,"97-05 Jamaica Avenue, Woodhaven",Jamaica ave,90
Richie Rich Caribbean Taste,Richie Rich Caribbean Taste Restaurant,95,"94-16 Jamaica Avenue, Woodhaven",Jamaica ave,90
CabanitaNy,Bonita,75,"94-16 Jamaica Avenue, Woodhaven",Jamaica ave,90
Joe's Pasta and Pizza,Pizza,90,"95-08 Jamaica Avenue, Woodhaven",Jamaica ave,90
Mei Xin Yuan Dumpling House,Dumpling House,90,"9512 Jamaica Avenue, Queens",Jamaica ave,90
Tacos El Ranchero Food Truck,Tacos El Ranchero:  Mobile Food Truck,95,"9719-973 Jamaica Avenue, Woodhaven",Jamaica ave,90
Tatty's Deli y Grocery (Mexican Food),Y&S Deli,90,"87-01 95th Street, Woodhaven",Street,90
Tavares Restaurant,Tavares Restaurant,100,"96-10 Jamaica Avenue, Woodhaven",Jamaica ave,90
Prima Pizza,Prima Pizza,100,"92-15 Jamaica Avenue, Woodhaven",Jamaica ave,90
La Oficina,La Strada Pizzeria & Restaurant,86,"8421 Jamaica Avenue, Woodhaven",Jamaica ave,90
The Paris Café,The Golden Glass Restaurant,86,"Terminal 5, 6 Central Terminal Area, Jamaica","Terminal D, near Gate D11",86
Departures Foodhall,Halal Food,76,"JFK Airport, Jamaica","207-13 Jamaica Ave, Queens, NY 11428",86
La Vie,El Rincon De La Vieja Colombian Bakery,90,"Terminal 5, John F. Kennedy International Airport, Jamaica","Terminal D, near Gate D11",86
5ive Steak,Mambi Steak House Bar & Grill,86,"1 J F K Airport, Jamaica","207-13 Jamaica Ave, Queens, NY 11428",86
Lucy's Asian Kitchen,Theresa's Polish American Restaurant,86,"John F. Kennedy International Airport, Terminal 5, Central Terminal Area, Jamaica","Terminal D, near Gate D11",86
Cheeburger Cheeburger,Burger Deli,66,"6 Central Terminal Area, Jamaica",196 23 Jamaica Avenue,86
Deep Blue on the Fly,Blue,90,"Terminal 5, Jamaica","207-13 Jamaica Ave, Queens, NY 11428",86
Artichoke,Artichoke Pizza,90,"Terminal 5, 6 Central Terminal Area, Queens","Terminal D, near Gate D11",86
Seafood Bar,Sea,90,"4 Central Terminal Area, Jamaica",196 23 Jamaica Avenue,86
Canal Street Noodle House,Dumpling House,86,Jamaica,196 23 Jamaica Avenue,90
AeroNuova,Eros,68,"1 J F K Airport, Jamaica","207-13 Jamaica Ave, Queens, NY 11428",86
Fresh Attractions Kiosk,Fresh Meadows Pizzeria and Restaurant,86,"4 Central Terminal Area, Jamaica",196 23 Jamaica Avenue,86
Stone Rose Bar,El Morro Restaurant & Bar,86,"4 Central Terminal Area, Jamaica",196 23 Jamaica Avenue,86
Brasserie La Vie French Cuisine,La Badee Restaurant,86,"4 Central Terminal Area, Queens",13861 Queens Blvd,86
JFK Clubhouse,141 Restaurant - Hilton New York JFK,86,"4 Central Terminal Area, Jamaica",196 23 Jamaica Avenue,86
Philly Cheesesteaks,Charleys Philly Steaks,79,"J F K Airport 1, Van Wyck Expressway, Jamaica",1 Worlds Fair Marina,86
Patsy's Pizzeria Queens,Patsy's Pizzeria,95,"21-64 Utopia Parkway, Whitestone",45-21 Parsons Blvd,86
Keilly,Keilly Chinese Restaurant,90,"21-40 Utopia Parkway, Queens",40-11 150th St,86
Matese Pizzeria Ristorante & Caterers,Matese Pizzeria,90,"26-15 Francis Lewis Boulevard, Flushing",33-25 Francis Lewis Blvd,86
Matese Pizzeria & Ristorante,Matese Pizzeria,90,"26-15 Francis Lewis Boulevard, Flushing",33-25 Francis Lewis Blvd,86
Legend of Taste,Taste,90,"2002 Utopia Parkway, Whitestone",1045 easter parkway,86
La Maria,Villa Maria Restaurant,90,"25-71 Francis Lewis Boulevard, Queens",33-25 Francis Lewis Blvd,86
Parkway Pizza,Pizza Pizza,95,"19-7 Utopia Parkway, Whitestone",165-19 Northern Blvd,86
Nikitas Place,Market Place Restaurant,86,"1903 Utopia Parkway, Flushing",603 Flushing Ave,86
Omega Coffee Shop,Omega Coffee Shop,100,"200-07 32nd Avenue, Bayside",32nd Av,90
Vinny's,Vinny's Pizzeria Restaurant,90,"19901 32nd Avenue, Queens",32nd Av,90
Sangria Latin Restaurant,Restaurant,90,"29-02 Francis Lewis Boulevard, Flushing",33-25 Francis Lewis Blvd,86
Asian Chef,King's Chef Chinese Restaurant,86,"2904 172nd Street, Flushing",2904 172nd St,90
Kalamaki GR,Alma,68,"2906 172nd Street, Flushing",72nd Street,90
Riviera,Riverdale Garden Restaurant & Lounge,77,"1712 Utopia Parkway, Whitestone",1712 Nostrand Ave,86
Empire Kitchen,Empire Kitchen,100,"1702 Utopia Parkway, Whitestone",1045 easter parkway,86
Fitrition,Bonjuk Korean Traditional Porridge Restaurant,70,"32-55 Francis Lewis Boulevard, Flushing",33-25 Francis Lewis Blvd,86
Sushi Village,Ginpachi Sushi Restaurant,86,"3250 Francis Lewis Boulevard, Flushing",33-25 Francis Lewis Blvd,86
Taco Fun,Mister Taco Mexican Restaurant,86,"3267 Francis Lewis Boulevard, Queens",33-25 Francis Lewis Blvd,86
Gyro Corner NYC,"Airways Pizza, Gyro & Restaurant",86,"3269 Francis Lewis Boulevard, Flushing",33-25 Francis Lewis Blvd,86
Ponticello,Nello,72,"20818 Cross Island Parkway, Queens",2670 Coney Island Ave,86
Tri Tower Eatery,El TRI MX Restaurant & Bar,86,"1805 215th Street, Bayside",15th,90
Vivo,La Gaviota Bar Restaurant,68,"201-10 Cross Island Parkway, Bayside",37-10 114th St,86
Buona Forchetta,Barbetta,61,"168-68 9th Avenue, Whitestone",311 Avenue X,86
Frankys Souvlaki,Lali,68,"Cross Island Parkway, Beechhurst",2670 Coney Island Ave,86
Jack's Pizza & Pasta,Pizza,90,"212-49 26th Avenue, Bayside",Between 39th and 40th street on 13th Avenue,86
Ben's Kosher Delicatessen Restaurant & Caterers,Restaurant,90,"211-37 26th Avenue, Bayside",Between 39th and 40th street on 13th Avenue,86
Lasia,Malasia-Thai-Chinese Restaurant,90,"211-33 26th Avenue, Bayside",Between 39th and 40th street on 13th Avenue,86
Empire Corner II,Bar Sol De Quito Restaurant II,86,"1415 5th Avenue, New York","New York, New York",95
Oriental Palace,China palace chinese restaurant,86,"1728 Madison Avenue, New York",New York,90
Jerk To Go,Jerk-A-Rona Restaurant and Grill,86,"46 West 116th Street, New York",New York,90
Vidalli's Pizzeria,Vidali's Pizza,88,"1429 5th Avenue, New York","New York, New York",95
El San Juan,El Morro Restaurant & Bar,86,"1429 5th Avenue, New York","New York, New York",95
Maxwell's,Max,90,"1325 5th Avenue, New York","New York, New York",95
Shun Cheong,Shun Deck Restaurant,86,"2 West 111th Street, New York",New York,90
Healthy Choice,Healthy Choice Deli,95,"1780 Madison Avenue, New York",80 Madison Ave,90
Harlem Food CT,Harlem Food Court,90,"66 West 116th Street, New York",New York,90
Cross Culture Kitchen,Chang Jiang Kitchen Chinese Restaurant,86,"62 East 116th Street, New York",New York,90
Salimata,ATA,90,"62 East 116th Street, New York",New York,90
FIELDTRIP,Michaelangelo's Coal Fired Brick Oven Pizza Restaurant,60,"109 Malcolm X Boulevard, New York",New York,90
el encanto de lola,Bar Sol De Quito Restaurant II,86,"57 Malcolm X Boulevard, New York",New York,90
118 Kitchen,Halal Chinese Kitchen,86,"1 East 118th Street, New York",New York,90
Harlem Seafood Soul,Sea,90,"Adam Clayton Powell Junior Boulevard, New York",New York,90
Delhi Masala,Tikka Masala Restaurant,86,"2077 Adam Clayton Powell Junior Boulevard, New York",New York,90
Savanna Rae's restaurant,Restaurant,90,"2070 Adam Clayton Powell Junior Boulevard, New York",New York,90
Asian Fusion,Okami Asian Fusion Restaurant,90,"2077 Adam Clayton Powell Junior Boulevard, New York",New York,90
A1 Asian Fusion,Taipan Fusion Restaurant and Hookah Lounge,86,"2071 Adam Clayton Powell Junior Boulevard, New York",New York,90
Accra,Accra Restaurant,90,"2065 Adam Clayton Powell Junior Boulevard, New York",New York,90
Cantina Taqueria & Tequila Bar,"Caribbean American Ent. Bar, Lounge & Restaurant",86,"329 Malcolm X Boulevard, New York",New York,90
Corner Social,Roti Corner Restaurant,86,"321 Malcolm X Boulevard, New York",New York,90
Red Star,Star,90,"2060 Adam Clayton Powell Junior Boulevard, New York",New York,90
Harlem Ale House,Hunan House Chinese Restaurant,86,"101 West 127th Street, New York",New York,90
Harlem Pizza,Pizza Pizza,95,"100 West 125th Street, New York",New York,90
Chez Alain,Alma,68,"2046 Adam Clayton Powell Junior Boulevard, New York",New York,90
Harlem Shake,El Nuevo Harlem Restaurant,86,"100 West 124th Street, New York",New York,90
Knew King Wok,King Wok,90,"2025 Adam Clayton Powell Junior Boulevard, New York",New York,90
Chaiwali,Li Li,86,"274 Lenox Ave at, West 124th Street, New York",New York,90
SETTEPANI,Settepani Bakery,90,"196 Malcolm X Boulevard, New York",New York,90
Barawine Harlem,Raw,90,"200 Malcolm X Boulevard, New York",New York,90
Il Cafe Latte 1,Stars Cafe & Restaurant,86,"189 Malcolm X Boulevard # 1, New York",New York,90
Archer & Goat,The Jolly Goat Coffee Bar,86,"187 Malcolm X Boulevard, New York",New York,90
El Encanto De Lola 2,Bar Sol De Quito Restaurant II,86,"175 Lenox Avenue, New York","New York, New York",95
Sottocasa Pizzeria Harlem,Casa,90,"227 Malcolm X Boulevard, New York",New York,90
Mo's Burgers,Theresa's Polish American Restaurant,86,"153 Malcolm X Boulevard, New York",New York,90
Le Petit Parisien,Le Banquet,86,"151 Malcolm X Boulevard, New York",New York,90
Indian Summer Harlem,C B Finger Licking Jamaican and West Indian Restaurant,86,"239 Malcolm X Boulevard, New York",New York,90
Xing Dragon,Xin Xing Chinese Restaurant,86,"305 East 115th Street, New York",New York,90
El Nuevo Caridad,El Nuevo Caridad,100,"2257 2nd Avenue, New York","New York, New York",95
Taco Mix,The Mix Up Restaurant,86,"234 East 116th Street #1, New York",New York,90
Juice Bar-Rio,El Morro Restaurant & Bar,86,"308 East 116th Street, New York",New York,90
Quesadillas Doña Maty,Man Do,71,"228 East 116th Street, New York",New York,90
Sandy,Roy and Sandys Restaurant,90,"2261 2nd Avenue, New York","New York, New York",95
Make My Fish,Fish,90,"East 116th Street, New York",New York,90
Nocciola,Olea,68,"237 East 116th Street, New York",New York,90
Mi Abuelita/ Rancho Vegano,Mi Candileja,86,"2270 2nd Avenue, New York","New York, New York",95
Hot Jalapeño Mexican Restaurant,Restaurant,90,"219 East 116th Street, New York",New York,90
Milano Pizza Shop,Pizza,90,"2255 2nd Avenue, New York","New York, New York",95
Las Delicias Mexicanas,Delicias Mexicanas,95,"2109 3rd Avenue, New York","New York, New York",95
El Tapattio,El Tapatio,95,"209 East 116th Street, New York",New York,90
Kahlua’s Cafe,Kahlua's Cafe & Restaurant,90,"2117 3rd Avenue, New York","New York, New York",95
Barcha,La Barca Restaurant,75,"2241 1st Avenue, New York","New York, New York",95
FRI ITZ,Fritz International Jamaican Restaurant,64,"1694 Park Avenue, New York","New York, New York",95
New Ivoire,New Ivoire,100,"76 East 119th Street, New York",119th St,90
Armonie Pizza Bistro,Pizza,90,"1649 Park Avenue, New York","New York, New York",95
Terrific Wings Tacos & Things,Queen of Tacos,86,"1901 Lexington Avenue, New York",New York,90
99 Cents Mega Pizza,Pizza,90,"1875 Lexington Avenue, New York",1875 Lexington Ave,90
La Chula Harlem,La Strada Pizzeria & Restaurant,86,"137 East 116th Street, New York",New York,90
Red Star,Star,90,"112 East 116th Street, New York",New York,90
Travertino,Murphy's Tavern,64,"118 East 116th Street, New York",New York,90
Il Gnocchi,Il Miglio Pizza & Italian Restaurant,86,"118 East 116th Street, New York",New York,90
Mamita’s Breakfast Cart,Theresa's Polish American Restaurant,86,"1871 Lexington Avenue, New York",New York,90
Pipo's,Pipo's Mexican Restaurant,90,"166 East 118th Street #3, New York",New York,90
American Wing Company,Theresa's Polish American Restaurant,86,"159 East 116th Street, New York",New York,90
Naked Crab,Cabo,68,"39-16 College Point Boulevard, Flushing",103-16 Merrick Blvd,86
锦州烧烤,Bo Ky Restaurant 波記潮州小食,22,"39-16 College Point Boulevard, Flushing",103-16 Merrick Blvd,86
八戒烧烤,秀八珍鹵味 Eight Jane Food Inc.,22,"133-18 39th Avenue, Flushing",39th,90
Bajie BBQ,Korean BBQ Restaurant,86,"13318 39th Avenue, Flushing",39th,90
Yoi,Moti's,60,"133-22 39th Avenue, Flushing",39th,90
Zaiqa Halal Food,Laiqa Halal Food,94,Flushing,603 Flushing Ave,90
The Shops at SkyView Center,Skyview,90,"4024 College Point Boulevard, Queens",13861 Queens Blvd,86
Western Spicy Chicken,Spicy Pot Express Caribbean and American Restaurant,86,"13335 Roosevelt Avenue #3, Flushing",Roosevelt Ave.,90
He Ji Noodle House,Hunan House Chinese Restaurant,86,"133-35 Roosevelt Avenue, Queens",Roosevelt Ave.,90
Luo Zhuang Yuan,"Jia Yuan Restaurant , Fresh Meadows",86,"133-35 Roosevelt Avenue, Flushing",Roosevelt Ave.,90
Joong Han Boon Sik,Shu Han Ju Chinese Restaurant,86,"133-35 Roosevelt Avenue, Flushing",Roosevelt Ave.,90
Diverse Dim Sum,Sum Fung,86,"133-35 Roosevelt Avenue #12, Flushing",Roosevelt Ave.,90
A Zhong Noodles,a taberna Portuguese restaurant,86,"133-35 Roosevelt Avenue, Flushing",Roosevelt Ave.,90
Parsons Diner,Diner,90,"2527 Parsons Boulevard, Flushing",45-21 Parsons Blvd,86
Namudol,Aureole,57,"29-08 Union Street, Flushing",Street,90
Noodle Flower,Red Flower Chinese Restaurant,86,"29-18 Union Street, Flushing",29-18 Union St,90
Great East,C&L Of East Ocean Restaurant,86,"29-30 Union Street, Flushing",Street,90
Gahwa,Megawash Fresh Meadows,72,"29-32 Union Street, Queens",Street,90
Pearl Garden,Pearl Garden,100,"14508 14th Avenue, Flushing",4th Ave,90
New 88 Japanese Food Inc,Food Inc.,90,"33-05 Farrington Street, Flushing",Street,90
Korean Express Inc,146-13 Northern Blvd Korean Restaurant,86,"3370 Prince Street # 507, Flushing",Street,90
Nick Souvlaki Food Cart,Food Cart,90,Flushing,603 Flushing Ave,90
Debasaki,Deals,72,"33-67 Farrington Street, Flushing",Street,90
Teriyaki One,One & One,95,"30-23 Stratton Street, Flushing",Street,90
New Sunrise,New Fulin Kwok Seafood Restaurant,86,"13511 35th Avenue, Flushing",5th Avenue,90
Jägerhaus,Dera,68,"15-16 149th Street, Flushing",9th St,90
Mike & Maggie's Pizzeria,Theresa's Polish American Restaurant,86,"1527 149th Street, Flushing",9th St,90
Liola,Laila,80,"15-01 149th Street, Whitestone",9th St,90
Whitestone Diner,Diner,90,"149-21 14th Avenue, Whitestone",4th Ave,90
Casa Asia,Casa,90,"149-45 14th Avenue, Whitestone",4th Ave,90
Verdi's,Theresa's Polish American Restaurant,86,"149-58 Cross Island Parkway, Whitestone",149-44 41st Ave,86
SUSHI ME,U-Me Sushi,95,"14-18 150th Street, Flushing",50th St.,90
Tasty Grill,Golden Krust Caribbean Bakery and Grill,86,"14-22 150th Street, Whitestone",50th St.,90
Freddy's Pizzeria,La Strada Pizzeria & Restaurant,86,"1266 150th Street, Whitestone",50th St.,90
Cozy Diner,Diner,90,"1409 150th Street # 3, Whitestone",1409 150th St,90
Ginger and Lemongrass,Ambrosia Italian and Albanian Restaurant,86,"12-53 150th Street, Whitestone",50th St.,90
IL Nocello Ristorante,Il Miglio Pizza & Italian Restaurant,86,"1427 150th Street, Whitestone",50th St.,90
Cherry Valley,Cherry Valley Deli,95,"12-29 150th Street, Whitestone",50th St.,90
Mr. Pollo #2,Mr. Pollo,95,"12-27A 150th Street, Whitestone",50th St.,90
Villaggio,Villagio Restaurant & Bar,80,"150-07 14th Road, Queens",3415 14th Ave,86
Takara Sushi,Kar,90,"150-11 14th Avenue, Whitestone",150-11 14th Ave,90
Feddy's Family Dinner,Theresa's Polish American Restaurant,86,"150-27 14th Avenue, Flushing",4th Ave,90
Omani,Melomania Deli Food,90,"160-42 Willets Point Boulevard, Whitestone",42 4th Ave,86
To Steki,Lo-to Restaurant,86,"2014 Francis Lewis Boulevard, Whitestone",33-25 Francis Lewis Blvd,86
Gigi's Pizzeria - Whitestone,Moti's,86,"2009 Francis Lewis Boulevard, Whitestone",33-25 Francis Lewis Blvd,86
Erin's Isle,Theresa's Polish American Restaurant,86,"15403 Cross Island Parkway, Whitestone",2670 Coney Island Ave,86
Cross Island Hot Dog & Souvlaki Cart,Island Grove Restaurant,86,"Cross island parkway service road at entrance of whitestone shopping center, Whitestone",Shopping center,90
Lollipops Diner,Diner,90,"153-31 Cross Island Parkway, Queens",2670 Coney Island Ave,86
Pizza Chef,Pizza Pizza,95,"153-81 Cross Island Parkway, Whitestone",41-81 Bowne St,86
Coffee Lab,Coffee Lab 38,95,"14-16b Clintonville Street, Whitestone",Street,90
PSI Middle Atlantic Seafood,Q Town (Taiwanes/Chinese/Seafood)Restaurant,86,"15220 Rockaway Boulevard, Jamaica",196 23 Jamaica Avenue,86
Yummy II,Yummy Yummy,95,"15329 Rockaway Boulevard, Jamaica",196 23 Jamaica Avenue,86
Yah Suh NYCE,Hai Sun,64,"153-41 Rockaway Boulevard, Rochdale Village",33-41 Francis Lewis Blvd,86
Tropical Grill,Tropical Grill & Restaurant,90,"15341 Rockaway Boulevard, Jamaica",196 23 Jamaica Avenue,86
Four Seasons Palace,Sea,90,"134-14 Guy R Brewer Boulevard, Jamaica",196 23 Jamaica Avenue,86
Peppa Pot Jamaican Cuisine,Annie Chan's Japanese Cuisine Restaurant,86,"134-28 Guy R Brewer Boulevard, Rochdale Village",Cristofordo Columbo Boulevard,86
Tandoori Curry & Indo Chinese,"Golden Forest Chinese Restaurant, Brooklyn Ny",86,"Tandoori Curry & Indo Chinese, 154-12 Rockaway Boulevard, Rochdale Village",Cristofordo Columbo Boulevard,86
The Door,The Door Restaurant,90,"163-07 Baisley Boulevard, Jamaica",95-07 31st Ave,86
The Door,The Door Restaurant,90,"11434-25, 163-07 Baisley Boulevard, Jamaica",33-25 Francis Lewis Blvd,86
Crab Du Jour Xpress Jamaica,Crab Shanty,86,"16560 Baisley Boulevard, Queens",13861 Queens Blvd,86
China garden & Wing stop,China Garden,90,"165-60 Baisley Boulevard, Jamaica",165-19 Northern Blvd,86
Jay's,Jazzy Jay's Restaurant,90,"16568 Baisley Boulevard, Jamaica",196 23 Jamaica Avenue,86
B&B Food Farm,famous restaurant Chinese food,86,"168-19 Baisley Boulevard, Jamaica",168-19,90
Blessed africa resturant,Wilson Resturant,86,"118-09 Sutphin Boulevard, Queens",Sutphin,90
King Pizza & Fried Chicken,King Pizza & Fried Chicken,100,Jamaica,196 23 Jamaica Avenue,90
Cascade Jerk,Jerk-A-Rona Restaurant and Grill,86,"119-02 Sutphin Boulevard, Jamaica",Sutphin,90
Great Dragon,"Great Dragon (Chinese, Spanish, American Food)",90,"141-36 Rockaway Boulevard, Jamaica",196 23 Jamaica Avenue,86
Soul Food,95 South Soul Food Restaurant,90,"141-28 Rockaway Boulevard, Queens",152-28 Northern Blvd,86
Rockaway Fish House/RCL Enterprises,Fish Yard Restaurant,86,"14122 Rockaway Boulevard, Jamaica",196 23 Jamaica Avenue,86
湖南(Jamaica),Sparkles Jamaica Restaurant,86,"141-12 Rockaway Boulevard, Jamaica",152-12 Northern Blvd,86
New Hunan Wok,Hunan Wok,95,"141-12 Rockaway Boulevard, Jamaica",152-12 Northern Blvd,86
Rockaway Grill,Golden Krust Caribbean Bakery and Grill,86,"141-16 Rockaway Boulevard, Jamaica",196 23 Jamaica Avenue,86
True Flavours,True Blue Deli Grocery,86,"140-16 Rockaway Boulevard, Queens",103-16 Merrick Blvd,86
Caribbean Style Cuisine,Bea,90,"14507 Rockaway Boulevard, Jamaica",196 23 Jamaica Avenue,86
DNL Pizza Plus,Pizza Plus,95,"146-21 Rockaway Boulevard, Jamaica",45-21 Parsons Blvd,86
皇后林肯电召车,Lucky Eight 同樂小炒皇,13,"9th Avenue, Brooklyn",brooklyn,90
LaoJie,La Roja de Todos Restaurant & Bakery,60,"811 53rd Street, Brooklyn",brooklyn,90
合意小吃,Shu Jiao Fu Zhou Cuisine 潭頭王福州小吃 (Shu Jiao Fu Zhou Cuisine),30,"5303 8th Avenue, Brooklyn",brooklyn,90
He Yi Xiaochi,Tong Sam Gyup Goo Yi Restaurant,86,"5301 8th Avenue, Brooklyn",brooklyn,90
Funny BBQ Bar,El Morro Restaurant & Bar,86,"818 54th Street, Brooklyn",brooklyn,90
King's Kitchen,Mr King Food Kitchen,87,"5223 8th Avenue, Brooklyn",brooklyn,90
LANGKAWI,TANG,68,"5323 8th Avenue, Brooklyn",5323 8th Ave,90
Lucky Eight,Lucky Eight 同樂小炒皇,90,"5204 8th Avenue, Brooklyn",5204 8th Ave,90
Fu Mun Lou,Fu Man Lou Restaurant,86,"5405 8th Avenue, Brooklyn",5405 8th Ave,90
Simon's BBQ,Theresa's Polish American Restaurant,86,"5224 8th Avenue, Brooklyn",brooklyn,90
Meet Noodles,Kuai An Hand Pull Noodles Restaurant,86,"5216 8th Avenue, Brooklyn",5216 8th Ave,90
Nuan Xin Rice Roll,Wing xin chinese restaurant,86,"5103 8th Avenue, Brooklyn",brooklyn,90
Jin Feng Yuan,Jin Cheng Restaurant,86,"5318 8th Avenue, Brooklyn",brooklyn,90
C&L of East Ocean,C&L Of East Ocean Restaurant,90,"5304 8th Avenue, Brooklyn",5304 8th Ave,90
The Roast,The Golden Glass Restaurant,86,"5124 8th Avenue, Brooklyn",brooklyn,90
Mr Q's Noodle,Theresa's Polish American Restaurant,86,"779 53rd Street, Brooklyn",brooklyn,90
99捞化(99 Noodle Village),Dragon Village Chinese Restaurant,86,"774 53rd Street, Brooklyn",brooklyn,90
Redang Island,Mike's Island Grill Restaurant,86,"5112 8th Avenue, Brooklyn",brooklyn,90
Lupitas Tiendita Deli & Grocery,Deli & Grocery,90,"11232, Brooklyn",brooklyn,90
C&B COFFEE SHOP,Coffee Shop,95,"4002 8th Avenue, Brooklyn",brooklyn,90
Taqueria Restaurante Mi Barrio 2,Mi Barrio Taqueria Restaurant,90,"887 5th Avenue, Brooklyn",5th Avenue,90
Kofte Piyaz,Köfte Piyaz,95,"881 5th Avenue Store A, Brooklyn",5th Avenue,90
Tacos El Bronco,Tacos El Bronco,100,"860 5th Avenue, Brooklyn",5th Avenue,90
Golden Rich,"Golden Forest Chinese Restaurant, Brooklyn Ny",86,"4001 8th Avenue, Brooklyn",brooklyn,90
Sunset Park Diner & Donuts,Diner,90,"889 5th Avenue, Brooklyn",5th Avenue,90
Melody Lanes NY,"Golden Forest Chinese Restaurant, Brooklyn Ny",86,"461 37th Street, Brooklyn",37th,90
Gina's Pizza,Pizza Pizza,95,"3905 5th Avenue, Brooklyn",3905 5th Ave,90
2004 Viva Mexico,Mexico Magico Restaurant,86,"3913 5th Avenue, Brooklyn",5th Avenue,90
Maria's Bistro Mexicano,Maria's,90,"886 5th Avenue, Brooklyn",5th Avenue,90
El Buen Chapin Deli,Deli,90,"3915 5th Avenue, Brooklyn",5th Avenue,90
Mi Pequño Chinantla,Mi Barrio Taqueria Restaurant,86,"4011 5th Avenue, Brooklyn",5th Avenue,90
China Delight,China Delight,100,"4009 5th Avenue, Brooklyn",5th Avenue,90
Asea Fusion,Sea,90,"4120 8th Avenue, Brooklyn",4120 8th Ave,90
Take Your Hand 牵你的手,New Good Joy Take Out Restaurant,86,"5701 8th Avenue, Brooklyn",701 8th Ave,90
台山风味食品公司,Total Food Corp 美倫食品市場,22,"808 57th Street, Brooklyn",brooklyn,90
Uncle Wang,Uncle Wang Chinese Food,90,"801 58th Street, Brooklyn",brooklyn,90
呱呱叫福州小吃,Shu Jiao Fu Zhou Cuisine 潭頭王福州小吃 (Shu Jiao Fu Zhou Cuisine),34,"5623 8th Avenue, Brooklyn",brooklyn,90
Mr Q BBQ 56 Street,Mr. Chan's Chinese Restaurant,86,"806 56th Street, Brooklyn",brooklyn,90
Everett,Everest Grocery & Deli,77,"5721 8th Avenue #3912, Brooklyn",brooklyn,90
MM Tea Cafe,Stars Cafe & Restaurant,86,"5805 8th Avenue, Brooklyn",5805 8th Ave,90
Wang Village,Village Restaurant,86,"5609 8th Avenue, Brooklyn",5609 8th Ave,90
WW Cafe Inc,Stars Cafe & Restaurant,86,"968 58th Street, Brooklyn",brooklyn,90
City Cafe,Stars Cafe & Restaurant,86,"5603 8th Avenue, Brooklyn",brooklyn,90
Maikley Cafe,Stars Cafe & Restaurant,86,"5819 8th Avenue, Brooklyn",brooklyn,90
Nuan Xin Rice Roll,Wing xin chinese restaurant,86,"5901 8th Avenue, Brooklyn",brooklyn,90
Kai Fong,Fong Kwan Kitchen,86,"5716 8th Avenue, Brooklyn",brooklyn,90
Thanh Da II,Bar Sol De Quito Restaurant II,86,"5624 8th Avenue, Brooklyn",brooklyn,90
Little Thanh Da,Little Bandgladesh Restaurant,86,"5624 8th Avenue, Brooklyn",brooklyn,90
Good Good Taste,Zheng Good Taste,95,"5806 8th Avenue, Brooklyn",brooklyn,90
Xiang Hotpot-Brooklyn,"Golden Forest Chinese Restaurant, Brooklyn Ny",86,"5816 Fort Hamilton Parkway, Brooklyn",brooklyn,90
Dun Huang,Dun Huang Seafood Restaurant,90,"817 60th Street, Brooklyn",brooklyn,90
NY Dun Huang,"Golden Forest Chinese Restaurant, Brooklyn Ny",86,"817 60th Street 1 fl, Brooklyn",brooklyn,90
Greek Family Kitchen,Emone Korean Family Restaurant,86,"212-02 Union Turnpike, Oakland Gardens",2930 Union St,86
Villa Rustica,Friend's Villa Restaurant,86,"73-28 Bell Boulevard, New York",New York,90
Hot Peppers,Hot Pot Jamaican & American Restaurant,86,"78-33 Springfield Boulevard, Oakland Gardens",Cristofordo Columbo Boulevard,86
Mama Lina,Mama’s Coffee Shop & Restaurant,86,"7825 Springfield Boulevard, Oakland Gardens",133-38 Springfield Blvd,86
Vito's Pizza & Italian Restaurant,Restaurant,90,"78-37 Springfield Boulevard, Oakland Gardens",Cristofordo Columbo Boulevard,86
Blue Sky Chinese Restaurant,Blue Sky Chinese Restaurant,100,"223-28 Union Turnpike, Oakland Gardens",152-28 Northern Blvd,86
Wild Basil,Little Basil Thai Cuisine,86,"223-30 Union Turnpike, Bayside",2930 Union St,86
Lavoo Cafe,Stars Cafe & Restaurant,86,"224-13 Union Turnpike, Oakland Gardens",2930 Union St,86
Wah Hing Kitchen,Wing Wah Kitchen,89,"73-12 Bell Boulevard, New York",New York,90
Taco King,King Chinese Restaurant,86,"7306 Bell Boulevard, Oakland Gardens",7306 metropolitan ave,86
Osaka,Osaka Japanese restaurant,90,"22423 Union Turnpike, Oakland Gardens",2930 Union St,86
Bell Diner,Diner,90,215-25 73rd Avenue,3rd Ave.,90
Sushi You,Yo Sushi,89,"215-05 73rd Avenue, Oakland Gardens",3rd Ave.,90
Buddy's Kosher Deli,Deli,90,"215-01 73rd Avenue #21501, Oakland Gardens",3rd Ave.,90
Luckyhe Chinese Restaurant,Lucky Chinese Restaurant,96,"218-40 Hillside Avenue, Queens Village",Hillside Avenue,90
Village Deli Grocery Inc,Deli Grocery,90,"21202 Hillside Avenue, Queens Village",Hillside Avenue,90
Elegant,"Elegant Restaurant Equipment & Supplies, Inc.",90,"21206 Hillside Avenue, Jamaica",Hillside Avenue,90
MJ's Pizza & Wings,MJ's Pizza,90,"215-32 Hillside Avenue, New York",New York,90
Yuchan Lin,House Of Lin Chinese Restaurant,86,"20618 Hillside Avenue, Queens Village",Hillside Avenue,90
Marbella,Marbella Restaurant,90,"220-33 Northern Boulevard, Bayside",147-18 Northern Blvd,86
BCD Tofu House,Hunan House Chinese Restaurant,86,"220-05 Northern Boulevard, Queens",147-18 Northern Blvd,86
Samwongahk Chinese Restuarant,"Golden Forest Chinese Restaurant, Brooklyn Ny",86,"219-01 Northern Boulevard, Bayside",147-18 Northern Blvd,86
Yoodon,Foodoni,77,"216-19 Northern Boulevard, Flushing",147-18 Northern Blvd,86
O’Hana,O S Restaurant,86,"216-19 Northern Boulevard, Bayside",147-18 Northern Blvd,86
Brooklyn Pub,Brooklyn Sub,92,"689 6th Avenue, Brooklyn",brooklyn,90
Lot 2,Oliva Paraiso Restaurant No 2,86,"687 6th Avenue, Brooklyn",brooklyn,90
Giuseppina's Brick Oven Pizza,Pizza,90,"691 6th Avenue, Brooklyn",brooklyn,90
Southside Coffee,Southside Coffee,100,"654 6th Avenue, Brooklyn",brooklyn,90
Battle Hill Tavern,Sugar Hill Restaurant & Supper Club,86,"686 6th Avenue, Brooklyn",brooklyn,90
Korzo,el rey de mi corazon bar & restaurant,72,"667 5th Avenue, Brooklyn",5th Avenue,90
South Slope Ramen,95 South Soul Food Restaurant,86,"651 5th Avenue, Brooklyn",5th Avenue,90
Sole Mio 1 Resturant,No. 1 Kitchen Chinese Restaurant,86,"647 5th Avenue, Brooklyn",5th Avenue,90
El Nopal,El Nopal Restaurant & Juice Bar,90,"631 5th Avenue, Brooklyn",631 5th Ave,90
El Continental,El Continental,100,"672 5th Avenue, Brooklyn",672 5th Ave,90
Tambour Bistro and Wine Bar,Taipan Fusion Restaurant and Hookah Lounge,86,"652 5th Avenue, Brooklyn",5th Avenue,90
Quarter,Restaurant Patrick at Club Quarters,90,"676 5th Avenue, Brooklyn",5th Avenue,90
Sea Witch,Sea,90,"703 5th Avenue, Brooklyn",5th Avenue,90
Luigi's Pizza,Luigi's Pizza,100,"686 5th Avenue, Brooklyn",5th Avenue,90
Grand Prospect Hall,Zaffran Party Hall & restaurant,86,"263 Prospect Avenue, Brooklyn",brooklyn,90
The Bagel Factory,The Golden Glass Restaurant,86,"612 5th Avenue, Brooklyn",5th Avenue,90
Sub Hub,Brooklyn Sub,86,"471 7th Avenue, Brooklyn",7th Ave,90
Panchita's Place,Theresa's Polish American Restaurant,86,"709 5th Avenue, Brooklyn",709 5th Ave,90
Jalapeño King,King Chinese Restaurant,86,"719 5th Avenue, Brooklyn",5th Avenue,90
Nostro,El Monstro del Sazon Pizzaria & Restaurant,75,"710 5th Avenue, Brooklyn",5th Avenue,90
Pablito's,Pablito's Taqueria & Restaurant,90,"723 5th Avenue, Brooklyn",723 5th Ave,90
5th Avenue Asian Taste,Taste,90,"718 5th Avenue, Brooklyn",5th Avenue,90
Gio's Express,Theresa's Polish American Restaurant,86,"406 36th Street, Brooklyn",brooklyn,90
La Fe,La Fe Restaurant,90,"941 4th Avenue, Brooklyn",4th Ave,90
Los Cabos,Cabo,90,"4015 5th Avenue, Brooklyn",5th Avenue,90
Ines Bakery,bakery,90,"948 4th Avenue, Brooklyn",4th Ave,90
Usuluteco,Restaurante Salvadoreno Usuluteco,90,"4017 5th Avenue, Brooklyn",5th Avenue,90
Peacock,Peacock Restaurant,90,"70 West 183rd Street, The Bronx",Street,90
Mango's Paradise Smoothie Corporation,Paradise Restaurant,86,"31 West 183rd Street, The Bronx",Street,90
Nikas Market Delights,Deli,90,"42 West 183rd Street, The Bronx",Street,90
Tuti's,Theresa's Polish American Restaurant,86,"34 West 183rd Street, The Bronx",Street,90
Pizza,Pizza,100,"26 West 183rd Street, The Bronx",Street,90
Mixtec Taqueria Restaurant,Restaurant,90,"2345 Jerome Avenue, The Bronx",311 Avenue X,86
Liberato,Liberato,100,"1 West 183rd Street, The Bronx",Street,90
Elsa La Reina Del Chicharron,El Monstro del Sazon Pizzaria & Restaurant,86,"1 East 183rd Street, The Bronx",Street,90
Pancho Villa,Don Pancho Villa,95,"2274 Jerome Avenue, The Bronx",2274 Jerome Ave,90
Antojitos La Garnacha,La Roja de Todos Restaurant & Bakery,86,"8 East 183rd Street, The Bronx",Street,90
Tacos El Chavo,El Morro Restaurant & Bar,86,"8 East 183rd Street, The Bronx",Street,90
Kennedy's Chicken & Sandwiches,Kennedy's,90,"2370 University Avenue, The Bronx",196 23 Jamaica Avenue,86
Wahizza,Bash Pizza,71,"80 West Fordham Road, The Bronx",Fordham Road,90
Bryan's Bakery,Bryan’s Bakery,100,"97 West Fordham Road, The Bronx",Fordham Road,90
Restaurante El amor,Restaurant,90,"2541 Aqueduct Avenue, The Bronx",311 Avenue X,86
Kennedy's Fried Chicken,Kennedy Fried Chicken,95,"2487 Jerome Avenue, The Bronx",311 Avenue X,86
Number 8,Number 8 Chinese,90,"176 West Fordham Road, The Bronx",Fordham Road,90
No. 1 China Wok,China Wok,90,"64 West Kingsbridge Road, The Bronx",64 City Island Ave,86
Mirador restaurant,Mirador Restaurant,100,"44 West Kingsbridge Road, The Bronx",149-44 41st Ave,86
El Mangú Restaurant,E Lang Restaurant,91,"80 West Kingsbridge Road, The Bronx",1621 west 1st street,86
Emilio's Pizza,emilio's Pizza,100,"80 West Kingsbridge Road # 101, The Bronx",1621 west 1st street,86
Chris Burger Joint,Burger King,86,"101 West Kingsbridge Road, The Bronx",1621 west 1st street,86
Perista coffee shop,Perista,90,"101 West Kingsbridge Road, The Bronx",1621 west 1st street,86
Montezuma,Montezuma Mexican Restaurant,90,"119 West Kingsbridge Road, The Bronx","119 West Kingsbridge Road Bronx, NY 10468",89
My Pizza,My Pizza,100,"1723 University Avenue, The Bronx",196 23 Jamaica Avenue,86
Kennedy Fried Chicken and Pizza,Kennedy Fried Chicken and Pizza,100,"1708 University Avenue, The Bronx",196 23 Jamaica Avenue,86
Caridad Kitchen,Caridad Kitchen Restaurant,90,"1708 University Avenue, The Bronx",196 23 Jamaica Avenue,86
Miguelina Restaurant,Restaurant,90,The Bronx,"1095 Prospect Ave, Bronx, NY 10459",86
Casa Clema Restaurant & Bar,Restaurant,90,"1731 University Avenue, The Bronx",196 23 Jamaica Avenue,86
Hing Wong,Hing Wong,100,"1687 Macombs Road, The Bronx",Rutland Road,86
LF Giovani's Big Pizza,Giovani's Big Pizza,95,"1799 Montgomery Avenue, The Bronx",196 23 Jamaica Avenue,86
Stronis Pizza,Pizza Pizza,95,"1806 Cedar Avenue, The Bronx",Between 39th and 40th street on 13th Avenue,86
Chinese Gourmet,King Chinese Restaurant,86,"1809 Cedar Avenue, The Bronx",Between 39th and 40th street on 13th Avenue,86
Michely Deli Grocery,Deli & Grocery,95,"169 West Tremont Avenue, The Bronx",196 23 Jamaica Avenue,86
Gramma's Pizza,Pizza Pizza,95,"99b Featherbed Lane, The Bronx",In the Crowne Plaza,86
Xing Sheng - Jackie Chan's Chinese Restaurant,Chinese Restaurant,90,"115 Featherbed Lane, The Bronx",In the Crowne Plaza,86
Seafood House 2,Sea,90,"140 Featherbed Lane, The Bronx",In the Crowne Plaza,86
Cocina Taller,Cocina Latina Restaurant Corp,86,"416 West 203rd Street, New York",New York,90
Taco's El Paisanito,Theresa's Polish American Restaurant,86,"202 West Fordham Road, The Bronx",Fordham Road,90
Patacon Pisao Truck,ATA,90,"431 West 202nd Street, New York",New York,90
Sushi Mambo,Ginpachi Sushi Restaurant,86,"431 West 202nd Street, New York",New York,90
10th Avenue NY,"Golden Forest Chinese Restaurant, Brooklyn Ny",86,"3795 10th Avenue, New York","New York, New York",95
Mina Restaurant and Bar,Mina Bar & Restaurant,95,"3859 10th Avenue, New York","New York, New York",95
Tulcingo Azteca,Tulcingo,90,"3861 10th Avenue, New York","New York, New York",95
La Minita,La Minita Restaurant,90,"3855 10th Avenue, New York","New York, New York",95
NY Frituras,"Golden Forest Chinese Restaurant, Brooklyn Ny",86,"265 Nagle Avenue, New York","New York, New York",95
La Lomita,La Lomita,100,"3868 10th Avenue, New York","New York, New York",95
El Boulevard Fritura Chimichurri,El Patio Restaurant,86,"3881 10th Avenue, New York","New York, New York",95
El Fuerte Fritura Y Chimichurri,El Patio Restaurant,86,"147 Post Avenue, New York","New York, New York",95
Joe Joe's Pizzeria,Joe's Pizzeria,95,"739 Henderson Avenue, Staten Island",196 23 Jamaica Avenue,86
AAA Kennedy Fried Chicken,Kennedy Fried Chicken,95,"253 Broadway, Staten Island",Broadway,90
ABR Pizza House Inc,Pizza,90,"1032 Castleton Avenue, Staten Island",196 23 Jamaica Avenue,86
China Bell,China Gourmet Chinese Restaurant,86,"1068 Castleton Avenue, Staten Island",196 23 Jamaica Avenue,86
Island Garden,Garden 13 Dairy Restaurant and Pizza,86,"823 Castleton Avenue, Staten Island",196 23 Jamaica Avenue,86
Vincent's Pizza,Pizza Pizza,95,"500 Henderson Avenue, Staten Island",196 23 Jamaica Avenue,86
Moe's 1 Deli & Grill,Deli,90,"1147 1/2 Castleton Avenue, Staten Island",1 Worlds Fair Marina,86
Donegan's Grill,Theresa's Polish American Restaurant,86,"26 Elizabeth Street, Staten Island",Street,90
Tu Tipico Dominicano,Tipico Dominicano Restaurant,87,"1195 Castleton Avenue, Staten Island",196 23 Jamaica Avenue,86
My Family Pizza & Chicken,Pizza,90,"1211 Castleton Avenue, Staten Island",196 23 Jamaica Avenue,86
LiGreci's Staaten,Theresa's Polish American Restaurant,86,"697 Forest Avenue, Staten Island",Forest Avenue,90
Emperor House,Hunan House Chinese Restaurant,86,"767 Forest Avenue, Staten Island",Forest Avenue,90
Oaxaca Pizzeria Deli & Taqueria,Deli,90,"1240 Castleton Avenue, Staten Island",196 23 Jamaica Avenue,86
Pastosa Ravioli,Li Li,86,"764 Forest Avenue, Staten Island",Forest Avenue,90
Bruno's Bakery and Restaurant,G's Restaurant and Bakery,91,"676 Forest Avenue, Staten Island",Forest Avenue,90
Cuzco Spanish Restaurant,Spanish restaurant,95,"490 Broadway, Staten Island",Broadway,90
Duffy's,Theresa's Polish American Restaurant,86,"650 Forest Avenue, Staten Island",Forest Avenue,90
Mustard Seed,Star,90,"572 Forest Avenue, Staten Island",Forest Avenue,90
Panini Grill,Golden Krust Caribbean Bakery and Grill,86,"538 Forest Avenue, Staten Island",Forest Avenue,90
3 Guys Sushi,3 Guys,90,"530 Forest Avenue, Staten Island",Forest Avenue,90
ViVi Bubble Tea,Bidonville Coffee and Tea,86,"532b Forest Avenue, Staten Island",Forest Avenue,90
Green Garden Chinese Restaurant,Green Garden Chinese Restaurant,100,"752 Forest Avenue, Staten Island",752 Forest Ave,90
Burrito Bar,El Morro Restaurant & Bar,86,"585 Forest Avenue, Staten Island",Forest Avenue,90
Kings Arms,Istanblue Kings Restaurant,86,"500 Forest Avenue, Staten Island",Forest Avenue,90
Acai bowl,Campus Sugar Bowl Restaurant,86,"West Brighton, Staten Island",41 City Island Ave,86
SoBol,Restaurant Chairs And Bar Stools,72,"480 Forest Avenue, Staten Island",Forest Avenue,90
Milk-N-Things,All Refrigeration 'N Restaurant Equipment,86,"843 Forest Avenue, Staten Island",Forest Avenue,90
Enoteca Maria,Maria's Pizzeria & Restaurant,86,"27 Hyatt Street, Staten Island",Street,90
Marie's 2,Theresa's Polish American Restaurant,86,"5 Hyatt Street, Staten Island",Street,90
Pier 76,Pier 76 Italian Restaurant,90,"76 Bay Street #2511, Staten Island",76 Bay St,90
Hard Hat Cafe,Stars Cafe & Restaurant,86,"90 Bay Street, Staten Island",Bay St,90
Beso,Brooklyn Beso,90,"11 Schuyler Street, Staten Island",Street,90
Chang Noi,Chang Jiang Kitchen Chinese Restaurant,86,"100 Stuyvesant Place, Staten Island",100-11,86
Cargo,Cargo Food Authority,90,"1, 21 Slosson Terrace, Staten Island",45-21 Parsons Blvd,86
Cargo Cafe,Stars Cafe & Restaurant,86,"120 Bay Street, Staten Island",Bay St,90
The Burrito Shoppe,The Golden Glass Restaurant,86,"100 Stuyvesant Place, Staten Island",100-11,86
A & S Pizza,A&A Pizza,95,"87 Stuyvesant Place, Staten Island",41-87 Bowne St,86
Ruddy & Dean,Dean's Pizzeria & Restaurant,86,"44 Richmond Terrace, Staten Island",149-44 41st Ave,86
Green tea chinese,Wing xin chinese restaurant,86,"54 Richmond Terrace, Staten Island",2670 Coney Island Ave,86
M & K Spanish Restaurant,M&K Spanish Restaurant,96,"56 Richmond Terrace, Staten Island",2670 Coney Island Ave,86
Mandi House,Hunan House Chinese Restaurant,86,"58 Richmond Terrace, Staten Island",2670 Coney Island Ave,86
A Little Bit Of This & A Little Bit Of That,A-HO RESTAURANT,86,"210 Clove Road, Staten Island",591 City Island Ave,86
La Canasta Deli,Deli,90,"1255 Castleton Avenue, Staten Island",196 23 Jamaica Avenue,86
Kukiz Luncheonette Inc,Sunshine Restaurant Food & Catering Inc,86,"11 Jewett Avenue, Staten Island",40-11 150th St,86
Bermay Luncheonette,One & One,86,"1920 Richmond Terrace, Staten Island",2670 Coney Island Ave,86
New Taqueria Puebla II Restaurant & Grocery,Restaurant,90,"2049 Richmond Terrace, Staten Island",2670 Coney Island Ave,86
Mexican Tamales Martita,MEXICAN RESTAURANT RESTAURANTE MEXICANO GUATEMALTECO MEXICAN FOOD,86,"99 Port Richmond Avenue, Staten Island",Richmond Avenue,90
Tortillería Oaxaca,Nori,68,"121 Port Richmond Avenue, Staten Island",Richmond Avenue,90
Cafe Con Pan,Stars Cafe & Restaurant,86,"137 Port Richmond Avenue, Staten Island",Richmond Avenue,90
Los Potrillos,El Rinconcito De Los Sabores Restaurant & Deli,86,"150 Port Richmond Avenue, Staten Island",Richmond Avenue,90
Compadres,Los Compadres Food - ATM,90,"92-21 Liberty Avenue, Ozone Park",Liberty ave,90
Ho Ho Garden,Garden 13 Dairy Restaurant and Pizza,86,"9306 Liberty Avenue, Jamaica",Liberty ave,90
La Cabaña Peruana,La Strada Pizzeria & Restaurant,86,"9304 Liberty Avenue, Queens",Liberty ave,90
La Bonanza Bakery,bakery,90,"9314 Liberty Avenue, Jamaica",Liberty ave,90
The Rock Restaurant & Diner,Diner,90,"91-17 Liberty Avenue, Ozone Park",Liberty ave,90
Mia Halal Food,Mia Halal Food,100,"105-07 Cross Bay Boulevard, Ozone Park",95-07 31st Ave,86
Woodhaven cafe & pizzeria,Cafe 47,86,"105-09 Cross Bay Boulevard, Queens",13861 Queens Blvd,86
Ali’s Latin Food,Latin Food,90,"94-22 Liberty Avenue, Jamaica",Liberty ave,90
El Boulevard,El Boulevard Fritura Chimichurry Bbq Food Truck,90,"9422 Liberty Avenue, Ozone Park",Liberty ave,90
Esquire,Rex,72,"105-45 Cross Bay Boulevard, Queens",45-21 Parsons Blvd,86
Ozone Pizzeria,La Strada Pizzeria & Restaurant,86,"9615 Liberty Avenue, Jamaica",Liberty ave,90
Peking House,Peking House,100,"96-17 Liberty Avenue, Ozone Park",Liberty ave,90
Libertad Restaurant,Libertad Restaurant,100,"9619 Liberty Avenue, Queens",Liberty ave,90
Neighborhood Halal Food Cart,Halal Food,90,"9602 Rockaway Boulevard, Ozone Park",133 Rockaway Ave,86
Kennedy Chicken & Grill,Golden Krust Caribbean Bakery and Grill,86,"96-21 Rockaway Boulevard, Ozone Park",45-21 Parsons Blvd,86
liberty coffee shop,Liberty Coffee Shop,100,"8806 Liberty Avenue, Ozone Park",Liberty ave,90
Yummy Yummy Chinese Restaurant,Yummy Yummy Chinese Restaurant,100,"13206 Cross Bay Boulevard, Queens",13861 Queens Blvd,86
Nazca,Azteca,73,"132-04 Cross Bay Boulevard, Ozone Park",6702 Bay Pkwy,86
Golden Way,Golden Way Thai & Chinese Restaurant,90,13309 Cross Bay Boulevard,6702 Bay Pkwy,86
Viva Mis Empanadas,Cesar's Empanadas,74,"133-11 Cross Bay Boulevard, Ozone Park",40-11 150th St,86
Romeo Pizzeria,La Strada Pizzeria & Restaurant,86,"134-24 Cross Bay Boulevard, Jamaica",196 23 Jamaica Avenue,86
Alessandro’s Sausage & Peppers,Moti's,86,"137-02 Cross Bay Boulevard, Ozone Park",205-02 Hillside Ave,86
Barnett Catering,Sunshine Restaurant Food & Catering Inc,86,"137-08 Redding Street, Ozone Park",Street,90
Aldo's,Aldo's Pizzeria & Restaurant,90,"137-01 Cross Bay Boulevard, Ozone Park",171-01 Northern Blvd,86
Jade Garden Restaurant,Garden Restaurant,95,"96-27 Linden Boulevard, New York",New York,90
CJ's,CJ's Restaurant and Pub,90,"137-09 Cross Bay Boulevard, Ozone Park",6702 Bay Pkwy,86
The Ozone Diner,Diner,90,"133-35 79th Street, Howard Beach",9th St,90
New Garden Kitchen,New Lin's Garden Kitchen,95,"76-14 Liberty Avenue, Queens",76-14 Liberty Ave,90
New Good Taste,Good Taste,95,"85-06 Pitkin Avenue, Jamaica",85-06 Pitkin Ave,90
LULU CHINESE,King Chinese Restaurant,86,"7806 101st Avenue, Ozone Park",1st ave.,90
Policano’s Italian Sausage,Ambrosia Italian and Albanian Restaurant,86,"Linden Blvd & 79th Street, Howard Beach",9th St,90
Mannan Sweets & Restaurant,Restaurant,90,"75-13 101st Avenue, Jamaica",1st ave.,90
Yang-Kee's No 1,No.1,90,"75-01 101st Avenue, New York",New York,90
Zerie’s Halal Food,Zerie's Halal Food,100,Ozone Park,451 Morris Park Ave,86
Jing Wah,Jing Wah Chinese Restaurant,90,"8720 Liberty Avenue, Queens",Liberty ave,90
Mel's Southern Soul-Food & Party Planner,Moti's,86,"642 Eldert Lane #3g, Brooklyn",brooklyn,90
City Line Pizza & Pasta,City Line Pizza & Pasta,100,1224 Liberty Avenue,Liberty Avenue,95
Lindenwood Diner,Diner,90,"2870 Linden Boulevard, Brooklyn",brooklyn,90
Jade Linden,Jade Fountain Chinese Cuisine,86,"78-6 Linden Boulevard, Queens",69-78 188th St,86
Momo's Mediterranean Grill,Moti's,86,"25 101st Avenue, Brooklyn",brooklyn,90
China Doll,China Gourmet Chinese Restaurant,86,"1360 Loring Avenue, Brooklyn",brooklyn,90
La Villa Pizzeria,La Villa Pizzeria & Restaurant,90,"8207 153rd Avenue, Howard Beach",8207 153rd Ave,90
Kawaii,Kawaii Japanese Restaurant,90,"82-19 153rd Avenue, Howard Beach",3rd Ave.,90
Linden Fried Chicken,Crazy Chicken Restaurant & Coffee Shop,86,"2596 Linden Boulevard, Brooklyn",brooklyn,90
Krabtrap soul seafood,Sea,90,Brooklyn,brooklyn,100
China Doll,China Gourmet Chinese Restaurant,86,"2526 Linden Boulevard, Brooklyn",brooklyn,90
American Hero,American Hero,100,"2488 Linden Boulevard, Brooklyn",brooklyn,90
Caricom Foods,Eisenberger's Health Foods,86,"601 Wortman Avenue, Brooklyn",brooklyn,90
Coco's,Coco South East Asian,90,"1377 Sutter Avenue, Brooklyn",1377 Sutter Ave,90
Flint Hill Hometown Eatery,Carnegie Hill Restaurant & Coffee House,86,"1314 Sutter Avenue, Brooklyn",brooklyn,90
Mr. Chicken & Mrs. Tea,Mr. Pollo,86,"New York, 15029 Crossbay Blvd, Store #1",New York,90
Kandela,Kanela Restaurant & Bar,77,"150-03 Cross Bay Boulevard, Ozone Park",156-03 Northern Blvd,86
Hana Asian Bistro,Fuji Hana,86,"150-03 Cross Bay Boulevard, Ozone Park",156-03 Northern Blvd,86
Arepalicious,Li Li,86,"137-20 Cross Bay Boulevard, Ozone Park",144-20,86
Matteo's,Theresa's Polish American Restaurant,86,"155-10 Cross Bay Boulevard, New York",New York,90
C & C Italian Deli,C&C Italian Deli,95,"149-19 Centreville Street, Ozone Park",Street,90
Danny's Szechuan Garden,Theresa's Polish American Restaurant,86,"156-40 Cross Bay Boulevard, Queens",40-11 150th St,86
Greek Grill Taverna NY,"Golden Forest Chinese Restaurant, Brooklyn Ny",86,"156-40 Cross Bay Boulevard, Howard Beach",40-11 150th St,86
New Park Pizza,Park Pizza,95,"156-71 Cross Bay Boulevard, Howard Beach",156-28 Northern Blvd,86
K Burger,L&K Jamaican Restaurant,86,"75-45 Main Street, Flushing",Main Street,90
Tel Aviv,El Cavier Restaurant,68,"75-39 Main Street, Flushing",Main Street,90
Pita Hot,Hot Pot Jamaican & American Restaurant,86,"75-45 Main Street, Flushing",Main Street,90
Bellerose Famous Pizza,Bellerose Famous Pizza,100,"79-9 Main Street, Flushing",Main Street,90
Simcha corner,Roti Corner Restaurant,86,"73-01 Main Street, Kew Gardens Hills",Main Street,90
Benjy's Kosher Pizza Dairy Restaurant & Sushi Bar,Restaurant,90,"7272 Main Street, Queens",Main Street,90
Panda Garden,Panda Garden,100,"147-01 Union Turnpike, Flushing",147-18 Northern Blvd,86
Elite Cafe,Elite Cafe,100,"72-28 Main Street, Flushing",Main Street,90
Hapisgah,Padishah,62,"147-25 Union Turnpike, Flushing",147-18 Northern Blvd,86
Annie's Kitchen,Theresa's Polish American Restaurant,86,"7224 Main Street, Flushing",Main Street,90
Holy Schnitzel (Queens),Queen,90,"7222 Main Street, New York","New York, New York",95
Meal Mart On Main Street,620 on Caton Pizzeria and Restaurant,86,"7210 Main Street, Flushing",Main Street,90
Genesis Pizza,Pizza Pizza,95,"14909 Union Turnpike, Flushing",2930 Union St,86
New Peter's Kitchen,New Fulin Kwok Seafood Restaurant,86,"14909 Union Turnpike A, Flushing",2930 Union St,86
The Sandwich Bar,El Morro Restaurant & Bar,86,"Main Street 71-32 B, Flushing",Main Street,90
Mira Sushi Restaurant Queens,Restaurant,90,"153-11 Union Turnpike, Flushing",40-11 150th St,86
No1 Yummy Taco,Yummy Yummy,95,"154-01 Union Turnpike, Flushing",54-01,90
The Sweet Garden,Garden 13 Dairy Restaurant and Pizza,86,"79-22 Parsons Boulevard, Flushing",45-21 Parsons Blvd,86
Zen,Zen Restaurant/Lounge,90,"7928 Parsons Boulevard, Fresh Meadows",45-21 Parsons Blvd,86
Father and Son Halal Food,Father Son Halal Food,95,"73-01 Kissena Boulevard, Flushing",Kissena,90
Zoilita's,Zoilita's Bakery & Restaurant,90,"79-34 Parsons Boulevard, Fresh Meadows",45-21 Parsons Blvd,86
Emilio's Cucina Restaurant,Restaurant,90,"150K Greaves Lane, Staten Island",2670 Coney Island Ave,86
Genki Sushi House,Gen,90,"150 Greaves Lane, Staten Island",563 Coney Island Ave,86
Villa Paradiso Ristorante Italiano,Villa Paradiso,90,"145 Greaves Lane, Staten Island",563 Coney Island Ave,86
Mansion Grand,564 Grand Restaurant,86,"141 Mansion Avenue, Staten Island",196 23 Jamaica Avenue,86
La Candela Espanola,La Strada Pizzeria & Restaurant,86,"3923 Amboy Road, Staten Island",563 Coney Island Ave,86
Flanagan's Tavern,Theresa's Polish American Restaurant,86,"3932 Amboy Road, Staten Island",563 Coney Island Ave,86
Piccolino Ristorante NY,"Golden Forest Chinese Restaurant, Brooklyn Ny",86,"3935 Amboy Road, Staten Island",563 Coney Island Ave,86
Bam Sports Bar and Grill,Ambrosia Italian and Albanian Restaurant,86,"3937 Amboy Road, Staten Island",563 Coney Island Ave,86
Lucky Fortune,Lucky,90,"3945 Amboy Road, Staten Island",563 Coney Island Ave,86
Mimmo's Brick Oven Pizza & Trattoria,Pizza,90,"15 Giffords Lane, Staten Island",91-15 31st Ave,86
Mike Jr’s Richmond Diner,Diner,90,"3954 Richmond Avenue, Staten Island",Richmond Avenue,90
Fanelli's,Theresa's Polish American Restaurant,86,"3946 Richmond Avenue, Staten Island",Richmond Avenue,90
Eltingville Meats,TANG,68,"3946 Richmond Avenue, Staten Island",Richmond Avenue,90
Campania,Mangia,71,"3900 Richmond Avenue, Staten Island",3900 Richmond Ave,90
Filoncino Cafe,Stars Cafe & Restaurant,86,"4569 Amboy Road, Staten Island",563 Coney Island Ave,86
"Ali Baba hookah lounge, Cafe & Middle Eastren Cuisine",Stars Cafe & Restaurant,86,"4561 Amboy Road, Staten Island",563 Coney Island Ave,86
Tomo,Tomo Japanese Cafe,90,"4561 Amboy Road, Staten Island",563 Coney Island Ave,86
Sal & Lloyd's Pizza Place,Pizza Place,90,"3850 Richmond Avenue, Staten Island",Richmond Avenue,90
Richmond Republic,Li Li,86,"4459 Amboy Road, Staten Island",563 Coney Island Ave,86
Kiku,Kiku,100,"3838 Richmond Avenue, Staten Island",Richmond Avenue,90
Kingdom Pizza Cafe,Pizza,90,"4350 Amboy Road, Staten Island",563 Coney Island Ave,86
Avocado Sushi,Ginpachi Sushi Restaurant,86,"4342 Amboy Road, Staten Island",563 Coney Island Ave,86
Empire Szechuan,Empire Szechuan,100,"4373 Amboy Road, Staten Island",563 Coney Island Ave,86
East Sushi,C&L Of East Ocean Restaurant,86,"4371 Amboy Road, Staten Island",563 Coney Island Ave,86
Elverton Bagels & Deli,Deli,90,"451-507 Elverton Avenue, Staten Island",196 23 Jamaica Avenue,86
Trattoria Toscana,Maria's Trattoria Restaurant,86,"4200 Hylan Boulevard, Staten Island",Hylan Boulevard,90
Andrew’s Diner,Diner,90,"4160 Hylan Boulevard, Staten Island",Hylan Boulevard,90
Capizzi,Angelica Pizzeria & Restaurant,77,"4126 Hylan Boulevard, Staten Island",Hylan Boulevard,90
Hong Kong Kei One,Hong Kong,90,"4207 Hylan Boulevard, Staten Island",Hylan Boulevard,90
Portobello Cafe,Stars Cafe & Restaurant,86,"4221 Hylan Boulevard, Staten Island",Hylan Boulevard,90
Cucumber,Amber,72,"4215 Hylan Boulevard, Staten Island",Hylan Boulevard,90
Bomond,Tuttolomondo Pizza,75,"4072 Hylan Boulevard, Staten Island",Hylan Boulevard,90
Nature's Grill Cafe,Theresa's Polish American Restaurant,86,"4115 Hylan Boulevard, Staten Island",Hylan Boulevard,90
Giuliana's,Theresa's Polish American Restaurant,86,"4105 Hylan Boulevard, Staten Island",Hylan Boulevard,90
Cole's Dock Side,Theresa's Polish American Restaurant,86,"369 Cleveland Avenue, Staten Island",196 23 Jamaica Avenue,86
Banhmigos,Bann,68,"4018 Hylan Boulevard, Staten Island",Hylan Boulevard,90
Big Al's Chicago Style Pizza,Big Al's Chicago Style Pizza,100,"4069 Hylan Boulevard, Staten Island",Hylan Boulevard,90
Fiore Di Mare,Fiore,90,"227 Mansion Avenue, Staten Island",196 23 Jamaica Avenue,86
Michael Anthony's Restaurant,Michael's Restaurant,95,"307 Nelson Avenue, Staten Island",196 23 Jamaica Avenue,86
Bistro Grill,Golden Krust Caribbean Bakery and Grill,86,"3972 Hylan Boulevard, Staten Island",Hylan Boulevard,90
Mike's Place,Theresa's Polish American Restaurant,86,"4677 Hylan Boulevard, Staten Island",Hylan Boulevard,90
Baya Bar Hylan Blvd.,Bar Sol De Quito Restaurant II,86,"2381 Hylan Boulevard, Staten Island",Hylan Boulevard,90
Moe's Southwest Grill,Theresa's Polish American Restaurant,86,"2397 Hylan Boulevard, Staten Island",Hylan Boulevard,90
Tori's,Yakitori Sun-Chan,90,"859 East 149th Street, The Bronx",9th St,90
La Espiga 3 Estrellas,La Espiga,90,"558 Southern Boulevard, The Bronx",901 Southern Blvd,86
Wilbel Pizza,Wilbel pizza,100,"605 Southern Boulevard, The Bronx",901 Southern Blvd,86
149st DELI,Deli,90,"543 Southern Boulevard, The Bronx",901 Southern Blvd,86
3J,3J Restaurant,90,"554 Southern Boulevard, The Bronx",901 Southern Blvd,86
La Patrona Restaurant,La Patrona Restaurant,100,"812 East 149th Street, The Bronx",9th St,90
Ivy Juice Bar and Deli,Ivy Juice Bar & Deli,95,"800 East 149th Street, The Bronx",9th St,90
Spofford Deli & Grocery,Deli & Grocery,90,"706 Faile Street, The Bronx",Street,90
May May,Maison May,95,"741 Hunts Point Avenue, The Bronx",741 Hunts Point Ave,90
New Pepperonis Pizza,Pizza,90,"1308 Lafayette Avenue, The Bronx",Lafayette Ave,90
New Chinese Fried Chicken,"Golden Forest Chinese Restaurant, Brooklyn Ny",86,"1312 Lafayette Avenue, The Bronx",Lafayette Ave,90
Los Primos Chimichurris,El Rinconcito De Los Sabores Restaurant & Deli,86,Corona,9462 Corona Ave,90
K's Cafeteria,Theresa's Polish American Restaurant,86,"48-03 108th Street, Flushing",Street,90
Leo's Latticini,Theresa's Polish American Restaurant,86,"46-02 104th Street, Corona",Street,90
Tacos y Quesadillas Mexico,J Y R Restaurant,86,"10440 Corona Avenue, Corona",Between 39th and 40th street on 13th Avenue,86
Corona Flowers Inc.,Sunshine Restaurant Food & Catering Inc,86,"104-14 Corona Avenue, Corona",Between 39th and 40th street on 13th Avenue,86
Cienega Las Tlayudas de Oaxaca,El Rinconcito De Los Sabores Restaurant & Deli,86,"10432 Corona Avenue, Queens",Between 39th and 40th street on 13th Avenue,86
Manuel E.,E and J Restaurant,86,"103-28 Corona Avenue, Corona",Between 39th and 40th street on 13th Avenue,86
Las Delicias Peruanas,Delicia,90,"43-07 104th Street, Corona",Street,90
Park Side,Park Side,100,"107-01 Corona Avenue, Corona",107-01 Corona Ave,90
Lomazoyatl Deli Grocery,Deli Grocery,90,"10616 Corona Avenue, Corona",Between 39th and 40th street on 13th Avenue,86
Paraiso Colombiano,Paraiso Colombiano Restaurant,90,"106-20 Corona Avenue, Flushing",106-20 Corona Ave,90
Los Andes,Los Pollitos III,86,"106-16 Corona Avenue, Flushing",311 Avenue X,86
Don Alex,Don Alex Restaurant,90,"10626 Corona Avenue, Flushing",10626 Corona Ave,90
Campeon Del Pollo,El Monstro del Sazon Pizzaria & Restaurant,86,"107-02 Corona Avenue, Flushing",107-02 Corona Ave,90
Linda Azoguenita Bakery & Restaurant,Linda Azoguenita Bakery & Restaurant,100,"51-01 108th Street, Corona",51-01 108th St,90
Loly's Deli,Deli,90,"107-04 Corona Avenue, Queens",Between 39th and 40th street on 13th Avenue,86
Corona Pizza,Pizza Pizza,95,"5123 108th Street, Corona",Street,90
Tech Chef,King's Chef Chinese Restaurant,86,"59-30 108th Street, Flushing",Street,90
Empanadas Cafe,Stars Cafe & Restaurant,86,"5627 Van Doren Street, Queens",Street,90
Empanadas del parque,El Monstro del Sazon Pizzaria & Restaurant,86,"56-20 Van Doren Street, Flushing",Street,90
Chuang Chef,Chuang Chef Chinese Restaurant,90,"5527 108th Street, Queens",5527 108th St,90
City Grill,Golden Krust Caribbean Bakery and Grill,86,"102-23B Horace Harding Expressway, Corona",18422 Horace Harding Expy,86
Kai Fish Market,Fish Market,95,"102-23 Horace Harding Expressway, Corona",196 23 Jamaica Avenue,86
Tacos Gloria,Gloria's Restaurant,86,"10307 Martense Avenue, Corona",10307 Northern Blvd,86
Double,Double Dragon Chinese Restaurant,90,"53-16 108th Street, Corona",Street,90
Asadero La Fogata,ATA,90,"108-40 Corona Avenue, Flushing",40-11 150th St,86
Tacos Gloria (food cart),Food Cart,90,"53-05 108th Street, Corona",Street,90
El Palacio de Las Empanadas,El Mexicano,86,"53-02 108th Street, Corona",Street,90
D'Angelo's Pizza & Pasta,Angelo's Pizza,90,63-27 108th Street,Street,90
5 De Mayo,5 De Mayo Food Market,90,"108-9 53rd Avenue, Corona",3rd Ave.,90
El Teniente L.L.C.,C&L Of East Ocean Restaurant,86,"104-21 53rd Avenue, Corona",3rd Ave.,90
El Rey Latino,El Morro Restaurant & Bar,86,"63-42 108th Street, Forest Hills",Street,90
Salut 2000,Le Zie 2000 Trattoria,86,"6342 108th Street, Forest Hills",Street,90
Mini burger,Mini Star Restaurant,86,"6353 108th Street, Forest Hills",Street,90
Antojitos 37 Corporation,Guang Zhou Resturant (formerly Perfect Team Corporation),86,"9607 37th Avenue, Corona",7th Ave,90
Happy World,Happy World,100,"96-03 37th Avenue, Corona",7th Ave,90
Vbrestaurant,Restaurant,91,"35-58 97th Street, Corona",Street,90
La Abundancia Bakery,La Abundancia Bakery & Restaurant,90,"37-01 Junction Boulevard, Corona",171-01 Northern Blvd,86
Boca Chica,Boca Chica Seafood Restaurant,90,"96-20 37th Avenue, Corona",7th Ave,90
Nuevo Milleneum Inc,Sunshine Restaurant Food & Catering Inc,86,"97-07 37th Avenue, Flushing",7th Ave,90
Bambino's,Bambino's Pizza,90,"9717 37th Avenue, Flushing",7th Ave,90
La Nortena,La Nortena,100,"9713 37th Avenue, Flushing",7th Ave,90
Sarku Japan Teriyaki & Sushi Express,Sushi Ji Restaurant,86,"37-21 Junction Boulevard, Corona",45-21 Parsons Blvd,86
Sueño Americano Bar Restaurante,Restaurant,90,"35-16 Junction Boulevard, Jackson Heights",3452 Junction Blvd,86
Susano’s,Theresa's Polish American Restaurant,86,"95-12 35th Avenue, Flushing",5th Avenue,90
Emily,Emily's Restaurant,90,"35-64 95th Street, Jackson Heights",Street,90
Mr Crab,Mr Triunfel Restaurant,86,"34-64 Junction Boulevard, Jackson Heights",3452 Junction Blvd,86
Salchipapas y Ceviche de Chochos El Mijin,El Morro Restaurant & Bar,86,"105th Street & 37th Avenue, Corona",7th Ave,90
Ho Mei,Ho Mei - Chinese Food,90,"103-05 37th Avenue, Flushing",7th Ave,90
The Holy Grill,The Golden Glass Restaurant,86,"104-02 Northern Boulevard, Queens",147-18 Northern Blvd,86
Cibao,Cibao,100,"10422 Northern Boulevard, Flushing",147-18 Northern Blvd,86
Charo Restaurant,Charo Restaurant,100,"102-01 37th Avenue, Corona",7th Ave,90
Rancho Latino,Sabor Latino Cuchifrito Restaurant,86,"37-08 103rd Street, Corona",103rd Street,90
El Sabor Azogueno Bakery & Restaurant,Sabor Restaurant & Bakery,95,"10119 37th Avenue, Queens",7th Ave,90
G’s Famous Pizza & La Favorita Deli Grocery,Famous Pizza,90,"3722 103rd Street, Flushing",103rd Street,90
El Nuevo Salinas,El Morro Restaurant & Bar,86,"102-02 Northern Boulevard, Flushing",147-18 Northern Blvd,86
Guaro,Guaro Restaurant,90,"107-01 37th Avenue, Flushing",107-01 37th Ave,90
No.1,No.1,100,"106-14 Northern Boulevard, Flushing",147-18 Northern Blvd,86
Carniceria Mexicana,Mexicana,90,"10509 Northern Boulevard, Corona",147-18 Northern Blvd,86
Lung Sing,Lung Sing Chinese Restaurant,90,"103-07 Northern Boulevard, Flushing",147-18 Northern Blvd,86
Encuentro 103 Restaurant,Restaurant,90,"37-29 103rd Street, Corona",103rd Street,90
Tacos Mexico,Tacos Mexico,100,"10203 Northern Boulevard, Corona",147-18 Northern Blvd,86
Plaza Deli,Plaza Deli,100,"101-06 Northern Boulevard, Corona",147-18 Northern Blvd,86
Las Serranitas Bar & Restaurant,Restaurant,90,"100-11 37th Avenue, Corona",100-11,90
Northern Café Grill & Chimi,152-12 Northern Blvd Chinese Restaurant,86,"101-13 Northern Boulevard, Corona",147-18 Northern Blvd,86
China Delight,China Delight,100,"9912 37th Avenue, Flushing",7th Ave,90
Crepes n things,All Refrigeration 'N Restaurant Equipment,86,"348 Bowery, New York","New York, New York",95
The Bowery Hotel,The Golden Glass Restaurant,86,"335 Bowery, New York","New York, New York",95
Sushi on Jones,Ginpachi Sushi Restaurant,86,"348 Bowery, New York","New York, New York",95
Sage Kitchen,Halal Chinese Kitchen,86,"352 Bowery, New York","New York, New York",95
YOSHINO · NEW YORK,New Fulin Kwok Seafood Restaurant,86,"342 Bowery, New York","New York, New York",95
The Jones,The Golden Glass Restaurant,86,"54 Great Jones Street, New York",New York,90
Bohemian,Bohemian Spirit Restaurant,90,"57 Great Jones Street, New York",New York,90
Sorbillo Pizzeria,La Strada Pizzeria & Restaurant,86,"334 Bowery, New York","New York, New York",95
Il Buco Alimentari & Vineria,Il Bacco,86,"53 Great Jones Street, New York",New York,90
B Bar & Grill,El Morro Restaurant & Bar,86,"40 East 4th Street, New York",New York,90
Misirizzi,MIMI,68,"36 East 4th Street, New York",New York,90
Ogawa,Megawash Fresh Meadows,72,"36 East 4th Street, New York",New York,90
Sushi by M,Ginpachi Sushi Restaurant,86,"75 East 4th Street, New York",New York,90
Fish Cheeks,Fish,90,"55 Bond Street, New York","New York, New York",95
By Name Cafe,Stars Cafe & Restaurant,86,"324 Bowery, New York","New York, New York",95
Kissaki Omakase,Maya,68,"319 Bowery, New York","New York, New York",95
Stillwater Bar & Grill,La Kuchara Ecuadorian Restaurant Bar,86,"78-80 East 4th Street, New York",New York,90
Ama Raw Bar,Raw,90,"190 Avenue B, New York","New York, New York",95
Haile,Kay Manmanm Restaurant and Fritaille,72,"182 Avenue B, New York","New York, New York",95
Frangos Peri Peri,TANG,68,"182 Avenue B, New York","New York, New York",95
B Cup Cafe New York City,Cup,90,"212 Avenue B, New York","New York, New York",95
Guac,Arepera Guacuco Restaurant,90,"179 Avenue B, New York","New York, New York",95
Sal's,Sal's Restaurant,90,"216 Avenue B, New York","New York, New York",95
Khiladi NYC,The NYC Bull - Restaurant & Rotisserie,86,"175 Avenue B, New York","New York, New York",95
Eleven B,C B Finger Licking Jamaican and West Indian Restaurant,86,"174 Avenue B, New York","New York, New York",95
Desi Galli,Desi Shad Sweets and Restaurant,86,"172 Avenue B, New York","New York, New York",95
The Roost,The Golden Glass Restaurant,86,"222 Avenue B, New York","New York, New York",95
Raclette,Palette Restaurant and Wine Bar,68,"511 East 12th Street, New York",New York,90
Barnyard Cheese Shop,X-tra Cheese Pizzeria & Restaurant,86,"168 Avenue B, New York","New York, New York",95
Hibachi Express,Cam Tak Express Restaurant,86,"536 East 14th Street, New York",New York,90
Dua Kafe,Subway Cafe,63,"520 East 14th Street, New York",New York,90
Gnocco,Poco,68,"337 East 10th Street, New York",New York,90
Au Za'atar,ATA,90,"188 Avenue A, New York","New York, New York",95
M & J,J and R Bakery and Restaurant,86,"600 East 14th Street, New York",New York,90
Gomi Korean Wine Bar,Bar Sol De Quito Restaurant II,86,"186 Avenue A, New York","New York, New York",95
Borrachito,Ranchito Restaurant,63,"206 Avenue A, New York","New York, New York",95
Shu Han Ju II,Bar Sol De Quito Restaurant II,86,"58 3rd Avenue, New York","New York, New York",95
Fu Chinese Cuisine,18 Chinese Cuisine,89,"58 3rd Avenue, New York","New York, New York",95
Boilery East Village,East Dynasty Chinese Restaurant,86,"58 3rd Avenue, New York","New York, New York",95
Jin Kitchen and Bar,Ambrosia Italian and Albanian Restaurant,86,"58 3rd Avenue, New York","New York, New York",95
Ainsworth East Village,Dragon Village Chinese Restaurant,86,"64 3rd Avenue, New York","New York, New York",95
Kotobuki,Kyoto Sushi,63,"56 3rd Avenue, New York","New York, New York",95
麻辣面对面,Super Taste (百味蘭州拉面) (Super Taste),18,"50 3rd Avenue, New York","New York, New York",95
Meet Noodles,Kuai An Hand Pull Noodles Restaurant,86,"50 3rd Avenue, New York","New York, New York",95
Heavenly Market and Deli,Deli,90,"77 3rd Avenue, New York","New York, New York",95
Westside Market,Westside Market,100,"84 3rd Avenue, New York","New York, New York",95
Third North Courtyard Cafe,Cafe 47,86,"NYU Third North Residence Hall, 75 3rd Avenue, New York",New York,90
Yuba,Cuba,75,"105 East 9th Street, New York",New York,90
Happy Bowls NYC,Happy Family Restaurant,86,"61 4th Avenue, New York","New York, New York",95
Han Dynasty,Dynasty Chinese Restaurant,86,"90 3rd Avenue, New York","New York, New York",95
Hunan Bistro,Hunan House Chinese Restaurant,86,"96 3rd Avenue, New York","New York, New York",95
Sharaku,Sharaku,100,"14 Stuyvesant Street, New York",New York,90
Alitalia,Alitalia Pizzeria Restaurant,90,"1138 East Tremont Avenue, The Bronx",196 23 Jamaica Avenue,86
Lucky House,Lucky House Restaurant,90,"1151 East Tremont Avenue, The Bronx",196 23 Jamaica Avenue,86
3A'S Legacy Salad & Grill,Moti's,86,"445 Morris Park Avenue, The Bronx",park avenue,90
El Salvadoreño,"El Salvadoreño, bar & restaurante",90,"455 Morris Park Avenue, The Bronx",park avenue,90
Chinese 5 Star,Star,90,"1715 East 174th Street, The Bronx",Street,90
Food Hai,Food Hai,100,"2030 Boston Road, The Bronx",Boston Road,90
Twin Donut Plus,Twin Ponds Restaurant & Bakery,86,"1061 East Tremont Avenue, The Bronx",196 23 Jamaica Avenue,86
Chin Ming Chan,Ming Star Chinese Restaurant,86,"2036 Boston Road, The Bronx",Boston Road,90
La cocina de Yala,La Cocina,90,"1756 East 174th Street, The Bronx",Street,90
Palermo Pizza,Pizza Pizza,95,"1764 East 174th Street, The Bronx",Street,90
Big Apple,Big Apple Restaurant,90,"936 East Tremont Avenue, The Bronx",196 23 Jamaica Avenue,86
Tropa Pizzaria,Pizza,90,"924 East Tremont Avenue, The Bronx",196 23 Jamaica Avenue,86
King Grill,King Chinese Restaurant,86,"855 East 169th Street, The Bronx",9th St,90
Joe & Pat's,Joe & Pat's Pizzeria and Restaurant,90,"1758 Victory Boulevard, Staten Island",2670 Coney Island Ave,86
How Greek It Is Too!,Big Nick's Burger & Pizza Joint Too,86,"1734 Victory Boulevard, Staten Island",2670 Coney Island Ave,86
Jelisa's Cafe,Theresa's Polish American Restaurant,86,"1756 Victory Boulevard, Staten Island",2670 Coney Island Ave,86
Mexican Cantina,Mad Dog & Beans Mexican Cantina,90,"1736 Victory Boulevard, Staten Island",2670 Coney Island Ave,86
Mountain Fusion Inc,Taipan Fusion Restaurant and Hookah Lounge,86,"1765 Victory Boulevard, Staten Island",2670 Coney Island Ave,86
Bagel Bistro Diner & Grill,Diner,90,"1810 Victory Boulevard, Staten Island",2670 Coney Island Ave,86
East New Sing Bo Chinese,"Golden Forest Chinese Restaurant, Brooklyn Ny",86,"1745 Victory Boulevard, Staten Island",2670 Coney Island Ave,86
Spice Rack,Spice,90,"1791 Victory Boulevard, Staten Island",2670 Coney Island Ave,86
Tokyo Sushi Korean BBQ,Yo Sushi,90,"1710 Victory Boulevard, Staten Island",2670 Coney Island Ave,86
Noodlefan,满粥麵 Wonton Noodle Garden Restaurant,70,"1809 Victory Boulevard, Staten Island",2670 Coney Island Ave,86
Goodfella's,Goodfella's Pizza,90,"1817 Victory Boulevard, Staten Island",2670 Coney Island Ave,86
Staten Island Diner,Diner,90,"1877 Victory Boulevard, Staten Island",2670 Coney Island Ave,86
The Beer Garden,Garden 13 Dairy Restaurant and Pizza,86,"1883 Victory Boulevard, Staten Island",2670 Coney Island Ave,86
Village Maria Pizza,Village Pizza,95,"768 Manor Road, Staten Island",591 City Island Ave,86
Happy Fortune,Happy Family Restaurant,86,"770 Manor Road, Staten Island",591 City Island Ave,86
The Burrito Spot,The Golden Glass Restaurant,86,"1903 Victory Boulevard, Staten Island",2670 Coney Island Ave,86
Finest Halal Food,Finest Halal Food Truck,95,"1931 Victory Boulevard, Staten Island",2670 Coney Island Ave,86
DiLeo's Pizzeria,Dino's Pizzeria,90,"2491 Victory Boulevard, Staten Island",2670 Coney Island Ave,86
New Yung Hong Chinese Takeout,New Yung Hong,90,"2491 Victory Boulevard, Staten Island",2670 Coney Island Ave,86
New kings pizzeria & restaurant inc,Restaurant,90,"2212 Victory Boulevard, Staten Island",2670 Coney Island Ave,86
Dairy Palace,Dagan Pizza & Dairy Restaurant,86,"2216 Victory Boulevard, Staten Island",2670 Coney Island Ave,86
Jimmy Max,Max,90,"280 Watchogue Road, Staten Island",2670 Coney Island Ave,86
Mezcal's,Mezcal's,100,"20 Bradley Avenue, Staten Island",144-20,86
Paesano's Pizzeria,La Strada Pizzeria & Restaurant,86,"12 Bradley Avenue, Staten Island",152-12 Northern Blvd,86
Roberto's Gourmet Kitchen,Robert,90,"2048 Victory Boulevard, Staten Island",2670 Coney Island Ave,86
Empire East,C&L Of East Ocean Restaurant,86,"1445 Richmond Avenue, Staten Island",1445 Richmond Ave,90
La Piazza Pizzeria & Restaurant,Pizzeria & Restaurant,95,"1445 Richmond Avenue, Staten Island",1445 Richmond Ave,90
Randiwa,ALDI,68,"1405 Richmond Avenue, Staten Island",Richmond Avenue,90
Sanma Japanese Restaurant,Sanma Japanese Restaurant,100,"10, Akron Street, New York","New York, New York",95
M & J Pizza,J-M Pizza II,95,"10 Akron Street, Staten Island",10 Akron St,90
Delicious shwarma,Deli,90,"2005 Victory Boulevard, Staten Island",2670 Coney Island Ave,86
Mizuumi,MIMI,73,"1970 Victory Boulevard, Staten Island",2670 Coney Island Ave,86
Crown Chicken Peri Peri chicken & BBQ grill (Halal),Korean BBQ Restaurant,86,"1970 Victory Boulevard, Staten Island",2670 Coney Island Ave,86
King Gyro,King Chinese Restaurant,86,"1970 Victory Boulevard, Staten Island",2670 Coney Island Ave,86
Round Pie Pizza Company,Pizza,90,"1957 Victory Boulevard, Staten Island",2670 Coney Island Ave,86
Yummy Cuisine,Yummy Yummy,95,"1980 Victory Boulevard suite 2, Staten Island",Cristofordo Columbo Boulevard,86
Number One Chinese Restaurant,Number One Chinese Restaurant,100,"2003 Victory Boulevard, Staten Island",2670 Coney Island Ave,86
In Fine Fettle,Step In Lounge and Restaurant,86,"961 Jewett Avenue, Staten Island",196 23 Jamaica Avenue,86
Yang Didi,Yang No. 1 Asian Restaurant,86,"183 Port Richmond Avenue, Staten Island",Richmond Avenue,90
Cuautla Morelos restaurant,Restaurant,90,"185 Port Richmond Avenue, Staten Island",Richmond Avenue,90
New Dinette Restaurant,Restaurant,90,"187 Port Richmond Avenue, Staten Island",Richmond Avenue,90
Goody's Spanish Food,Goody's,90,"201 Port Richmond Avenue, Staten Island",Richmond Avenue,90
MI ARMADILLO GRANDE,Mi Barrio Taqueria Restaurant,86,"1569 Castleton Avenue, Staten Island",196 23 Jamaica Avenue,86
No.1 Chinese Kitchen,No. 1 Chinese Kitchen,98,"209 Port Richmond Avenue, Staten Island",Richmond Avenue,90
Taqueria La Roqueta,Mi Barrio Taqueria Restaurant,86,"226 Port Richmond Avenue, Staten Island",Richmond Avenue,90
Recuerdos Mexicanos,Recuerdos Mexicanos Restaurant,90,"232 Port Richmond Avenue, Staten Island",Richmond Avenue,90
San Mateo Restaurant,Restaurant,90,"246 Port Richmond Avenue, Staten Island",Richmond Avenue,90
Piccolo Pinos Pizzeria,X-tra Cheese Pizzeria & Restaurant,86,"275 Port Richmond Avenue, Staten Island",Richmond Avenue,90
Sayori,Saporito Pizza & Restaurant,75,"1440 Forest Avenue, Staten Island",Forest Avenue,90
Yolpaqui Taqueria,Mi Barrio Taqueria Restaurant,86,"1431 Forest Avenue, Staten Island",Forest Avenue,90
Wing Rite,Wing xin chinese restaurant,86,"1419 Forest Avenue, Staten Island",Forest Avenue,90
Garlic Po-Boys,Three Boys From Italy,86,"1419 Forest Avenue, Staten Island",Forest Avenue,90
Shawafel House,Hunan House Chinese Restaurant,86,"1419 Forest Avenue, Staten Island",Forest Avenue,90
Tropical Smoothie Cafe,Cafe 47,86,"1407 Forest Avenue, Staten Island",Forest Avenue,90
Lunchbox,Lunchbox Food Co.,90,"1612 Forest Avenue, Staten Island",Forest Avenue,90
O'Neill's Staten Island,O'Neill's,90,"1614 Forest Avenue, Staten Island",Forest Avenue,90
Boba Le Tea Cafe,Cafe 47,86,"1396 B Forest Avenue Right behind Cricket Wireless, Staten Island",Forest Avenue,90
Empire Szechuan,Empire Szechuan,100,"1495 Forest Avenue, Staten Island",Forest Avenue,90
La Bella Pizza,La Bella Pizza,100,"1499 Forest Avenue, Staten Island",Forest Avenue,90
China New Star,China New Star,100,"1640 Forest Avenue, Staten Island",1640 Forest Ave,90
Mike's Olympic Grill Diner,Diner,90,"1637 Forest Avenue #2229, Staten Island",Forest Avenue,90
Gino's,Gino's Pizzeria,90,"1351 Forest Avenue, Staten Island",1351 Forest Ave,90
charcoal bbq,Korean BBQ Restaurant,86,"1351 Forest Avenue, Staten Island",1351 Forest Ave,90
Miyabi II Asian Fusion,Taipan Fusion Restaurant and Hookah Lounge,86,"1348 Forest Avenue, Staten Island",Forest Avenue,90
Lobito Restaurant,Lo-to Restaurant,91,"330 Heberton Avenue, Staten Island",196 23 Jamaica Avenue,86
San Miguel,Pizza's San Miguel,90,"680 Cary Avenue, Staten Island",311 Avenue X,86
Mayanoki,Maya,90,"620 East 6th Street, New York",St 6,90
Grape and Grain,Ghoroa Sweets and Restaurant,86,"620 East 6th Street, New York",St 6,90
Sake Bar Satsko,El Morro Restaurant & Bar,86,"202 East 7th Street, New York",New York,90
Horus Cafe,Stars Cafe & Restaurant,86,"93 Avenue B, New York","New York, New York",95
Ciao Pasta NYC,The NYC Bull - Restaurant & Rotisserie,86,"103 Avenue B, New York","New York, New York",95
Sunny & Annie's Deli,Deli,90,"94 Avenue B, New York","New York, New York",95
Gruppo Thin Crust Pizza,CRUST,90,"98 Avenue B, New York","New York, New York",95
San Loco,San Soo Kap San,86,"111 Loisaida Avenue, New York",New York,90
Alphabet City Beer Co.,China City,86,"96 Loisaida Avenue, New York",New York,90
Bobwhite Counter - Alphabet City,Green City Restaurant,86,"94 Loisaida Avenue, New York",New York,90
Oda House,Hunan House Chinese Restaurant,86,"76 Avenue B, New York","New York, New York",95
panacea,Paname,77,"102 Loisaida Avenue, New York",New York,90
Avenue C,Avenue C Restaurant,90,"102 Loisaida Avenue, New York",New York,90
Lavagna,Lavagna,100,"545 East 5th Street, New York",New York,90
Casa Adela,Casa Adela,100,"66 Loisaida Avenue, New York",New York,90
Kafana,Okfana Restaurant,75,"116 Loisaida Avenue, New York",New York,90
Black Iron Burger,Burger King,86,"540 East 5th Street, New York",New York,90
Tuome,El Buen Gusto Mexican Restaurante,72,"536 East 5th Street, New York",New York,90
The Summit Bar,El Morro Restaurant & Bar,86,"133 Loisaida Avenue, New York",New York,90
New Chinatown,New Chinatown,100,"11 Avenue D B, New York","New York, New York",95
Royal Fried Chicken,Port Royal Jamaican Restaurant,86,"13 Avenue D, New York","New York, New York",95
Lam Hau Kam,Kam Kuo Restaurant,86,"71 Columbia Street, New York",New York,90
Avenue D Pizza,Pizza Pizza,95,"15 Avenue D, New York","New York, New York",95
Columbia Pizza,Pizza Pizza,95,"51 Columbia Street, New York",New York,90
Yoli's,Theresa's Polish American Restaurant,86,"274 East 3rd Street, New York",New York,90
Bistro truck,Truck Stop Restaurant,86,"124 Ridge Street, New York","New York, New York",95
Cee Cee’s Food Cart,Food Cart,90,"40 Loisaida Avenue, New York",New York,90
Sandy coffee shop,Andy's Coffee Shop,91,"212 Delancey Street #3503, New York",New York,90
The Bun Hut,The Golden Glass Restaurant,86,"178 Stanton Street, New York",New York,90
"TRAMEZZINI NYC, Sandwiches of Venice & Italian Eatery",Danza's Italian Restaurant,86,"309 East Houston Street, New York",New York,90
Koneko,One & One,86,"26 Clinton Street, New York",6 Clinton St,90
El Castillo De Madison,El Castillo de Madison Restaurant,90,"207 Madison Street, New York",Madison St,90
Madison Street Pizza,Pizza,90,"223 Madison Street, New York",Madison St,90
Forever Taste,Taste,90,"27 Rutgers Street, New York",New York,90
Les Enfants de Bohème,Bar Sol De Quito Restaurant II,86,"177 Henry Street, New York","New York, New York",95
LES Enfants Delice,Deli,90,"18 Jefferson Street, New York",New York,90
Cheong Fun Cart on Rutgers,Foo On Restaurant,86,"165 East Broadway, New York",New York,90
Mission Chinese Food,Mission Chinese Food,100,"171 East Broadway, New York",New York,90
Petisco Vegano,Sea,60,"189 East Broadway, New York",New York,90
Lower East Side Pizza,Pizza,90,"181 East Broadway, New York",New York,90
Loho,Poloros Restaurant,68,"204 Clinton Street, New York",4 Clinton St,90
Kopitiam,Pitkin Farm,63,"151 East Broadway, New York",New York,90
Carol's Bun,Theresa's Polish American Restaurant,86,"139 East Broadway, New York",New York,90
Happy Family,Happy Family Restaurant,90,"213 East Broadway # A, New York",New York,90
Clinton Square Pizza,Pizza,90,"201 Clinton Street, New York",New York,90
Go Vegan Cuisine,Annie Chan's Japanese Cuisine Restaurant,86,"215 East Broadway, New York",New York,90
Food King,New Food King,95,"56 Market Street, New York","New York, New York",95
May Kaidee,Ho May Restaurant,86,"215 East Broadway, New York",New York,90
New Win Way,New Fulin Kwok Seafood Restaurant,86,"2830 Coney Island Avenue, Brooklyn",brooklyn,90
Sofia's Pizza,Sofia's Pizza,100,"2822 Coney Island Avenue, Brooklyn",2822 Coney Island Ave,90
Nargis Cafe,Stars Cafe & Restaurant,86,"2818 Coney Island Avenue, Brooklyn",brooklyn,90
Tsob Tsobe Mediterranean Restaurant,Tsob Tsobe,90,"2817 Coney Island Ave floor #1, Brooklyn",2817 Coney Island Ave,90
Asian King,King Chinese Restaurant,86,"2827 Coney Island Avenue, Brooklyn",brooklyn,90
Cafe Gallery,Stars Cafe & Restaurant,86,"2801 Coney Island Avenue, Brooklyn",2801 Coney Island Ave,90
Chinar Restaurant & Special Events,Restaurant,90,"2775 Coney Island Avenue, Brooklyn",2775 Coney Island Ave,90
My House Burgers & Shakes,Dumpling House,86,"367 Avenue X, Brooklyn",brooklyn,90
Love & Delicious Deli,Love and Delicious Deli Grocery,95,"365 Avenue X, Brooklyn",5 ave,90
Juniors Pizza,Junior's Pizza,96,"203 Neptune Avenue, Brooklyn",brooklyn,90
Shama,New Shama Restaurant,90,"232 Neptune Avenue, Brooklyn",232 Neptune Ave,90
Wise Espresso Bar,Bar Sol De Quito Restaurant II,86,"3120 Coney Island Avenue, Brooklyn",brooklyn,90
NY GYRO EXPRESS,Gyro express,95,"3160 Coney Island Avenue, Brooklyn",brooklyn,90
Rocco Bakery,Rocco Bakery of Avenue U,90,"117 Brighton Beach Avenue, Brooklyn",brooklyn,90
Georgian House,Hunan House Chinese Restaurant,86,"129 Brighton 1st Street, Brooklyn",brooklyn,90
Rocco's Pizzeria,Rocky's Pizzeria,88,"123 Brighton Beach Avenue, Brooklyn",brooklyn,90
Brooklyn's Original Rocco's,Moti's,86,"123 Brighton Beach Avenue, Brooklyn",brooklyn,90
Berikoni,Khyber Indian Restaurant,68,"125 Brighton Beach Avenue, Brooklyn",brooklyn,90
Umi,Umi Sushi,90,"215 Brighton Beach Avenue, Brooklyn",brooklyn,90
Gambrinus & Co,Hyco Restaurant Supply Co,86,"3100 Ocean Parkway, Brooklyn",brooklyn,90
Brighton Güllüoglu Baklava Cafe,Cafe 47,86,"239 Brighton Beach Avenue, Brooklyn",brooklyn,90
Sachiko,Ranchito Restaurant,64,"3083 Brighton 1st Place, Brooklyn",brooklyn,90
Vis A Vis,A-HO RESTAURANT,86,"3100 Ocean Parkway, Brooklyn",brooklyn,90
The Sandbox Grill and Juice Bar,The Pine Restaurant,86,"201 Brighton 1st Road, Brooklyn",brooklyn,90
China Long,China1 Lounge,87,"197 Neptune Avenue, Brooklyn",brooklyn,90
Aqualina,Li Li,86,"198 Neptune Avenue, Brooklyn",brooklyn,90
Agr Restaurant & Catering,Restaurant,90,"198 Neptune Avenue, Brooklyn",brooklyn,90
Tacos Los Poblanos,El Rinconcito De Los Sabores Restaurant & Deli,86,Brooklyn,brooklyn,100
Surf City Pizzeria,La Strada Pizzeria & Restaurant,86,"837 Surf Avenue, Brooklyn",brooklyn,90
Poker Cafe,Stars Cafe & Restaurant,86,"1047 Surf Avenue, Brooklyn",1047 Surf Ave,90
Carl's Jr.,Theresa's Polish American Restaurant,86,"1201 Surf Avenue, Brooklyn",brooklyn,90
Grimaldi's,Grimaldi's Coal Brick-Oven Pizza,90,"1215 Surf Avenue, Brooklyn",brooklyn,90
Margarita Island,Mike's Island Grill Restaurant,86,"1105 Bowery Street, Brooklyn",brooklyn,90
Oceanside Grill,Golden Krust Caribbean Bakery and Grill,86,"Riegelmann Boardwalk, Brooklyn",Boardwalk,90
Gyro Qila,"Airways Pizza, Gyro & Restaurant",86,"1233 Surf Avenue, Brooklyn",1233 Surf Ave,90
Kebab Garden,Garden 13 Dairy Restaurant and Pizza,86,"2943 Stillwell Avenue, Brooklyn",brooklyn,90
DUNKIN DONUTS/ BASKIN ROBINS CONEY IS. STATION,Dunkin',90,"2943 Stillwell Avenue, Brooklyn",brooklyn,90
Doña Zita,Plaza Mexico Dona Zita,86,"1221 Bowery Street, Brooklyn",brooklyn,90
Bagels for You,You-Chon Korean Restaurant,86,"113-29 Queens Boulevard, Queens",Queens Boulevard,90
Fuji Japanese Cuisine,Yan Jing Chinese and Japanese Restaurant,86,"113-27 Queens Boulevard, Queens",Queens Boulevard,90
New East Ocean Palace,New Fulin Kwok Seafood Restaurant,86,"113-09 Queens Boulevard, Forest Hills",Queens Boulevard,90
Queens Bully,Queen,90,"113-30 Queens Boulevard, Queens",Queens Boulevard,90
Forest Hills Deli Bagel,Deli,90,"112-10 Queens Boulevard, Forest Hills",Queens Boulevard,90
Compadres77,Los Compadres Food - ATM,74,"115-20 Queens Boulevard, Forest Hills",Queens Boulevard,90
Agra Palace Indian Restaurant & Party Hall,Restaurant,90,"116-33 Queens Boulevard, New York",New York,90
El Pollo Inka Peru,El Coyote Mexican Restaurant,86,"112-20 Queens Boulevard, Forest Hills",Queens Boulevard,90
Keuka Kafe,Europan Cafe,64,"11204 Queens Boulevard, Forest Hills",Queens Boulevard,90
Sushi Koi,Ko Sushi,89,"11637 Queens Boulevard, Forest Hills",Queens Boulevard,90
Queens Pizza,Pizza Pizza,95,"7055, 11614 Queens Boulevard, Flushing",Queens Boulevard,90
super kew garden&King Garden,King Garden,90,"116-49 Queens Boulevard, Forest Hills",Queens Boulevard,90
Super Kew Garden,Garden 13 Dairy Restaurant and Pizza,86,"116-49 Queens Boulevard, Queens",Queens Boulevard,90
Beijing Dumpling,Beijing Garden Chinese Restaurant,86,"116-14A Queens Boulevard, Queens",Queens Boulevard,90
Shogun Hibachi,Kiraku Hibachi & Sushi,86,"111-16 Queens Boulevard, Forest Hills",Queens Boulevard,90
Fresco Tortilleria,Fresco Pizzeria & Restaurant,86,"11632 Queens Boulevard, Forest Hills",Queens Boulevard,90
New Pinang,New Fulin Kwok Seafood Restaurant,86,"111-10 Queens Boulevard, Queens",Queens Boulevard,90
Nick's Pizza,Nicks Pizza,96,"108-26 Ascan Avenue, Queens",Between 39th and 40th street on 13th Avenue,86
Jack & Nellie's,Theresa's Polish American Restaurant,86,"10825 Ascan Avenue, Forest Hills",196 23 Jamaica Avenue,86
Sushi Time,Ginpachi Sushi Restaurant,86,"72-42 Austin Street, Forest Hills",Street,90
Guantanamera,Paname,75,"110-80 Queens Boulevard, Forest Hills",Queens Boulevard,90
Matiz Latin Cuisine,Annie Chan's Japanese Cuisine Restaurant,86,"11072 Queens Boulevard, Forest Hills",Queens Boulevard,90
Tuscan Hills,Tuscan Hills Restaurant,90,"110-60 Queens Boulevard, New York",New York,90
Nine Thai by Thai Boulevard,Thai 101,86,"110-70 Queens Boulevard, Forest Hills",Queens Boulevard,90
Rove,Island Grove Restaurant,90,"72-27 Austin Street, Forest Hills",Street,90
Portofino Ristorante,Portofino Ristorante,100,"109-32 Ascan Avenue, Queens",109-32 Ascan Ave,90
Austin House Diner,Diner,90,"72-04 Austin Street, Flushing",Street,90
Spy C Cuisine,C&L Of East Ocean Restaurant,86,"72-06 Austin Street, Forest Hills",Street,90
Katsuno,La Asuncion Mexican Restaurant,64,"103-01 Metropolitan Avenue, New York",New York,90
Star of Siam Thai Kitchen,Star,90,"103-18 Metropolitan Avenue, Queens",Metropolitan Ave.,90
Rimtin,Kim tint restaurant,75,"104-02 Metropolitan Avenue, Forest Hills",Metropolitan Ave.,90
Continental Lunchonette & Deli,Deli,90,"10403 Metropolitan Avenue, Forest Hills",Metropolitan Ave.,90
New Hong Kong Kitchen,New Hong Kong Kitchen,100,"8446 Eliot Avenue, Flushing",Between 39th and 40th street on 13th Avenue,86
Tomato & Pesto Pizzeria,Gino's Pizzeria,86,"92-44 Queens Boulevard, New York",New York,90
Boca Juniors Queens New York,Queen,90,"Queens Boulevard, Queens",Queens Boulevard,90
A&j pizza,A&A Pizza,95,"89-30 Queens Boulevard, Elmhurst",Queens Boulevard,90
East Meets West,East Meets West Superb Chinese Food,90,"65-07 Woodhaven Boulevard, New York",New York,90
D'Angelos Sausage Truck,D&P Restaurant,86,"6605 Woodhaven Boulevard, Queens",13861 Queens Blvd,86
Dominick's Hot Dog Truck,Theresa's Polish American Restaurant,86,"65-35 Woodhaven Boulevard, Rego Park",184-35 Jamaica Ave,86
Dalina,Kalina Restaurant,75,"91-14 63rd Drive, Rego Park",91-15 31st Ave,86
Versailles Palace,China palace chinese restaurant,86,"6334 Austin Street, Rego Park",Street,90
Cheburechnaya,Maya,68,"9209 63rd Drive, Rego Park",169 Park Ave,86
Rego Garden,Garden 13 Dairy Restaurant and Pizza,86,"9303 63rd Drive, New York","New York, New York",95
UThai,Mekong Thai & Vietnamese Restaurant,72,"63-55 Wetherole Street, Rego Park",Street,90
Hendriks,Nori,68,"557 3rd Avenue, New York","New York, New York",95
Daniels Bagel,Daniel,90,"569 3rd Avenue, New York","New York, New York",95
Sons of Thunder,C&L Of East Ocean Restaurant,86,"204 East 38th Street, New York",New York,90
Sophra Grill,Golden Krust Caribbean Bakery and Grill,86,"535 3rd Avenue, New York","New York, New York",95
Tenho Ramen,Ajisen Ramen,70,"542 3rd Avenue, New York","New York, New York",95
Sarge's Delicatessen & Diner,Sarge's Delicatessen & Diner,100,"548 3rd Avenue, New York","New York, New York",95
Bagel Boss Murray Hill,Sugar Hill Restaurant & Supper Club,86,"544 3rd Avenue, New York","New York, New York",95
Little Alley,Little Bandgladesh Restaurant,86,"550 3rd Avenue, New York","New York, New York",95
Libretto's,Libretto's Pizzeria,90,"546 3rd Avenue, New York","New York, New York",95
El Rio Grande,El Rio Grande,100,"160 East 38th Street, New York",New York,90
Duke's,Duke's Steakhouse,90,"560 3rd Avenue, New York","New York, New York",95
Delectica,Delicia,75,"564 3rd Avenue, New York","New York, New York",95
Hiroshi Sushi,Ginpachi Sushi Restaurant,86,"585 3rd Avenue #2835, New York",New York,90
Jackson Hole,Jackson Hole,100,"521 3rd Avenue, East 35th Street, New York",New York,90
Sushi Ryusei,Ginpachi Sushi Restaurant,86,"216 East 39th Street, New York",216 East,90
Riverpark,Riverpark,100,"450 East 29th Street, New York",New York,90
Moonstruck,Moonstruck on Third,90,"462 1st Avenue, New York","New York, New York",95
NYC Best Halal Cart,Halal,90,New York,New York,100
Manolo's Coffee Express,Coffee Express,90,"342 East 28th Street, New York",New York,90
Achilles Heel,Heavenly fritailles,66,"180 West Street, Brooklyn",brooklyn,90
Lucky Chicken,Lucky,90,"377 1st Avenue, New York","New York, New York",95
Peter Cooper Village Deli,Deli,90,"375 1st Avenue, New York","New York, New York",95
Frank's Trattoria,Frank's Trattoria,100,"371 1st Avenue, New York","New York, New York",95
LIC LANDING,Li Li,72,"52-10 Center Boulevard, Long Island City",37-10 114th St,86
Hane Sushi,Hana Sushi,90,"346 1st Avenue, New York","New York, New York",95
Bangkok 2,Oliva Paraiso Restaurant No 2,86,"355 1st Avenue, New York","New York, New York",95
WOKUNI,Wok Wok,64,"327 Lexington Avenue, New York",New York,90
Dunhuang Noodles Grand Central,564 Grand Restaurant,86,"320 Lexington Avenue, New York",New York,90
The Junction,The Golden Glass Restaurant,86,"329 Lexington Avenue, New York",New York,90
Tam Sang,Sangam,82,"331 Lexington Avenue, New York",New York,90
Sam's Place,Theresa's Polish American Restaurant,86,"132 East 39th Street, New York",New York,90
La Stanza,La Strada Pizzeria & Restaurant,86,"334B Lexington Avenue, New York",New York,90
House of Lasagna,C&L Of East Ocean Restaurant,86,"334 Lexington Avenue, New York",34 Lexington Ave,90
Sushi Zo Hanare,Ginpachi Sushi Restaurant,86,"127 East 39th Street, New York",New York,90
Hunan Manor,Hunan House Chinese Restaurant,86,"339 Lexington Avenue #0991, New York",339 Lexington Ave,90
Scotty's Diner,Diner,90,"336 Lexington Avenue, New York",New York,90
Kajitsu,Kaieteur,67,"125 East 39th Street, New York",New York,90
Previti Pasta & Pizza,Pizza,90,"341 Lexington Avenue, New York",New York,90
Kokage,Gen,72,"125 East 39th Street, New York",New York,90
Rare Bar & Grill,El Morro Restaurant & Bar,86,"303 Lexington Avenue, New York",New York,90
Momosan Ramen & Sake,Ajisen Ramen,86,"342 Lexington Avenue, New York",New York,90
Nirvana Catering NYC,Sunshine Restaurant Food & Catering Inc,86,"346 Lexington Avenue, New York",346 Lexington Ave,90
Nirvana,Jazzy West Indian and American Restaurant,64,"346 Lexington Avenue, New York",346 Lexington Ave,90
Crazy Mongol,Crazy Chicken Restaurant & Coffee Shop,86,"3460 Junction Boulevard, Queens",3452 Junction Blvd,86
La Hueca,La Strada Pizzeria & Restaurant,86,"9321 37th Avenue, Jackson Heights",7th Ave,90
Tacos Morelos,Tacos Puebla Restaurant,86,"9413 37th Avenue, Queens",7th Ave,90
La Ruana Paisa,La Ruana Paisa Colombian Restaurant,90,"92-03 37th Avenue, Queens",7th Ave,90
Tacos Tortas Y Quesadillas Guerrero,J Y R Restaurant,86,"9423 37th Avenue, Jackson Heights",7th Ave,90
El Puerto de Acapulco,El Puerto,90,"9316 37th Avenue, Jackson Heights",7th Ave,90
Polleria Azogueñita,Olea,68,"9123 37th Avenue, Queens",7th Ave,90
Barzola,Barzola,100,"92-12 37th Avenue, New York",7th Ave,90
Sea Star,Star,90,"91-21 37th Avenue, Jackson Heights",7th Ave,90
La Puntilla,La Puntilla Bar & Restaurant,90,"91-17 37th Avenue, Jackson Heights",7th Ave,90
Mi Pequeño El Salvador,El Mexicano,86,"94-16 37th Avenue, New York",7th Ave,90
El Trigal Bakery & Restaurant,El Trigal Bakery & Restaurant,100,"9031 37th Avenue, Jackson Heights",7th Ave,90
Brisas Del Valle,El Valle,90,"9014 37th Avenue, Jackson Heights",7th Ave,90
Uncle Thomas Pizza,Thomas pizza,90,"9023 37th Avenue, Jackson Heights",7th Ave,90
Warique Restaurant,Restaurant,90,"90-04 37th Avenue, New York",7th Ave,90
Tacos Al Suadero,Masters of Tacos Mexican Restaurant,86,"37-57 90th Street, Jackson Heights",Street,90
Prima Donna,Primadonna,95,"90-18 Roosevelt Avenue, Jackson Heights",Roosevelt Ave.,90
Molcajete Mexican Restaurant,Restaurant,90,"92-13 Roosevelt Avenue, Queens",Roosevelt Ave.,90
Tia Julia,Julia's Restaurant,86,Queens,"207-13 Jamaica Ave, Queens, NY 11428",90
Bar Sedona,El Morro Restaurant & Bar,86,"90-99-90-1, Roosevelt Avenue, Jackson Heights",Roosevelt Ave.,90
La Pequena Taste of Italy Pizza,Taste,90,"37-72 90th Street, Jackson Heights",Street,90
Taco Veloz,Mister Taco Mexican Restaurant,86,"90-10 Roosevelt Avenue, Jackson Heights",Roosevelt Ave.,90
Antojitos Doña Fela,antojitos deli food,70,"90th street and, Roosevelt Avenue, Jackson Heights",Roosevelt Ave.,90
Bistro Eloise,Luna Asian Bistro and Japanese Rooftop Restaurant 日本料理,86,"75-57 31st Avenue, Queens",1st ave.,90
Plaka,Lanueva Plaza Restaurant,72,"75 61 31st Avenue, East Elmhurst",1st ave.,90
J J Chan's Garden,Theresa's Polish American Restaurant,86,"75-21 31st Avenue, Queens",1st ave.,90
French Frie Hut,Tropical Hut Restaurant,86,"79-11 31st Avenue, Flushing",1st ave.,90
King River,King River Chinese Restaurant,90,"80-18 31st Avenue, East Elmhurst",1st ave.,90
Star Light Grill,Star,90,"80-02 Astoria Boulevard, Flushing",10015 Astoria Blvd,86
Ert Restaurant,ERT Restaurant,100,"73-18 Northern Boulevard, Jackson Heights",147-18 Northern Blvd,86
El Rico Tinto,El Rico Tinto,100,"73-18 Northern Boulevard, Jackson Heights",147-18 Northern Blvd,86
Taste of Lahore,Taste,90,"73-10 Northern Boulevard, Jackson Heights",147-18 Northern Blvd,86
Sunshine,Sunshine Restaurant Food & Catering Inc,90,"69-15 Northern Boulevard, Woodside",147-18 Northern Blvd,86
Jax Inn Diner,Diner,90,"7212 Northern Boulevard, Jackson Heights",147-18 Northern Blvd,86
Chifa,Chifa Restaurant,90,"73-20 Northern Boulevard, New York",New York,90
King Wah,King Wah,100,"69-11 Northern Boulevard, Woodside",147-18 Northern Blvd,86
Tikka Grill,Tikka Grill,100,"2402 82nd Street, Queens",2402 82nd St,90
Mahmoud corner (Halal Food Truck),Halal Food,90,"54-5 Northern Boulevard, Woodside",147-18 Northern Blvd,86
Sum Fung,Sum Fung,100,"5401 Northern Boulevard, Woodside",147-18 Northern Blvd,86
El Vaquerito Corp.,El TRI MX Restaurant & Bar,86,"54-11 Northern Boulevard, Queens",147-18 Northern Blvd,86
Cafeteria Restaurant 55,Restaurant,90,"54-11 Northern Boulevard, Woodside",147-18 Northern Blvd,86
Upscale International Cafe,National,90,"54-20 Broadway, Woodside",Broadway,90
Arepas La Negra To Go,La Roja de Todos Restaurant & Bakery,86,"54-20 Broadway, Woodside",Broadway,90
Frijole Mexican Grill,Golden Krust Caribbean Bakery and Grill,86,"54-12 31st Avenue, Woodside",1st ave.,90
Woodside Deli & Bagel,Deli,90,"54-12 31st Avenue, Woodside",1st ave.,90
Casa Theodoro,Casa,90,"54-18 31st Avenue, Woodside",54-18 31st Ave,90
Krispy Krunchy Chicken,Crazy Chicken Restaurant & Coffee Shop,86,"5414 31st Avenue, Woodside",1st ave.,90
Mamajuana Cafe Queens,Queen,90,"33-15 56th Street, Woodside",Street,90
Mamajuanarestaurant,Restaurant,90,"3315 56th Street, Woodside",3315 56th St,90
Rice x Beans Woodside,Bea,90,"30-86 51st Street, Woodside",30-86 51st St,90
Veggie Lin Garden,Garden 13 Dairy Restaurant and Pizza,86,"48-14 Broadway, Astoria",14 Broadway,90
Thai Nara Halal Restaurant,Restaurant,90,"64-02 35th Avenue, Woodside",5th Avenue,90
New Texas Chicken & Pizza (Halal),Halal,90,"64-01 Broadway, Queens",64-01 Broadway,90
El Conquistador,El Morro Restaurant & Bar,86,"63-04 Broadway, Woodside",Broadway,90
No.1 Chinese Food,Chinese Food,95,"63-08 Broadway, Flushing",63-08 Broadway,90
La Abundancia,La Abundancia,100,"6310 Broadway, Flushing",Broadway,90
Alex's Pizza & Deli,Pizza,90,"70-20 35th Avenue, Jackson Heights",5th Avenue,90
Pacific Moon,Moon Pizzeria and Restaurant,86,"59-02 Broadway, Queens",2 Broadway,90
New Lin's Kitchen,New Lin's Garden Kitchen,95,"70-24 35th Avenue, Jackson Heights",5th Avenue,90
Titash,Tita's Restaurant,75,"7106 35th Avenue, Flushing",5th Avenue,90
Gulshan Terrace,Broadway Lounge & Terrace,86,"59-15 37th Avenue, Woodside",7th Ave,90
Dhaka,Dhaka Sweets And Restaurant,90,"5915 37th Avenue, Woodside",7th Ave,90
Thailand’s Center Point,Theresa's Polish American Restaurant,86,"6319 39th Avenue, Queens",39th,90
52nd Sushi,Ginpachi Sushi Restaurant,86,"5221 Roosevelt Avenue, Flushing",Roosevelt Ave.,90
Nature's Vida,Theresa's Polish American Restaurant,86,"53-05 Roosevelt Avenue, Queens",Roosevelt Ave.,90
La Adelita De Woodside,Deli,90,"5321 Roosevelt Avenue, Woodside",Roosevelt Ave.,90
Kristy's,Kristy's Rest.,90,"796 Courtlandt Avenue, The Bronx",Courtlandt Avenue,90
Sweet Corncourser Deli Market & Pizza,Pizza,90,The Bronx,"1095 Prospect Ave, Bronx, NY 10459",86
Daisy's Pizza,Daisy's Pizza Place,95,"3075 3rd Avenue, The Bronx",3rd Ave.,90
Hungry Bird,Golden Bird Chinese Food,86,"980 Morris Avenue, The Bronx",Between 39th and 40th street on 13th Avenue,86
Kennedy fried chicken 253,Kennedy Fried Chicken,95,"253 East 167th Street, The Bronx",167th St.,90
Razancha Bar & Restaurant,Restaurant,90,"213 East 170th Street, The Bronx",Street,90
Eastern Chinese Style,Eastern Chinese Style,100,"1233 Grant Avenue, The Bronx",1233 Grant Ave,90
Richie Rich Caribbean Taste ( 167th Street ),Eastern Taste Restaurant,86,"260 East 167th Street, The Bronx",167th St.,90
Taino Taste,Taste,90,"302 East 170th Street #1106, The Bronx",Street,90
PG Pizza,Pizza Pizza,95,"231 East 167th Street, The Bronx",167th St.,90
Bargrar,RaR Bar,82,"1333 Webster Avenue, The Bronx",Webster Ave,90
US Kennedy Chicken & Pizza,Kennedy Pizza & Chicken,95,"295 East 170th Street, The Bronx",Street,90
Antonio's Restaurant,Antonio's Restaurant,100,The Bronx,"1095 Prospect Ave, Bronx, NY 10459",86
New Era,New Era Restaurant & Lounge,90,"211 East 167th Street, The Bronx",167th St.,90
Nuevo Robles,Restaurant Nuevo Robles,90,"216 East 170th Street, The Bronx",216 East,90
Chi Keung Cheng,Chi Keung Cheng Chinese Restaurant,90,"1391 Webster Avenue #1, The Bronx",1391 Webster Ave,90
Lucky House,Lucky House Restaurant,90,"202 East 167th Street, The Bronx",167th St.,90
Rema's,Theresa's Polish American Restaurant,86,"1445 Webster Avenue, The Bronx",Webster Ave,90
Larimar,larimar restaurant & bar,90,"213 East 170th Street, The Bronx",Street,90
Dragon,Dragon Chinese Restaurant,90,"3706 3rd Avenue #170, The Bronx",3706 3rd Ave,90
Grin,Grin African American Restaurant,90,"454 East 168th Street, The Bronx",Street,90
Traditions,Bonjuk Korean Traditional Porridge Restaurant,81,"84-28 164th Street, Jamaica",Street,90
Annam Brahma,Annam Brahma,100,"8443 164th Street, Queens",8443 164th St,90
New York Masala,New Fulin Kwok Seafood Restaurant,86,"16407 85th Avenue, Jamaica",5th Avenue,90
HALAL DINER,Diner,90,"8447 Parsons Boulevard, Jamaica",45-21 Parsons Blvd,86
The Panorama Of My Silence-Heart Cafe,Stars Cafe & Restaurant,86,"84-73 Parsons Boulevard, Jamaica",45-21 Parsons Blvd,86
Asian Food PinoyNY.com,Asian Food,90,"83-35 Parsons Boulevard, Queens",45-21 Parsons Blvd,86
Avenita Diner,Diner,90,"83-23 Parsons Boulevard, Jamaica",45-21 Parsons Blvd,86
QHC Halal Cart Food,Halal Food Cart,95,"82-24, 82-16 164th Street, Jamaica",Street,90
SPICY CURRY HOUSE (HALAAL),Dumpling House,86,"83-27 Parsons Boulevard, Jamaica",45-21 Parsons Blvd,86
John's Pizzeria,John & Joe's Pizzeria,95,"83-40 Parsons Boulevard, Queens",40-11 150th St,86
Philippine Famous,famous restaurant Chinese food,86,"83-30 Parsons Boulevard, Jamaica",45-21 Parsons Blvd,86
D' Angelos Pizza,D'angelos Pizza,97,"8237 164th Street, Jamaica",8237 164th St,90
Rae's Cafe,Theresa's Polish American Restaurant,86,"8229 164th Street, Jamaica",Street,90
Supreme Diner,Diner,90,"82-65 Parsons Boulevard, Queens",45-21 Parsons Blvd,86
Delox juice bar and grill,Ambrosia Italian and Albanian Restaurant,86,"159-02 Parsons Boulevard, Jamaica",45-21 Parsons Blvd,86
Chef's Garden,Chef's Garden,100,"8009 164th Street, Jamaica",8009 164th St,90
"Burgerim , TCBY & Cafe",Cafe 47,86,"162-16 Union Turnpike, New York",New York,90
Burgerim Gourmet Burgers Halal,Halal,90,"162-16 Union Turnpike, Fresh Meadows",2930 Union St,86
Plaza Sub 164 Inc,Sunshine Restaurant Food & Catering Inc,86,"16216 Union Turnpike, Flushing",2930 Union St,86
New Tokyo,New Fulin Kwok Seafood Restaurant,86,"162-16 Union Turnpike #104, Queens",2930 Union St,86
Hadiyah,ALDI,68,"172-27 Hillside Avenue, Jamaica",Hillside Avenue,90
C I,organic II Deli,90,"17233 Hillside Avenue A, Jamaica",Hillside Avenue,90
Mirch,Marchi,73,"172-27 Hillside Avenue, Jamaica",Hillside Avenue,90
Para ti Colombia con Sabor,Para Ti Colombia Con Sabor,100,"17235 Hillside Avenue, Jamaica",17235 Hillside Ave,90
Halal Dynasty Restaurant,Dynasty Restaurant,95,"172-33 Hillside Avenue A, Jamaica",Hillside Avenue,90
Smash Grill,Golden Krust Caribbean Bakery and Grill,86,"172-41 Hillside Avenue, Jamaica",Hillside Avenue,90
El Tequilazo,El Morro Restaurant & Bar,86,"172-37 Hillside Avenue, Jamaica",Hillside Avenue,90
Delicias Cuencanas Restaurant,Restaurant,90,"17218 Hillside Avenue, Jamaica",Hillside Avenue,90
Sagar Chinese,King Chinese Restaurant,86,"8747 Homelawn Street, Queens",Street,90
Shah’s Gyro,Theresa's Polish American Restaurant,86,"Near 87-67, 87-57 Homelawn Street, Jamaica",Street,90
Palm Court of Guyana,Ranch Restaurant and Bar of Guyana,86,"17116 Hillside Avenue, Queens",Hillside Avenue,90
Jade Garden,Jade Garden,100,"17012 Hillside Avenue a, Jamaica",17012 Hillside Ave,90
Panshi Outdoor Seting,Pasha,72,"168-39 Hillside Avenue, Jamaica",Hillside Avenue,90
Panshi,El Castillo Restaurant Spanish Food,75,"168-37 Hillside Avenue, Jamaica",Hillside Avenue,90
Panshi Restaurant & Party Hall,Restaurant,90,"168, 37/39 Hillside Avenue, Jamaica",Hillside Avenue,90
Ghoroa Restaurant,Restaurant,90,"16841 Hillside Avenue, Jamaica",Hillside Avenue,90
Golden Fountain Kitchen,"Golden Forest Chinese Restaurant, Brooklyn Ny",86,"11616 Metropolitan Avenue, Richmond Hill",Metropolitan Ave.,90
Sawari Halal Food,Sarwari Halal Food,97,"116-22 Metropolitan Avenue, Richmond Hill",Metropolitan Ave.,90
Thai House Cuisine,Mekong Thai & Vietnamese Restaurant,86,"116-03 Metropolitan Avenue, Richmond Hill",Metropolitan Ave.,90
Mother Earth Juice Bar & Health Food Cafe,Health Food,90,"116-03 Metropolitan Ave Entrance around corner from Thai Restaurant, Richmond Hill",Metropolitan Ave.,90
Wakamatsu 2,Wakamatsu,95,"116-09 Metropolitan Avenue, New York",New York,90
Spolini's,Theresa's Polish American Restaurant,86,"116-25 Metropolitan Avenue, Jamaica",Metropolitan Ave.,90
La sala,La Strada Pizzeria & Restaurant,86,"116-35 Metropolitan Avenue, Kew Gardens",Metropolitan Ave.,90
la sala by tu casa,Casa,90,"116-35 Metropolitan Avenue, Richmond Hill",Metropolitan Ave.,90
La Casa,La Casa Delmarisco Restaurant,90,"11635 Metropolitan Avenue, Richmond Hill",11635 Metropolitan Ave,90
Fresh Tortillas,Fresh Tortillas (Tex-Mex Express) & Japanese Restaurant,90,"118-19 Metropolitan Avenue, Queens",Metropolitan Ave.,90
New Metro Sushi Cafe,New Fulin Kwok Seafood Restaurant,86,"118-21 Metropolitan Avenue, Kew Gardens",Metropolitan Ave.,90
Tu Casa,Tu Casa Restaurant,90,"119-05 Metropolitan Avenue, Kew Gardens",Metropolitan Ave.,90
New China Fresh Restaurant,New China Restaurant,95,"119-24 Metropolitan Avenue, Kew Gardens",Metropolitan Ave.,90
Tikka Indian Grill,Golden Krust Caribbean Bakery and Grill,86,"119-30 Metropolitan Avenue, Queens",Metropolitan Ave.,90
Village Diner,Diner,90,"1730, 8174 Lefferts Boulevard, Kew Gardens",111-05 Lefferts Blvd,86
Mazal Tov,Tov Kosher Pizza,86,"83rd Avenue, Kew Gardens",3rd Ave.,90
Mini-Burger,Mini Star Restaurant,86,"8125 Lefferts Boulevard, Queens",13861 Queens Blvd,86
Dani's House of Pizza,Dani's House of Pizza,100,"81-28 Lefferts Boulevard, Kew Gardens",152-28 Northern Blvd,86
Chicken And Rice Cart,Ambrosia Italian and Albanian Restaurant,86,"13410 Jamaica Avenue #1342, New York",New York,90
Los Bucaros,El Rinconcito De Los Sabores Restaurant & Deli,86,"13859 Queens Boulevard #2905, Jamaica",Queens Boulevard,90
Maxim Garden,Maxim Garden Chinese Restaurant,90,"13861 Queens Boulevard, Queens",Queens Boulevard,90
Jophsua 19,Mexico Jophsua 19 Grocery & Restaurant,90,"13406 Jamaica Avenue, Jamaica",13406 Jamaica Ave,90
Hado,Kin Khao,77,"138-40 86th Avenue, Queens",86th,90
Shishi With Tzvi - שישי אצל צבי,With Food in Mind HQ,86,"87-01 139th Street, Jamaica",9th St,90
New Joy Kitchen,New Fulin Kwok Seafood Restaurant,86,"138-36 86th Avenue, Briarwood",86th,90
Briarwood Cafe,Stars Cafe & Restaurant,86,"138-49 Queens Boulevard, Briarwood",Queens Boulevard,90
Joy Kitchen Joy Taco Chinese & Mexican Food,King Chinese Restaurant,86,"139th Street, Briarwood",9th St,90
New Rong Hua Chinese Restaurant,Chinese Restaurant,90,"13119 Jamaica Avenue, Queens",13119 Jamaica Ave,90
Or Yehuda,30 Minutes Or Less Food Truck NYC,86,"138-44 86th Avenue, Jamaica",86th,90
Yosmira,yosmira restaurant,90,"131-09 Jamaica Avenue, Jamaica",131-09 Jamaica Ave,90
3 in 1 Deli,Deli,90,"13111 Jamaica Avenue, Richmond Hill",Jamaica ave,90
Rudar Club,Club Deli Restaurant,86,"34-01 45th Street, Astoria",45th street,90
Homemade Taqueria,Mi Barrio Taqueria Restaurant,86,"4509 34th Avenue, New York","New York, New York",95
Daybreak Cafe,Stars Cafe & Restaurant,86,"4501 34th Avenue, Queens",4th Ave,90
Villa Brazil,Friend's Villa Restaurant,86,"43-16 34th Avenue, Astoria",4th Ave,90
Sushi X NY,"Golden Forest Chinese Restaurant, Brooklyn Ny",86,"47-15 Northern Boulevard, Queens",147-18 Northern Blvd,86
The Freakin Rican,The Freakin Rican Restaurant,90,"4306 34th Avenue, Astoria",4th Ave,90
New Grand Buffet,New Fulin Kwok Seafood Restaurant,86,"34-45 48th Street, Long Island City",48th Street,90
Kini,Makini's Dream Natural Food Cafe,90,"42-27 35th Avenue, Queens",5th Avenue,90
新美自助餐,Beef Bar Restaurant牛吧美食坊,18,"34-45 48th Street, Long Island City",48th Street,90
Ecuadorian Food,Manta Ecuadorian Food,95,"41-20 34th Avenue, Long Island City",4th Ave,90
New York Diner,Diner,90,"4909 Northern Boulevard, Queens",147-18 Northern Blvd,86
Saffron Indian Cuisine,Saffron,90,"44-04 Broadway, Astoria",44-04 Broadway,90
Los Manjares,El Rinconcito De Los Sabores Restaurant & Deli,86,"4408 Broadway, Long Island City",Broadway,90
El Autentico,El Morro Restaurant & Bar,86,"47-20 Broadway, Long Island City",Broadway,90
Napoli Pizza & Pasta,Napoli Pizza & Pasta,100,"33-02 35th Avenue, Queens",5th Avenue,90
St. James,James,90,"34-02 34th Avenue, Astoria",4th Ave,90
Snowdonia,Bonita,66,"34-55 32nd Street, Astoria",Street,90
Gastroteca Astoria,Astoria Restaurant Supply Store,86,"33-02 34th Avenue, Queens",4th Ave,90
Sac's Place,Theresa's Polish American Restaurant,86,"35-11 35th Ave, entrance by the security booth, Astoria",5th Ave,90
Happy Gathering,Happy Family Restaurant,86,"32-20 34th Avenue, Long Island City",4th Ave,90
Best Pizza Shop,Pizza Pizza,95,"32-20 34th Avenue, Queens",4th Ave,90
Cantina Mexicana,Mexicana,90,"3501 36th Street, Astoria",Street,90
Tacuba,Cuba,90,"35-01 36th Street, Queens",Street,90
Maizal Restaurant Astoria,Restaurant,90,"32-07 34th Avenue, Queens",4th Ave,90
Chela & Garnacha,Ocha,68,"33-09 36th Avenue, Queens",Between 39th and 40th street on 13th Avenue,86
Monika's Cafe Bar,Theresa's Polish American Restaurant,86,"32-90 36th Street, Astoria",Street,90
Arepas Cafe,Stars Cafe & Restaurant,86,"33-07 36th Avenue, Queens",33-07,90
Bean's & Lager,Bean & Bean,95,"3301 36th Avenue, Astoria",Between 39th and 40th street on 13th Avenue,86
Rio Market Inc,Seafish Market Seafood Restaurant,86,"32-15 36th Avenue, Astoria",32-15 36th Ave,90
Sake Kawa,Sake Sushi Restaurant,86,"32-05 36th Avenue, New York",New York,90
Paris Oven,Grille De Paris Restaurant,86,"38-12 30th Avenue, Long Island City",30th Avenue,90
Tu Casa,Tu Casa Restaurant,90,"30-10 Steinway Street, Astoria",Steinway Street,90
Mini Star Restaurant,Mini Star Restaurant,100,"30-02 Steinway Street, Astoria",30-02 Steinway St,90
MMM That's A Wrap,Theresa's Polish American Restaurant,86,"38-1 30th Avenue, Astoria",30th Avenue,90
Pita Pan,Pikaro Pan Colombian Restaurant and Bakery,86,"3715 30th Avenue, Astoria",30th Avenue,90
Fitrition,Bonjuk Korean Traditional Porridge Restaurant,70,"30-09 Steinway Street, Astoria",Steinway Street,90
Blend Astoria,Total Blend Restaurant,86,"37-17 30th Avenue, Astoria",30th Avenue,90
sLICe Astoria Pizza,Pizza,90,"37-08 30th Avenue, Astoria",30th Avenue,90
Butcher Bar,El Morro Restaurant & Bar,86,"37-10 30th Avenue, Astoria",30th Avenue,90
Rizzo's Fine Pizza,Pizza,90,"30-13 Steinway Street, Queens",Steinway Street,90
Sugar Freak,Sugar Hill Restaurant & Supper Club,86,"37-11 30th Avenue, Long Island City",30th Avenue,90
Poke Burrito,Great Burrito,72,"3707 30th Avenue, Queens",30th Avenue,90
Comfortland,TANG,68,"40-09 30th Avenue, Astoria",30th Avenue,90
The Grand,The Grand Tier,90,"37-01 30th Avenue, Astoria",30th Avenue,90
Passage Irish Bar & Kitchen,Ming Hing Kitchen,86,"40-11 30th Avenue, Astoria",30th Avenue,90
Gaudio's,Gaudio's Pizzeria & Restaurant,90,"4013 30th Avenue, Long Island City",4013 30th Ave,90
Queens Comfort,Queen,90,"36-18 30th Avenue, Queens",30th Avenue,90
Hoja Santa,New Santa Ana Restaurant,86,"40-17 30th Avenue, Astoria",40-17 30th Ave,90
T-Swirl Crepe,Crepe Suzette Restaurant,86,"36-16 30th Avenue, Astoria",30th Avenue,90
Asian Gourmet The Phở 珍味小炒,Asian Food Ltd.,86,"57-11 Main Street, Queens",Main Street,90
Phil & Sons Restaurant & Pizzeria,Phil & Sons Pizzeria & Restaurant,95,"5729 Main Street, Flushing",Main Street,90
Jin Ding Xuan,Jin Cheng Restaurant,86,"57-33 Main Street, Flushing",Main Street,90
88 Canteen,88 Chinese Restaurant,86,"58-46 Main Street, Flushing",Main Street,90
Ace Bagel Cafe Inc,Cafe 47,86,"59-06 Main Street, Flushing",Main Street,90
Chick-fil-a,a taberna Portuguese restaurant,86,"56-45 Main Street, Queens",Main Street,90
Bodai Vegetarian Restaurant,Restaurant,90,"59-08 Main Street, Flushing",Main Street,90
皇椰鸡 法拉盛,Super Taste (百味蘭州拉面) (Super Taste),26,"59-14 Main Street, Flushing",59-14 Main St,90
Nan Yang Kitchen,Chang Jiang Kitchen Chinese Restaurant,86,"59-08 Main Street, Flushing",Main Street,90
C&L Imperial Main Street Taiwanese Gourmet,C&L Of East Ocean Restaurant,86,"59-10 Main Street, Flushing",Main Street,90
Coco rooster 皇椰鸡,Coco Pazzo Kitchen & Restaurant,86,"59-14 Main Street, Queens",59-14 Main St,90
Hopa Sushi,Ginpachi Sushi Restaurant,86,"59-14 Main Street, Flushing",59-14 Main St,90
Kan Wah,Kan Wah Restaurant,90,"5914 Main Street, Flushing",Main Street,90
Lake Pavilion,Lake Pavilion Restaurant,90,"6015 Main Street, Flushing",Main Street,90
divine flavor house,Hunan House Chinese Restaurant,86,"43-41 Main Street, Flushing",Main Street,90
Nurlan Uyghur Restaurant,Restaurant,90,"43-39 Main Street, Flushing",Main Street,90
OK Canaan - Taiwanese Gourmet 台灣好滋味,Gourmet K Restaurant,86,"43-18 Main Street, Flushing",43-18 Main St,90
900度串工坊,900 Park Restaurant,39,"4318 Main Street, Flushing",Main Street,90
A+,Cafe 47,90,"43-18 Main Street, Flushing",43-18 Main St,90
MAOJIAOHUOLA 冒椒火辣（纽约店）,Olea,68,"43-23 Main Street, Flushing",Main Street,90
Rony & lira,Li Li,86,"44-44 College Point Boulevard, Flushing",149-44 41st Ave,86
Tommy's Doghouse,Tommy's,90,"Dinkins Circle, Avenue of Commerce, Corona",196 23 Jamaica Avenue,86
Epandim Polav Kabab,Prince Kabab & Chinese Restaurant,86,"42-34 College Point Boulevard, Flushing",34 City Island Ave,86
新红筷子,New Hon Wong Restaurant 新恒旺大飯店,22,"132-10 Maple Avenue, Flushing",37-10 114th St,86
Yong le 99 discount inc,Sunshine Restaurant Food & Catering Inc,86,"46-02 Kissena Boulevard, Flushing",Kissena,90
Grill 21,Golden Krust Caribbean Bakery and Grill,86,"346 East 21st Street, New York",New York,90
Proong Noodle Bar,Bar Sol De Quito Restaurant II,86,"347 1st Avenue, New York","New York, New York",95
Mi Noodle Bar,El Morro Restaurant & Bar,86,"391 2nd Avenue, New York","New York, New York",95
Cooper Town,Q Town (Taiwanes/Chinese/Seafood)Restaurant,86,"339 1st Avenue, New York","New York, New York",95
Orion,Orion Diner & Grill,90,"395 2nd Avenue, New York","New York, New York",95
L' Angeletto Restaurant,Restaurant,90,"327 2nd Avenue, New York","New York, New York",95
Posto,Gunpost Deli,76,"310 2nd Avenue, New York","New York, New York",95
Paul & Jimmy's,Theresa's Polish American Restaurant,86,"123 East 18th Street, New York",New York,90
Javelina,Li Li,86,"119 East 18th Street, New York",New York,90
The Watering Hole,The Golden Glass Restaurant,86,"106 East 19th Street, New York",New York,90
GupShup,Coffee Foundry Pop Up Shop @ The Manchester Pub,64,"115 East 18th Street, New York",New York,90
Sathi,Danny's Athens,72,"216 3rd Avenue, New York","New York, New York",95
Punjab on 3rd,620 on Caton Pizzeria and Restaurant,86,"220 3rd Avenue, New York","New York, New York",95
Taqueria Gramercy,Mi Barrio Taqueria Restaurant,86,"218 3rd Avenue, New York","New York, New York",95
Eleni’s Restaurant NYC,Restaurant,90,"226 3rd Avenue, New York","New York, New York",95
The House,Hunan House Chinese Restaurant,86,"121 East 17th Street, New York",New York,90
Aji 18 Sushi,Ginpachi Sushi Restaurant,86,"208 3rd Avenue, New York","New York, New York",95
Sunburst Espresso Bar,La Kuchara Ecuadorian Restaurant Bar,86,"206 3rd Avenue, New York","New York, New York",95
Kos Sushi,Ko Sushi,94,"208 3rd Avenue, New York","New York, New York",95
2nd Yo Sushi,Yo Sushi,90,"208 3rd Avenue, New York","New York, New York",95
Boucherie Union Square,Merrion Square,86,"225 Park Avenue South, New York",New York,90
Union Square Cafe,Cafe 47,86,"101 East 19th Street, New York",New York,90
Farmer & The Fish,Fish,90,"245 Park Avenue South, New York",New York,90
Yama,Yamada Japanese Restaurant,90,"122 East 17th Street, New York",New York,90
MoMo Sushi,Ginpachi Sushi Restaurant,86,"239 Park Avenue South, New York",New York,90
Big Daddy's,Big Daddy's Caribbean Taste Restaurant,90,"239 Park Avenue South, New York",New York,90
The Pho,The Golden Glass Restaurant,86,"127 East 23rd Street, New York",New York,90
BONMi NYC Kitchen,Chang Jiang Kitchen Chinese Restaurant,86,"119 East 23rd Street, New York",New York,90
Sous Vide Kitchen -A Virtual Food Hall,A-HO RESTAURANT,86,"119 East 23rd Street, New York",New York,90
Eso Latin,Progreso Latino Deli & Grocery,90,"119 East 23rd Street, New York",New York,90
Hawksmoor New York,New Fulin Kwok Seafood Restaurant,86,"109 East 22nd Street, New York",New York,90
Areppas,Arte,68,"115 East 23rd Street, New York",New York,90
TKK Fried Chicken,Hut Fried Chicken,88,"115 East 23rd Street, New York",New York,90
Gramercy Grill,Golden Krust Caribbean Bakery and Grill,86,"32 Lexington Avenue, New York",32 Lexington Ave,90
Mondo Panino,Man Do,71,"102 East 22nd Street #1, New York",New York,90
Studio,Harlem Pop Studio,90,"23 Lexington Avenue 2nd floor, New York",New York,90
OEC Bun & Ramen,Cream,68,"34 Lexington Avenue, New York",34 Lexington Ave,90
Grub Thai,Mekong Thai & Vietnamese Restaurant,86,"34 Lexington Avenue, New York",34 Lexington Ave,90
Habibi Halal Food,Habibi Halal Food,100,"117 East 23rd Street, New York",New York,90
21 Greenpoint,East 21 Asian Cuisine Restaurant,86,"21 Greenpoint Avenue, Brooklyn",brooklyn,90
Yankee Pizza,Yankee Pizza,100,"181 Loisaida Avenue, New York",New York,90
"Fiaschetteria ""Pistoia""",Fish,68,"647 East 11th Street, New York",New York,90
Naked Dog,Salty Dog Bar and Restaurant,86,"47 Java Street, Brooklyn",brooklyn,90
Virginia's,Theresa's Polish American Restaurant,86,"647 East 11th Street, New York",New York,90
Yang's Happy Wok,Happy Wok,90,"175 Loisaida Avenue, New York",New York,90
West Wine Bar,El Morro Restaurant & Bar,86,"67 West Street #3, Brooklyn",brooklyn,90
El Rinconcito,El Rinconcito De Los Sabores Restaurant & Deli,90,"408 East 10th Street, New York",New York,90
East Village Tavern (aka EVT),Village Restaurant,86,"158 Loisaida Avenue, New York",New York,90
Paulie Gee's,Theresa's Polish American Restaurant,86,"60 Greenpoint Avenue, Brooklyn",brooklyn,90
Lower East Side Coffee Shop,Lower East Side Coffee Shop,100,"442 East 14th Street, New York",New York,90
Muzzarella Pizza,Pizza Pizza,95,"221 Avenue A, New York","New York, New York",95
Bruno's Gourmet Market,Theresa's Polish American Restaurant,86,"282 1st Avenue, New York","New York, New York",95
Fat Buddha,Fat Cheng Restaurant,86,"212 Avenue A, New York","New York, New York",95
Akina Sushi,Ginpachi Sushi Restaurant,86,"424 East 14th Street #2, New York",New York,90
The Spotted Owl Tavern,Ott,90,"211 Avenue A, New York","New York, New York",95
Caffè Bene,Bene Restaurant & Pizzeria,86,"208 Avenue A, New York","New York, New York",95
Royale,"Royale Gourmet Deli, Inc.",90,"157 Loisaida Avenue, New York",New York,90
Nassau Finest Deli,Deli,90,"183 Nassau Avenue, Brooklyn",Nassau Ave.,90
Kyoto Sushi,Kyoto Sushi,100,"161 Nassau Avenue, Brooklyn",Nassau Ave.,90
MS.OHHO,MS Caridad Restaurant,86,"146 Nassau Avenue, Brooklyn",Nassau Ave.,90
Raizes Churrascaria,Churrascaria Plataforma,73,"139 Nassau Avenue, Brooklyn",Nassau Ave.,90
Slick Willie Table & Bar,La Kuchara Ecuadorian Restaurant Bar,86,"179 Meserole Avenue, Brooklyn",brooklyn,90
Deli Rocks,Deli,90,"36-12 Starr Avenue, Long Island City",152-12 Northern Blvd,86
Wonton Food Inc.,"Wonton Foods, Inc.",94,Long Island City,41-17 Crescent St. Long Island City,90
Angelo's Pizza & Deli,Angelo's Pizza,90,"3219 Greenpoint Avenue, New York",New York,90
Bantry Bay Publick House,Dumpling House,86,"33-01 Greenpoint Avenue, Long Island City",33-25 Francis Lewis Blvd,86
Fresh/Fast Restaurant,Restaurant,90,"3068 Review Avenue, Long Island City",196 23 Jamaica Avenue,86
Pete's Grill,Theresa's Polish American Restaurant,86,"14 Queens Boulevard # 39, Queens",Queens Boulevard,90
Rincón Melania,Laila,72,"35-19 Queens Boulevard, Long Island City",Queens Boulevard,90
Cypriana,Print,72,"4702 37th Street, Long Island City",Street,90
CRUST NYC,CRUST,90,"39-09 47th Avenue, Sunnyside",7th Ave,90
Capucine,Conca Cucina Italian Restaurant,68,"45-51 39th Place, Sunnyside",39th,90
Punda Tibetan Restaurant,Restaurant,90,"3935 47th Avenue, Sunnyside",7th Ave,90
Oasis Pizza & Gyros,Pizza,90,"40-02 Queens Boulevard, Sunnyside",Queens Boulevard,90
Sunnyside Pizza,Pizza Pizza,95,"4001 Queens Boulevard, Sunnyside",Queens Boulevard,90
The Original American Chicken 2,The Pine Restaurant,86,"40-12 Queens Boulevard, Sunnyside",Queens Boulevard,90
Blinks Deli & Pizza,Pizza,90,"43-01 35th Street, New York",New York,90
Arriba Arriba Sunnyside,Arriba Arriba,90,"40-15 Queens Boulevard, Queens",Queens Boulevard,90
Butcher Block,Mexican food cart best on the block,86,"43-46 41st Street, Queens",Street,90
Always Sunny Deli & Grocery,Deli & Grocery,90,"3945 43rd Avenue, Sunnyside",3rd Ave.,90
Empire Express,Empire Express Chinese Restaurant,90,"3308 Queens Boulevard, Long Island City",Queens Boulevard,90
48 Street Cafe,Stars Cafe & Restaurant,86,"5502 48th Street, Maspeth",48th Street,90
Rudy's,Rudy's Pizza & Restaurant,90,"54-30 48th Street, Maspeth",48th Street,90
Eataliano Pies,ATA,90,"5430 48th Street, Maspeth",48th Street,90
Good Luck,Good Luck Chinese Restaurant,90,"4516 48th Street, Woodside",48th Street,90
Cemitas El Tigre,El Morro Restaurant & Bar,86,"45-14 48th Avenue, Woodside",8th Ave.,90
de Mole,Bar Sol De Quito Restaurant II,86,"4502 48th Avenue, Woodside",8th Ave.,90
The Jar Bar,El Morro Restaurant & Bar,86,"45-06 48th Avenue, Queens",8th Ave.,90
New Asian Cuisine,New Fulin Kwok Seafood Restaurant,86,"44-20 48th Avenue, Woodside",8th Ave.,90
Cuencanito Sport Bar Restaurant,Restaurant,90,"47-61 47th Street, Woodside",Street,90
Ricas Pupusas & Mas,Casa,68,"47-55 47th Street, Woodside",Street,90
Thai Tree,Mekong Thai & Vietnamese Restaurant,86,"36-17 Greenpoint Avenue, Long Island City",196 23 Jamaica Avenue,86
Reyes Restaurant,Restaurant,90,"4754 46th Street, Woodside",46th St,90
Triangolo Pizzeria,La Strada Pizzeria & Restaurant,86,"1017 Manhattan Avenue, Brooklyn",brooklyn,90
Afgan Kabab & Grill House,Kabab & Grill,90,"1015 Manhattan Avenue, Brooklyn",brooklyn,90
Eastern District,Eastern Taste Restaurant,86,"1053 Manhattan Avenue, Brooklyn",brooklyn,90
Casanova,Casanova Family Italian Restaurant & Pizzeria,90,"338 McGuinness Boulevard, Brooklyn",brooklyn,90
Bombay Grill & Curry,Golden Krust Caribbean Bakery and Grill,86,"1015 Manhattan Avenue, Brooklyn",brooklyn,90
Agra Taj Mahal Restaurant,Taj Mahal Restaurant,95,"1005 Manhattan Avenue, Brooklyn",brooklyn,90
Esme,Esmeralda's Restaurant,90,"999 Manhattan Avenue, Brooklyn",brooklyn,90
Cuchi's Place,Theresa's Polish American Restaurant,86,"994 Manhattan Avenue, Brooklyn",brooklyn,90
Lobster Joint,Gold Lobster Restaurant,86,"1073 Manhattan Avenue, Brooklyn",brooklyn,90
Archestratus Books + Foods,Archestratus Books & Foods,100,"160 Huron Street, Brooklyn",brooklyn,90
KanaHashi,Awash,72,"981 Manhattan Avenue, Brooklyn",brooklyn,90
Ott Thai Cuisine,Ott,90,"970 Manhattan Avenue, Brooklyn",970 Manhattan Ave,90
Early,Pearlys Jamaican Restaurant,90,"967 Manhattan Avenue, Brooklyn",brooklyn,90
Milk & Roses,Milk River Restaurant,86,"1110 Manhattan Avenue, Brooklyn",brooklyn,90
Le Fanfare,Le Fatima Bar & Grill Restaurant,86,"1103 Manhattan Avenue, Brooklyn",brooklyn,90
Chiko,Ichiro,73,"954 Manhattan Avenue, Brooklyn",brooklyn,90
Champion Coffee,Champion Coffee,100,"1107 Manhattan Avenue, Brooklyn",brooklyn,90
Acapulco,Acapulco Restaurant,90,"1116 Manhattan Avenue, Brooklyn",1116 Manhattan Ave,90
Rooniebop Jamaica,Sparkles Jamaica Restaurant,86,"4002 Bronxwood Avenue, The Bronx",Bronxwood Ave,90
Front Page Restaurant,Restaurant,90,The Bronx,"1095 Prospect Ave, Bronx, NY 10459",86
New Taste,New Taste Chinese Restaurant,90,"3973 Bronxwood Avenue, The Bronx",Bronxwood Ave,90
Best Choice West Indian Restaurant,Restaurant,90,"3973 Bronxwood Avenue, The Bronx",Bronxwood Ave,90
Bronxwood Pizza,Pizza Pizza,95,"3969 Bronxwood Avenue, The Bronx",Bronxwood Ave,90
Real italian pizza,Pizza,90,"3969 Bronxwood Avenue, The Bronx",Bronxwood Ave,90
Mo'Bay Jamaican Cuisine,Annie Chan's Japanese Cuisine Restaurant,86,"4120A White Plains Road, The Bronx",White Plains Road,90
Dragon Pavillion,Dragon Chinese Restaurant,86,"4124 White Plains Road, The Bronx",White Plains Road,90
Mandarin House I,Hunan House Chinese Restaurant,86,"4129 Laconia Avenue, The Bronx",311 Avenue X,86
#1 Sabor Latino Restaurant,Sabor Latino Restaurant,96,"4120 White Plains Road, The Bronx",White Plains Road,90
Seven Spices,Spice,90,"906 East Gun Hill Road, The Bronx",823 East 169th Street,86
D'Angelo's Pizza,D'angelos Pizza,97,"902 East Gun Hill Road, The Bronx",823 East 169th Street,86
Angeldelitebybae,Deli,90,"3335 Radcliff Avenue, The Bronx",311 Avenue X,86
Frank's Soup Bowl Inc,Theresa's Polish American Restaurant,86,"3580 Bronxwood Avenue, The Bronx",Bronxwood Ave,90
Royal Coach Diner,Royal Coach Diner,100,"3260 Boston Road, The Bronx",Boston Road,90
Country Boyz,Country Boys,92,"1182 East Gun Hill Road, The Bronx",823 East 169th Street,86
Top of the Hill Cuisine,Annie Chan's Japanese Cuisine Restaurant,86,"3601 Barnes Avenue, The Bronx",3601 Barnes Ave,90
Gun Post Lanes,Foodtown of Boston Post Road,86,"1215 East Gun Hill Road, The Bronx",823 East 169th Street,86
King,King Chinese Restaurant,90,"3377 Boston Road, The Bronx",Boston Road,90
Lulu Dutch Pot Restaurant,Restaurant,90,"837 Burke Avenue, The Bronx",Between 39th and 40th street on 13th Avenue,86
True Caribbean Taste Restaurant,Restaurant,90,"839 Burke Avenue, The Bronx",Between 39th and 40th street on 13th Avenue,86
Unity Love,I Love NY Pizza,86,"839 Burke Avenue, The Bronx",Between 39th and 40th street on 13th Avenue,86
Spades Lounge,Taipan Fusion Restaurant and Hookah Lounge,86,"3398 Boston Road, The Bronx",Boston Road,90
Mandarin Wok,Mandarin Wok,100,"1232 East Gun Hill Road, The Bronx",232 East,90
Kwan Hing,Hing Hing Chinese Restaurant,86,"3762 White Plains Road # A, The Bronx",White Plains Road,90
Gold Star,Star,90,"3768 White Plains Road, The Bronx",White Plains Road,90
Rocatone Seafood Restaurant,Restaurant,90,"3740 White Plains Road, The Bronx",White Plains Road,90
Bravo African Restaurant,Bravo African Restaurant,100,"3744 White Plains Road, The Bronx",White Plains Road,90
Randy Catering,Sunshine Restaurant Food & Catering Inc,86,"714 East 217th Street, The Bronx",Street,90
Dream Station,The Golden Dream Restaurant,86,"3809 White Plains Road, The Bronx",White Plains Road,90
Dominican Valle,Dominican Valle,100,"3815 White Plains Road, The Bronx",White Plains Road,90
Channel Lounge Caribbean Csn,Taipan Fusion Restaurant and Hookah Lounge,86,"3682 White Plains Road, The Bronx",White Plains Road,90
The Pyramid Restaurant & Bar,The Pyramid Bar & Restaurant,95,The Bronx,"1095 Prospect Ave, Bronx, NY 10459",86
Agra Grill,Agra,90,"3835 White Plains Road, The Bronx",White Plains Road,90
Vibes Kitchen,Vibes,90,"3670 White Plains Road, The Bronx",White Plains Road,90
Mama G,C and G Restaurant,86,"3650 White Plains Road, The Bronx",White Plains Road,90
Island Breezes II,Bar Sol De Quito Restaurant II,86,"3634 White Plains Road, The Bronx",White Plains Road,90
Richie Rich Caribbean Taste Express,Taste,90,"705 East 222nd Street, The Bronx",Street,90
Rainbow,Rainbow Diner & Restaurant,90,"3906 White Plains Road, The Bronx",White Plains Road,90
Sea Jammins Caribbean Cuisine,"Caribbean American Ent. Bar, Lounge & Restaurant",86,"3827 Bronxwood Avenue, The Bronx",3827 Bronxwood Ave,90
The Good Dine,The Good Dine Restaurant,90,"3922 White Plains Road, The Bronx",White Plains Road,90
Dragon State Kitchen,Chang Jiang Kitchen Chinese Restaurant,86,"4124A White Plains Road, The Bronx",White Plains Road,90
Mango,Mangoville,90,"4030 White Plains Road, The Bronx",White Plains Road,90
Soo Jamaica Caribbean Restaurant,Caribbean Restaurant,90,"4143 White Plains Road, The Bronx",White Plains Road,90
BX Uptown Caribbean Taste,Taste,90,"4061 White Plains Road, The Bronx",White Plains Road,90
Pizza Place,Pizza Place,100,"4024 White Plains Road, The Bronx",White Plains Road,90
Loong Xin,Wing xin chinese restaurant,86,"670 East 233rd Street, The Bronx",233rd st,90
Best Sushi In Bronx,Best China,86,"670 East 233rd Street, The Bronx",233rd st,90
Ko Wong Restaurant,Ko Wong Restaurant,100,"935 Castle Hill Avenue, The Bronx",935 Castle Hill Ave,90
Jimmy's Grand Cafe,Theresa's Polish American Restaurant,86,"1001 Castle Hill Avenue, The Bronx",196 23 Jamaica Avenue,86
El Sazon De Olga,El Morro Restaurant & Bar,86,"1017 Castle Hill Avenue, The Bronx",1017 Castle Hill Ave,90
Best Deli & Grill,Best Deli & Grill,100,"1033 Castle Hill Avenue, The Bronx",196 23 Jamaica Avenue,86
Carnival House,Carnival House,100,"9209 Jamaica Avenue, Jamaica",9209 Jamaica Ave,90
La Gitana #3 Bakery & Restaurant,Restaurant,90,"9207 Jamaica Avenue, Jamaica",Jamaica ave,90
Mama's Empanadas,Theresa's Polish American Restaurant,86,"91-09 Jamaica Avenue, Jamaica",Jamaica ave,90
Ninja Japan Teriyaki & Sushi,Umi Sushi,86,"9206 Jamaica Avenue, Woodhaven",206 Jamaica Ave,90
Don Pollo,Pica Pollo Restaurant,86,"9210 Jamaica Avenue, Woodhaven",Jamaica ave,90
Ricuras Del Rey,El Monstro del Sazon Pizzaria & Restaurant,86,"87-06 Woodhaven Boulevard, Woodhaven",41-87 Bowne St,86
China Fun 1,China Fun 1,100,"95-04 101st Avenue, Ozone Park",1st ave.,90
El Pollo Inka Peru,El Coyote Mexican Restaurant,86,"8920 101st Avenue, Jamaica",1st ave.,90
Pollo Inka #1,Lucky 1 Chinese Restaurant,86,"8920 101st Avenue, Ozone Park",1st ave.,90
Brisas del Mar Seafood Market Queens,Queen,90,"76-15 Jamaica Avenue, Queens",Jamaica ave,90
El Rinconcito de Nagua,La Roja de Todos Restaurant & Bakery,86,"7620 Jamaica Avenue, Woodhaven",Jamaica ave,90
Bonao Chimi,El Gran Chimi Deli & Grill,86,"76-14 Jamaica Avenue, Woodhaven",Jamaica ave,90
La Piñata,ATA,90,"7801 Jamaica Avenue, Woodhaven",Jamaica ave,90
Mr. Wonton,Mr. Wonton,100,"78-05 Jamaica Avenue, Queens",Jamaica ave,90
Charm Ramen Sushi,Umi Sushi,86,"79-11 Jamaica Avenue, Woodhaven",Jamaica ave,90
Golden Kitchen,Golden Kitchen Chinese Restaurant,90,"79-09 Jamaica Avenue, Jamaica",Jamaica ave,90
JUGOS CRISTAL,CRUST,72,"8665 80th Street, Woodhaven",Street,90
La Flor Paraisco,La Strada Pizzeria & Restaurant,86,"8029 Jamaica Avenue, Jamaica",8029 Jamaica Ave,90
Francy Restaurant,Nancy Restaurant,91,"8029 Jamaica Avenue, Jamaica",8029 Jamaica Ave,90
Forest Park Pizza,Pizza Forest,95,"8407 Jamaica Avenue, Woodhaven",Jamaica ave,90
Taste of Italy,Taste of Italy Pizza Restaurant,90,"84-07 Jamaica Avenue, Woodhaven",Jamaica ave,90
Jamaica Breeze,Jamaica Breeze,100,"103-02 Astoria Boulevard, East Elmhurst",10015 Astoria Blvd,86
Buccaneer Diner,Diner,90,"93-01 Astoria Boulevard, East Elmhurst",171-01 Northern Blvd,86
Dannas Deli And Pizzeria,Deli,90,"169-08 Crocheron Avenue, Queens",169-08 Crocheron Ave,90
Hwa Lung Kitchen,Lung Sing Chinese Restaurant,86,"36-7 164th Street, Flushing",Street,90
Jeju-do Sushi,Ginpachi Sushi Restaurant,86,"162-15 Crocheron Avenue, Flushing",91-15 31st Ave,86
Myung San,Myung San,100,"162-21 Depot Road, Flushing",45-21 Parsons Blvd,86
Korea Restaurant,Korean Restaurant,97,"16221 Depot Road, Flushing",16225 Depot Rd,86
Incheon,Incheon Restaurant Corp,90,"16225 Depot Road, Flushing",16225 Depot Rd,86
Java Day,Good Day Seafood Restaurant,86,"160-9 Northern Boulevard, Flushing",147-18 Northern Blvd,86
El Caribeño restaurant,El Caibe Restaurant,95,"174 South Avenue, Staten Island",311 Avenue X,86
Big Al's Soul Food Kitchen,Soul Food Kitchen,90,"170 South Avenue, Staten Island",311 Avenue X,86
Bootleg Mannings Craft Beer & Whiskey Bar,El Morro Restaurant & Bar,86,"2645 Forest Avenue, Staten Island",Forest Avenue,90
"L&B Homemade Food, Inc",Sunshine Restaurant Food & Catering Inc,86,"2960 Richmond Terrace #2311, Staten Island",2670 Coney Island Ave,86
Yummy Machi,Yummy Yummy,95,"2236 Forest Avenue, Staten Island",Forest Avenue,90
El sabor peruano,El Morro Restaurant & Bar,86,"2220 Forest Avenue, Staten Island",2220 Forest Ave,90
J & B Pizzeria Restaurant,Pizzeria & Restaurant,95,"2220 Forest Avenue, Staten Island",2220 Forest Ave,90
DOMINICAN FOOD CORP.,Food Corp,90,"2180 Forest Avenue, Staten Island",Forest Avenue,90
R a Deli,A & A deli,95,"2180 Forest Avenue, Staten Island",Forest Avenue,90
Lorenzo's,Lorenzo's pizza,90,"1100 South Avenue, Staten Island",1100 60th St,86
Mama Rosaria's Pizza & Restaurant,Mama Maria's Pizzeria & Restaurant,90,"2146 Forest Avenue, Staten Island",Forest Avenue,90
Real Madrid,Real Madrid Restaurant,90,"2075 Forest Avenue, Staten Island",2075 Forest Ave,90
Hawaii Poke Bowl,Campus Sugar Bowl Restaurant,86,"1430 Richmond Avenue, Staten Island",Richmond Avenue,90
Chili's Grill & Bar,Chili's Grill & Bar,100,"1497 Richmond Avenue, Staten Island",Richmond Avenue,90
Cheng's Restaurant,Chengs Restaurant,97,"2040 Forest Avenue, Staten Island",2040 Forest Ave,90
Rinconcito Paisa,El Rinconcito De Los Sabores Restaurant & Deli,86,"2131, 1976 Forest Avenue, Staten Island",Forest Avenue,90
Dairy Queen Grill & Chill,Queen,90,"2005 Forest Avenue, Staten Island",Forest Avenue,90
Tropical Smoothie Cafe,Cafe 47,86,"1650 Richmond Avenue, Staten Island",1650 Richmond Ave,90
King Barka,King Barka Restaurant,90,"301 West 135th Street, New York",New York,90
Baraka,La Baraka Restaurant,90,"2546 Frederick Douglass Boulevard, New York",New York,90
The Edge Harlem,The Golden Glass Restaurant,86,"101 Edgecombe Avenue, New York",New York,90
A Taste of Seafood,Sea,90,"2530 Frederick Douglass Boulevard, New York",New York,90
Crispy Bamboo Village,Dragon Village Chinese Restaurant,86,"2526 Frederick Douglass Boulevard, New York",New York,90
Reverence,Tabernacle Of Deliverence,70,"2592 Frederick Douglass Boulevard, New York",New York,90
Uptown Slices,Uptown African Restaurant,86,"272 West 135th Street, New York",New York,90
Abyssinia,Abyssinia Restaurant,90,"268 West 135th Street, New York",New York,90
Green Land,Green Pavilion Restaurant,86,"1522 Amsterdam Avenue, New York",Amsterdam avenue,90
Pepo’s Pizza,Pizza Pizza,95,"1522 Amsterdam Avenue, New York",Amsterdam avenue,90
Home Sweet Harlem,Shandar Sweet & Restaurant,86,"1528 Amsterdam Avenue, New York",Amsterdam avenue,90
Chez Jacob,Jacob Restaurant,86,"2479 Frederick Douglass Boulevard, New York",New York,90
Amsterdam Sushi,Ginpachi Sushi Restaurant,86,"1518 Amsterdam Avenue, New York",Amsterdam avenue,90
Londel's,Londel's Restaurant,90,"2620 Frederick Douglass Boulevard, New York",New York,90
Sushi Sushi,Umi Sushi,95,"1504 Amsterdam Avenue, New York",Amsterdam avenue,90
Makana,Makana Hawaiian & Japanese BBQ Restaurant,90,"1502 Amsterdam Avenue, New York",Amsterdam avenue,90
Grand Great Wall,Grand Great Wall,100,"1588 Amsterdam Avenue, New York",Amsterdam avenue,90
123BSB,123 Street Food Corp.,60,"712 West 125th Street, New York",New York,90
Dinosaur Bar-B-Que,Bar Sol De Quito Restaurant II,86,"700 West 125th Street, New York",New York,90
Harlem's Floridita,Harlem's Floridita,100,"2276 12th Avenue, New York","New York, New York",95
Dear Mama Coffee,Dear Mama Coffee,100,"611 West 129th Street, New York",New York,90
The Expat,The Golden Glass Restaurant,86,"64 Tiemann Place, New York","New York, New York",95
Bus Stop Diner,Diner,90,"3341 Broadway, New York","New York, New York",95
Wallys Deli,Deli,90,"3345 Broadway, New York","New York, New York",95
Jin Ramen / Kissaten,Tian Jin,86,"3187 Broadway, New York","New York, New York",95
Jin Ramen West Harlem,C B Finger Licking Jamaican and West Indian Restaurant,86,"3183 Broadway, New York","New York, New York",95
Go! Go! Curry Harlem,Curry & Kebab,86,"567 West 125th Street, New York",New York,90
Lincoln Fried Chicken,O'Neals'/Lincoln Center Restaurant,86,"576 West 125th Street, New York",New York,90
Mofongo del Valle,El Valle,90,"3340 Broadway, New York","New York, New York",95
Oasis Jimma Juice Bar,La Kuchara Ecuadorian Restaurant Bar,86,"3163 Broadway, New York","New York, New York",95
Peking Garden,King Garden,92,"3163 Broadway #3, New York","New York, New York",95
Toast Uptown,French Toast Restaurant,86,"3157 Broadway, New York","New York, New York",95
Szechuan Garden Kitchen,Szechuan Garden Kitchen,100,"2076 Frederick Douglass Boulevard, New York",New York,90
Zoma,Omai,75,"2084 Frederick Douglass Boulevard, New York",New York,90
Harlem Food Bar,Harlem Food Bar,100,"2100 Frederick Douglass Boulevard, New York",New York,90
Melba's,Melba's American Comfort Food,90,"300 West 114th Street, New York",New York,90
Maharaja Palace,China palace chinese restaurant,86,"2113 Frederick Douglass Boulevard, New York",New York,90
PaPa Thai Cuisine,Mekong Thai & Vietnamese Restaurant,86,"2115 Frederick Douglass Boulevard, New York",New York,90
Papa Thai Harlem,Mekong Thai & Vietnamese Restaurant,86,"2115 Frederick Douglass Boulevard, New York",New York,90
Cantina Taqueria & Tequila Bar,"Caribbean American Ent. Bar, Lounge & Restaurant",86,"1838 Adam Clayton Powell Junior Boulevard, New York",New York,90
Joe Tuna,Joe's Pizzeria,86,"233 West 115th Street, New York",New York,90
Community Kitchen-West Harlem,Ming Hing Kitchen,86,"252 West 116th Street, New York",New York,90
Kingston,Kingston Pizza,90,"218 West 116th Street, New York",New York,90
BLVD Bistro NY,"Golden Forest Chinese Restaurant, Brooklyn Ny",86,"2149 Frederick Douglass Boulevard, New York",New York,90
Silvana,Lavagna,71,"300 West 116th Street, New York",New York,90
Empire 3,Empire Restaurant,86,"1902 Adam Clayton Powell Junior Boulevard, New York",New York,90
Pikine,Pitkin Bonao grill restaurant,75,"243 West 116th Street, New York",New York,90
La Savane,La Strada Pizzeria & Restaurant,86,"239 West 116th Street, New York",New York,90
Dos Toros,Dos Banderas Restaurant,86,"2911 Broadway, New York","New York, New York",95
Häagen-Dazs,Gen,90,"2905 Broadway, New York","New York, New York",95
Junzi Kitchen,Halal Chinese Kitchen,86,"2896 Broadway, New York","New York, New York",95
Kosher Cafe Nana,Cafe 47,86,"606 W.115th Street, Second Floor, New York",New York,90
Wu + Nussbaum,龍腾食坊 Wu Chinese Restaurant,86,"2897 Broadway, New York","New York, New York",95
Mill,Millers Restaurant,90,"2895 Broadway, New York","New York, New York",95
Milano Market,Seafish Market Seafood Restaurant,86,"2892 Broadway, New York","New York, New York",95
Community Food & Juice,Community Food & Juice,100,"2893 Broadway, New York","New York, New York",95
Symposium,Symposium,100,"544 West 113th Street, New York",New York,90
Tom's,Tom's Restaurant,90,"2880 Broadway, New York","New York, New York",95
John Jay Dining Hall,Zaffran Party Hall & restaurant,86,"519 West 114th Street, New York",New York,90
Shaking Crab,Crab Shanty,74,"2869 Broadway, New York","New York, New York",95
The Heights Bar & Grill,La Kuchara Ecuadorian Restaurant Bar,86,"2867 Broadway, New York","New York, New York",95
Strokos Gourmet Deli,Strokos Gourmet Deli,100,"1090 Amsterdam Avenue, New York",Amsterdam avenue,90
Famous Famiglia,Famous Famiglia Pizza,95,"2859 Broadway, New York","New York, New York",95
Mel's Burger Bar,El Morro Restaurant & Bar,86,"between 110th and, 2850 Broadway, New York",New York,90
Koronet Pizza,Koronet Pizza,100,"2848 Broadway, New York","New York, New York",95
Westside Market,Westside Market,100,"2840 Broadway, New York","New York, New York",95
PATE LAKAY,AT&T,68,"126 Beach 61st Street, Arverne",61st Street,90
Boardwalk Pizzeria,Boardwalk Pizza,91,"68-20 Rockaway Beach Boulevard, Arverne",144-20,86
Batesy’s BBQ and Bar,Ambrosia Italian and Albanian Restaurant,86,"6820F Rockaway Beach Boulevard, Arverne",133 Rockaway Ave,86
Claudettes by the Sea,Sea,90,"68-24 Beach 68th Street, Far Rockaway",Street,90
Cafe Rockaway's,Cafe R,90,"49-01 Beach Channel Drive, Queens",171-01 Northern Blvd,86
Cuisine By Claudette,Annie Chan's Japanese Cuisine Restaurant,86,"190 Beach 69th Street, Queens",9th St,90
Bar Marseille,El Morro Restaurant & Bar,86,"190 Beach 69th Street, Arverne",9th St,90
Goody's BBQ Chicken and Ribs,Goody's,90,"7018 Amstel Boulevard, Queens",13861 Queens Blvd,86
The Cradle NYC (SUMMER ONLY),The Restaurant,86,"73-01 Beach Front Road, Arverne",Front,90
New Garden Restaurant,New Garden Restaurant,100,"43-17 Beach Channel Drive, Far Rockaway",133 Rockaway Ave,86
Haven Has Wings,Wings Chinese Restaurant,86,"7416 Beach Channel Drive, Queens",13861 Queens Blvd,86
Buona Pizza,Bona Pizza,95,"3213 Beach Channel Drive, New York",3213 Beach Channel Dr,90
Chen Six Flags,Jacky Chen's Chinese Restaurant,86,"558 Beach 25th Street, Far Rockaway",558 Beach 25th St,90
Magic Wok,Wok Wok,95,"1145 Beach Channel Drive, Far Rockaway",133 Rockaway Ave,86
301 Restaurant,Restaurant,95,"86-03 Rockaway Beach Boulevard, Queens",156-03 Northern Blvd,86
Dragon Garden,Tony's Dragon Garden Chinese Restaurant,90,"8618 Rockaway Beach Boulevard, Rockaway Beach",Cristofordo Columbo Boulevard,86
Alibabafinestdelicorp,Deli,90,"8704a Rockaway Beach Boulevard, Rockaway Beach",Cristofordo Columbo Boulevard,86
RIPPERS (summer only),Eros,68,"8601 Shore Front Parkway, Rockaway Beach",Front,90
Seagirt Deli & Grill,Sea,90,"1739 Seagirt Boulevard, Far Rockaway",133 Rockaway Ave,86
New Cheung Hing,New Fulin Kwok Seafood Restaurant,86,"243 Beach 20th Street, Far Rockaway",Street,90
Just taste it,Taste,90,"2-61 Beach 20th Street, Far Rockaway",Street,90
J&M Pizza,J-M Pizza II,95,"Beach 20th Street, Far Rockaway",Street,90
New Cheung Chow,New Fulin Kwok Seafood Restaurant,86,"2011 New Haven Avenue, Far Rockaway",4417 New Utrecht Ave,86
El Nuevo Ambiente,El Nuevo Ambiente,100,"2009 New Haven Avenue, Far Rockaway",4417 New Utrecht Ave,86
Yumze Food,famous restaurant Chinese food,86,"2001 New Haven Avenue, Far Rockaway",4417 New Utrecht Ave,86
Johnny's Classic Quizine,Theresa's Polish American Restaurant,86,"713 Beach 20th Street, Far Rockaway",Street,90
Numial Inc,Sunshine Restaurant Food & Catering Inc,86,"717 Beach 20th Street, Far Rockaway",Street,90
Big New York Fried Chicken,New York Fried Chicken & Pizza,87,Far Rockaway,12616 Rockaway Blvd,86
The New Deleon Bakery & Restaurant,Restaurant,90,"1858 Cornaga Avenue, Far Rockaway",196 23 Jamaica Avenue,86
D’Lenny Dominican Restaurant,Dominican Restaurant,95,"1028 Beach 20th Street, Far Rockaway",1028 Beach 20th St,90
Central America Restaurant,Central America Restaurant,100,"1028 Beach 20th Street #3900, Queens",1028 Beach 20th St,90
La Palma,La Palma,100,"1037 Beach 20th Street, Far Rockaway",1037 Beach 20th St,90
A Tasteful Event,Taste,90,"7-98 Roosevelt Court, Far Rockaway",Roosevelt,90
Lucky Cornaga,Lucky,90,"14-20 Cornaga Avenue, Far Rockaway",144-20,86
Tacos Y Mas,Migueleno's Pizza Y Restaurant,86,"1831 Mott Avenue, Far Rockaway",311 Avenue X,86
Jamaica Breeze Buffet,Jamaica Breeze,90,"2136 Mott Avenue, Far Rockaway",311 Avenue X,86
1436 shan deli & grill,Deli,90,"1436 Beach Channel Drive, Far Rockaway",133 Rockaway Ave,86
Ralph's Coffee Shop,Coffee Shop,90,"21-23 Mott Avenue, Far Rockaway",45-21 Parsons Blvd,86
Community Coffee Shop,Coffee Shop,90,"21-23 Mott Avenue, Far Rockaway",45-21 Parsons Blvd,86
Silver Chicken And Seafood,Ambrosia Italian and Albanian Restaurant,86,"1491 Beach Channel Drive, New York",New York,90
Mott's Famous Fried Chicken & Deli,Moti's,86,Far Rockaway,12616 Rockaway Blvd,86
Mama's Cooking,Theresa's Polish American Restaurant,86,"1044 Beach 21st Street, Far Rockaway",Street,90
Sunny Restaurant,Sunny Restaurant,100,"1041 Beach 20th Street, Far Rockaway",1041 Beach 20th St,90
Cornaga,Agra,68,"1420 Cornaga Avenue, Far Rockaway",196 23 Jamaica Avenue,86
Valientes Restaurant,Restaurant,90,"1921 Mott Avenue, Far Rockaway",311 Avenue X,86
Tio Pollo Restaurant,Restaurant,90,"1921 Mott Avenue, Far Rockaway",311 Avenue X,86
Balthazar,Balthazar,100,"80 Spring Street, New York","New York, New York",95
Osteria Morini,Osteria Gelsi Restaurant,86,"218 Lafayette Street, New York",New York,90
Araf Biriyani & Halal Food,Araf Biryani & Halal Food,98,"560 Broadway, New York","New York, New York",95
Ed's Lobster Bar,El Morro Restaurant & Bar,86,"222 Lafayette Street, New York",New York,90
Galli,Galli Restaurant,90,"45 Mercer Street, New York","New York, New York",95
Soup Kiosk,Vintage Bar & Restaurant gocharge cell phone charging kiosk,86,"94 Prince Street, New York","New York, New York",95
Jack's Wife Freda,Theresa's Polish American Restaurant,86,"224 Lafayette Street, New York",New York,90
BoCaphe,Ocha,68,"222 Lafayette Street, New York",New York,90
Fanelli’s Cafe,Theresa's Polish American Restaurant,86,"94 Prince Street, New York","New York, New York",95
Amar,Amarone Restaurant,90,"62 Spring Street, New York","New York, New York",95
Ramen Hood,Duran Food,70,"62 Spring Street, New York","New York, New York",95
by CHLOE.,The Mark Restaurant by Jean-Georges,86,"240 Lafayette Street, New York",New York,90
Mr Chow,Mr Triunfel Restaurant,86,"121 Hudson Street, New York",New York,90
Il Mattone,IL Mattone Restaurant,90,"49 Beach Street, New York","New York, New York",95
Bubby's,Bubby's,100,"120 Hudson Street, New York",120 Hudson St,90
Beach Street Eatery,Bea,90,"57 Beach Street, New York","New York, New York",95
'Wichcraft,Craft,90,"397 Greenwich Street, New York",New York,90
Yves,Stuyvesant Deli & Supermarket,90,"385 Greenwich Street, New York",85 Greenwich St,90
Wolfgang's Steakhouse,Theresa's Polish American Restaurant,86,"409 Greenwich Street, New York",New York,90
Tamarind Tribeca,Tamarind TriBeCa,100,"99 Hudson Street, New York","New York, New York",95
Benvenuto Cafe,Benvenuto Cafe Tribeca,90,"369 Greenwich Street, New York",369 Greenwich St,90
Jungsik,Lung Sing Chinese Restaurant,64,"2 Harrison Street, New York",New York,90
Puffy's Tavern,Theresa's Polish American Restaurant,86,"81 Hudson Street, New York","New York, New York",95
Paisley,Baisley Food Deli,77,"429 Greenwich Street, New York",New York,90
Zutto Japanese American Pub,Zutto Japanese American Pub,100,"77 Hudson Street, New York","New York, New York",95
Maria Hot dog,Hot Pot Jamaican & American Restaurant,86,"250 West Broadway, New York",New York,90
Terra,Lezzet Mediterranean Turkish Restaurant,90,"222 West Broadway, New York",New York,90
Zona Tribeca Mezcaleria,Tribeca Pizza,86,"353 Greenwich Street, New York",353 Greenwich St,90
VCafé,Stars Cafe & Restaurant,68,"345 Greenwich Street, New York",New York,90
Poke Bowl,Poke Restaurant,86,"386 Canal Street, New York","New York, New York",95
Black Burger,Black Barn Restaurant,86,"386 Canal Street, New York","New York, New York",95
99 Cents Fresh Pizza,99 Cent Fresh Pizza,97,"383 Canal Street, New York","New York, New York",95
5 Boroughs Pizza,Pizza Pizza,95,"386 Canal Street, New York","New York, New York",95
Fresh Food Super Deli,Deli,90,"386 Canal Street, New York","New York, New York",95
Caffe Bene,Bene Restaurant & Pizzeria,86,"378 Canal Street, New York","New York, New York",95
Tribeca Bagels,Bouley Restaurant Tribeca New York,86,"374 Canal Street, New York","New York, New York",95
Tataki,Tataki Japanese Restaurant,90,"3 Lispenard Street, New York",3 Lispenard St,90
Gilligan's,Theresa's Polish American Restaurant,86,"310 West Broadway, New York",New York,90
Club Room at Soho Grand,Sugar Hill Restaurant & Supper Club,86,"310 West Broadway, New York",New York,90
Soho Diner,Diner,90,"320 West Broadway, New York",New York,90
AOA Bar & Grill,Sol Bar & Grill,87,"35 6th Avenue, New York","New York, New York",95
So Ho Gallery,Mea So Eve Restaurant,86,"331 West Broadway, New York",New York,90
Papatzul,ATA,60,"55 Grand Street, New York","New York, New York",95
Sola Pasta Bar,El Morro Restaurant & Bar,86,"330 West Broadway, New York",New York,90
Ninja Grill,Golden Krust Caribbean Bakery and Grill,86,"103 Essex Street, New York","New York, New York",95
Cluck's,Theresa's Polish American Restaurant,86,"115 Essex Street, New York","New York, New York",95
Ramen Ishida,Fish,68,"122 Ludlow Street, New York",New York,90
Char Sue,Yofat Char Restaurant,86,"119 Essex Street, New York","New York, New York",95
375° Chicken 'n Fries,All Refrigeration 'N Restaurant Equipment,86,"124 Ludlow Street, New York",New York,90
Kuma Inn,Sizzle Inn Restaurant,86,"113 Ludlow Street, New York",113 Ludlow St,90
Hana,Fuji Hana,90,"111 Rivington Street, New York",111 Rivington St,90
Los Feliz,Los Pollitos III,86,"109 Ludlow Street, New York",New York,90
Essex Taqueria,Mi Barrio Taqueria Restaurant,86,"123 Essex Street #237, New York",New York,90
Mehanata Bulgarian Bar,ATA,90,"113 Ludlow Street, New York",113 Ludlow St,90
Champion Pizza,Champion Pizza,100,"123 Essex Street, New York","New York, New York",95
Izakaya Juraku,Maya,68,"121 Ludlow Street, New York",New York,90
Copper Throat,The Copper Kettle Bar & Restaurant,86,"123 Ludlow Street, New York",New York,90
El Castillo de Jagua,El Castillo De Jagua,100,"113 Rivington Street, New York",113 Rivington St,90
Set L.E.S.,Theresa's Polish American Restaurant,86,"127 Ludlow Street, New York",New York,90
Wolfnights,Tony's Pizza (Crown Heights),63,"99 Rivington Street, New York",New York,90
Steam House,Hunan House Chinese Restaurant,86,"76 Forsyth Street, New York",New York,90
The Points Wine & Ale Room,The Restaurant,86,"76 Forsyth Street, New York",New York,90
Spicy Village,Dragon Village Chinese Restaurant,86,"68 Forsyth Street B, New York",New York,90
BEP GA,Bang Ga Ne Restaurant,86,"70 Forsyth Street, New York",New York,90
Grand Seoul,564 Grand Restaurant,86,"85 Chrystie Street, New York",New York,90
Bite Of Hong Kong,Hong Kong,90,"81 Chrystie Street, New York",New York,90
Wah Fung Fast Food,Fast Food,90,"79 Chrystie Street, New York",New York,90
C & L Dumpling House,Dumpling House,95,"77 Chrystie Street A, New York",New York,90
95 HomeDish,95 South Soul Food Restaurant,86,"95 Chrystie Street, New York",New York,90
New Kim Tuong,New Fulin Kwok Seafood Restaurant,86,"83 Chrystie Street, New York",New York,90
The Black Lodge Lounge,Taipan Fusion Restaurant and Hookah Lounge,86,"20 Prince Street, New York","New York, New York",95
Lovely Day,Good Day Seafood Restaurant,86,"196 Elizabeth Street, New York",New York,90
Emporio,Emporio,100,"231 Mott Street, New York","New York, New York",95
Mister French,Mister Taco Mexican Restaurant,86,"218 Bowery, New York","New York, New York",95
Café Habana,Crotona's Café Restaurant,86,"17 Prince Street, New York","New York, New York",95
Habana To Go,Good to Go Restaurant,86,"229 Elizabeth Street, New York",New York,90
Prince St. Pizza,Pizza Pizza,95,"27 Prince Street A, New York",New York,90
Wayan,Ayana's Restaurant,72,"20 Spring Street, New York","New York, New York",95
Ray's,Ray's Pizza Restaurant,90,"27 Prince Street, New York","New York, New York",95
Balzem,Salem Coffee House,62,"202 Mott Street, New York","New York, New York",95
Rintintin,Print,72,"14 Spring Street, New York","New York, New York",95
Lombardi's Pizza,Lombardi’s Pizza,100,"32 Spring Street, New York","New York, New York",95
Fiat Café,The River Café,86,"203 Mott Street, New York","New York, New York",95
Uncle Boons Sister,Uncle Mike's Café & Restaurant,86,"203 Mott Street, New York","New York, New York",95
Thai Take Out,Mekong Thai & Vietnamese Restaurant,86,"203 Mott Street, New York","New York, New York",95
The Grey Dog,The Golden Glass Restaurant,86,"244 Mulberry Street, New York",New York,90
Epistrophy,Star,68,"200 Mott Street, New York","New York, New York",95
Go Go Chicken,Good to Go Restaurant,86,"250 Mott Street, New York","New York, New York",95
Naia Deli & Grill,Deli & Grill,95,"2115 Washington Avenue, The Bronx",Washington Ave,90
La Penda II,La Strada Pizzeria & Restaurant,86,"485 East 180th Street, The Bronx",Street,90
Bambino's Pizza & Burgers,Pizza,90,"301 East 181st Street, The Bronx",181st,90
Pizzeria San Diego,La Strada Pizzeria & Restaurant,86,"506 East 180th Street, The Bronx",Street,90
China New Wok,New China,95,"512 East 180th Street R, The Bronx",Street,90
Dary's Restaurant Bar,Dary's Bar & Restaurant,95,"519 East 180th Street, The Bronx",Street,90
Johnny's Pizza Diner,Diner,90,"535 East 180th Street, The Bronx",Street,90
Red House,Red House,100,"538 Claremont Parkway, The Bronx",1045 easter parkway,86
173 Webster Cafe,Cafe 47,86,"1692 Webster Avenue, The Bronx",Webster Ave,90
La Lechonera Criolla,La Strada Pizzeria & Restaurant,86,"1709 Webster Avenue, The Bronx",Webster Ave,90
Adaya,Adaya Restaurant,90,"1715 Webster Avenue, The Bronx",1715 Webster Ave,90
Mela's Cafe,Mela's Cafe & Restaurant,90,"1735 Washington Ave 174th St, Washington Avenue, The Bronx",Washington Ave,90
Stop One Mini,One & One,95,"566 East 188th Street A, The Bronx",Street,90
Reina Del Antojo,El Monstro del Sazon Pizzaria & Restaurant,86,"583 East 187th Street, The Bronx",Street,90
Ann & Tony’s,Ann & Tony's - An Original Arthur Avenue Restaurant,90,"2407 Arthur Avenue, The Bronx",2407 Arthur Ave,90
New Oriental House,New Fulin Kwok Seafood Restaurant,86,"565 East 184th Street, The Bronx",Street,90
Gerbasi,Dera,68,"2389 Arthur Avenue, The Bronx",Arthur Ave,90
Bronx Little Italy,Little Bandgladesh Restaurant,86,"2396 Arthur Avenue, The Bronx",Arthur Ave,90
Taqueria emilio 2,Mi Barrio Taqueria Restaurant,86,"667 East 187th Street, The Bronx",Street,90
"Nike's Pizzeria 625 E 189th St, Bronx NY, 10458",La Strada Pizzeria & Restaurant,86,"625 East 189th Street, The Bronx",9th St,90
Bukanas,Bukhara,71,"2428 Hughes Avenue, The Bronx",2428 Hughes Ave,90
M&G Restaurant II,M Restaurant,95,"2472 Arthur Avenue, The Bronx",Arthur Ave,90
The Pine Tree Cafe,Cafe 47,86,"2900 Southern Boulevard, The Bronx",901 Southern Blvd,86
Los Girasoles,Los Girasoles Restaurant,90,"2613 Webster Avenue, The Bronx",2613 Webster Ave,90
Pete's Café,Theresa's Polish American Restaurant,86,"570 East Fordham Road #1, The Bronx",Fordham Road,90
Pugsley Pizza,Pizza Pizza,95,"590 East 191st Street, The Bronx",Street,90
University Pizza,Pizza Pizza,95,The Bronx,"1095 Prospect Ave, Bronx, NY 10459",86
New Rams Deli Plus,Deli Plus,90,"574e East Fordham Road, The Bronx",Fordham Road,90
Howl At The Moon Grill & Bar,AT&T,90,"585 East 189th Street, The Bronx",9th St,90
Tony & Tina's Pizzeria,Theresa's Polish American Restaurant,86,"2483 Arthur Avenue, The Bronx",Arthur Ave,90
MichaelAngelo's Pizza & Restaurant,Angelo's Pizza,90,"2477 Arthur Avenue, The Bronx",2477 Arthur Ave,90
Locksmith Bar,El Morro Restaurant & Bar,86,"4463 Broadway, New York","New York, New York",95
Bodega Pizza,Pizza Pizza,95,"4455 Broadway, New York","New York, New York",95
New No.1 Tex-Mex,No.1,90,"4480 Broadway, New York","New York, New York",95
La CANTINA HEIGHTS,La Strada Pizzeria & Restaurant,86,"4460 Broadway, New York","New York, New York",95
I.R.T. Subway,SUBWAY,90,New York,New York,100
Kismat Indian Restaurant,Kismat Indian Restaurant,100,"603 Fort Washington Avenue, New York",603 Fort Washington Ave,90
Vicky's,Theresa's Polish American Restaurant,86,"805 West 187th Street, New York",New York,90
Riossi Pizza,Pizza Pizza,95,"4417 Broadway, New York","New York, New York",95
Jordan Snack Bar & Burger,"Caribbean American Ent. Bar, Lounge & Restaurant",86,"4419A Broadway, New York","New York, New York",95
Wahizza,Bash Pizza,71,"4484 Broadway, New York","New York, New York",95
Fresco's Pizzeria,La Strada Pizzeria & Restaurant,86,"804 West 187th Street, New York",New York,90
Yang Garden,Yang Garden,100,"816 West 187th Street, New York",New York,90
Refried Beans Mexican Grill,MEXICAN RESTAURANT RESTAURANTE MEXICANO GUATEMALTECO MEXICAN FOOD,86,"591 Fort Washington Avenue, New York",591 Fort Washington Ave,90
Ozzie's Fresh Market,Theresa's Polish American Restaurant,86,"592 Fort Washington Avenue, New York",New York,90
Fort Tyron Grill,Golden Krust Caribbean Bakery and Grill,86,New York,New York,100
The Pandering Pig,The Golden Glass Restaurant,86,"209 Pinehurst Avenue, New York",New York,90
Halo Bistro Café,Volna Café,86,"4394 Broadway, New York","New York, New York",95
La Cabaña Salvadoreña,La Cabana Salvadorena,95,"4384 Broadway, New York","New York, New York",95
Grito,Margarita's Restaurant,72,"1555 Saint Nicholas Avenue, New York",New York,90
Zoe Restaurant Bar & Lounge,Lounge & Restaurant,95,"1559 Saint Nicholas Avenue, New York",1559 Saint Nicholas Ave,90
El Paisa,Tacos El Paisa,90,"1548 Saint Nicholas Avenue, New York",New York,90
Kennedy's Chicken and Grill,Kennedy's,90,"1550 Saint Nicholas Avenue, New York",New York,90
Q`Kachapa,K V Q Chinese Restaurant,86,"1552 Saint Nicholas Avenue, New York",New York,90
Charlie's Pizza,Charlie's Pizza,100,"1501 Saint Nicholas Avenue, New York",New York,90
El Pollo Dorado,El Morro Restaurant & Bar,86,"1497 Saint Nicholas Avenue, New York",New York,90
Mr. Mangu's Kitchen,Theresa's Polish American Restaurant,86,"1506 Saint Nicholas Avenue, New York",New York,90
Oche A Tu Gusto,a taberna Portuguese restaurant,86,"1573 Saint Nicholas Avenue, New York",New York,90
TACO INN,Sizzle Inn Restaurant,86,"1495 Saint Nicholas Avenue, New York",New York,90
El Jobito,El Morro Restaurant & Bar,86,"1579 Saint Nicholas Avenue, New York",New York,90
Punto Final Food Truck,Food Truck,90,"559 West 185th Street, New York",New York,90
Altus Cafe,Stars Cafe & Restaurant,86,"4325 Broadway, New York","New York, New York",95
Green Juice Cafe,Cafe 47,86,"4316 Broadway, New York","New York, New York",95
New Broadway Pizza Coffee Shop,Broadway Pizza & Coffee Shop,95,"4312 Broadway, New York","New York, New York",95
New San Francisco,New Fulin Kwok Seafood Restaurant,86,"59 Audubon Avenue, New York",59 Audubon Ave,90
San Francisco,San Francisco Restaurant,90,"2166 Amsterdam Avenue, New York",166 Amsterdam Ave,90
Jaya,Jaya Restaurant,90,"79 Audubon Avenue, New York",New York,90
Barrel 79,MTA Bus - Madison Av & E 79 St‎ (M1/M2/M3/M4/BxM2/BxM3/BxM4),86,"79 Audubon Avenue, New York",New York,90
Ma Ruey Thai,Mekong Thai & Vietnamese Restaurant,86,"561 West 169th Street, New York",New York,90
Dallas BBQ Washington Heights,Dallas BBQ,90,"3956 Broadway, New York","New York, New York",95
Tung Thong,Tuang Thong,95,"561 West 169th Street, New York",New York,90
Jad Jaan Thai Vietnamese Restaurant,Restaurant,90,"83 Audubon Avenue, New York",83 Audubon Ave,90
Neighborhood Sbarro,Surf Neighborhood Gourmet Food,86,"4007 Broadway, New York","New York, New York",95
Famous Famiglia Pizzeria,Famous Famiglia Pizza,93,"4020 Broadway, New York","New York, New York",95
Merienda Snack Bar,Bar Sol De Quito Restaurant II,86,"2192 Amsterdam Avenue, New York",Amsterdam avenue,90
Tasty Deli,Tasty Deli,100,"4020 Broadway, New York","New York, New York",95
Jade Garden,Jade Garden,100,"4028 Broadway, New York","New York, New York",95
Coogans,Foodgasm,67,"4015 Broadway, New York","New York, New York",95
On the Run,Pizza On The Run,90,"2165 Amsterdam Avenue, New York",Amsterdam avenue,90
Kin Khao Thai Kitchen,Kin Khao,90,"2200 Amsterdam Avenue #2468, New York",Amsterdam avenue,90
Jade House,Hunan House Chinese Restaurant,86,"2131 Amsterdam Avenue, New York",Amsterdam avenue,90
94 St. Nicholas Deli Inc,Deli,90,"94 Saint Nicholas Place, New York",New York,90
El Gran Valle,El Gran Valle Restaurant,90,"1944 Amsterdam Avenue, New York",Amsterdam avenue,90
Tang's Luck Garden,TANG,90,"1954 Amsterdam Avenue, New York",Amsterdam avenue,90
New Luck Garden,New Fulin Kwok Seafood Restaurant,86,"1954 Amsterdam Avenue, New York",Amsterdam avenue,90
Blue Mountain Heights,Blue,90,"499 West 158th Street, New York",New York,90
SabroSazón,Faros,72,"2002 Amsterdam Avenue, New York",Amsterdam avenue,90
The Mexican Culture Deli & Grocery Store,Deli & Grocery,90,"2017 Amsterdam Avenue #5007, New York",Amsterdam avenue,90
L'Fonda,Fonda,95,"2023 Amsterdam Avenue, New York",Amsterdam avenue,90
Rain II,Bar Sol De Quito Restaurant II,86,"1095 Saint Nicholas Avenue, New York",New York,90
Broadway Slice,Broadway Pizzeria Italian Restaurant,86,"3932 Broadway, New York","New York, New York",95
Fort Washington Public House,Public House,90,"3938 Broadway, New York","New York, New York",95
Fireball Restaurant,Restaurant,90,"3920 Broadway, New York","New York, New York",95
Grab & Go Gourmet Deli,Deli,90,"3920 Broadway, New York","New York, New York",95
Sabor a Colombia,La Nueva Colombia Restaurant,86,"500 West 165th Street, New York",65th street,90
Salento Colombian Coffee & Kitchen,Coffee,90,"2112 Amsterdam Avenue, New York",Amsterdam avenue,90
Wahi Diner,Diner,90,"3915 Broadway, New York","New York, New York",95
Don Panchito,Don Panchito Restaurante Mexicano,90,"2102 Amsterdam Avenue #2, New York",Amsterdam avenue,90
El Nuevo Jobo Restaurant and Bar,Restaurant,90,"3915 Broadway, New York","New York, New York",95
SEAFOOD King Fish Market Inc.,Fish Market,90,"3903 Broadway, New York","New York, New York",95
Jimbo's Hamburger,Jimbo's,90,"2092 Amsterdam Avenue, New York",Amsterdam avenue,90
Giovanni's,Giovanni's,100,"3209 Westchester Avenue, The Bronx",3209 Westchester Ave,90
Lee Xing,Lee Xing,100,"3207 Westchester Avenue, The Bronx",3207 Westchester Ave,90
Empire Bagels,Empire House Chinese Food,86,"3101 Westchester Avenue, The Bronx",Westchester ave,90
Illusions Hookah & Mixology Lounge Inc,Nuriaâs Restaurant Inc,86,"3229 Westchester Avenue, The Bronx",Westchester ave,90
King Hing,King Hing,100,"3227 Westchester Avenue, The Bronx",3227 Westchester Ave,90
Escape Latino,Esca,90,"1841 Hobart Avenue, The Bronx",311 Avenue X,86
Shangeri-La,La Strada Pizzeria & Restaurant,86,"2893-95 Buhre Avenue, The Bronx",95-07 31st Ave,86
Shangerila,Shangrila Deli,75,"2893 Buhre Avenue, The Bronx",Between 39th and 40th street on 13th Avenue,86
Orrico's,Orrico's Italian Restaurant,90,"3019 Westchester Avenue, The Bronx",3019 Westchester Ave,90
Quality Grill & Gyro,"Airways Pizza, Gyro & Restaurant",86,"1805 Edison Avenue, The Bronx",1805 Edison Ave,90
Estrellita Poblana,Estrellita Poblana,100,"45 Westchester Square, The Bronx",45-21 Parsons Blvd,86
Cestra's Pizza III,Cestra's Pizza,95,"44 Westchester Square, The Bronx",149-44 41st Ave,86
La Casa Del Sabor,Casa,90,"2728 East Tremont Avenue, The Bronx",196 23 Jamaica Avenue,86
New York Best Deli & Grill,Best New York Deli,95,"73 Westchester Square, The Bronx",941A Westchester Ave.,86
Soul Snack Bakery & Sweets,bakery,90,"2704 East Tremont Avenue, The Bronx",196 23 Jamaica Avenue,86
Soul Snacks Café,95 South Soul Food Restaurant,86,"2702B East Tremont Avenue, The Bronx",196 23 Jamaica Avenue,86
El Nuevo Bohío Tropical,El Mexicano,86,"20 Westchester Square, The Bronx",20 Westchester Sq,90
Kai,Kaieteur,90,"1475 Williamsbridge Road, The Bronx",Rutland Road,86
M & R Coffee Shop Inc,Coffee Shop,90,"Westchester Village, 1480 Williamsbridge Road, The Bronx",941A Westchester Ave.,86
Ljubo's Pizza,Pizza Pizza,95,"15 Westchester Square, The Bronx",91-15 31st Ave,86
William's Cafe,Theresa's Polish American Restaurant,86,"122 Westchester Square, The Bronx",2 Westchester Sq,90
Jimmy's Pizzeria,Jimmy's Pizza,90,"1907 Story Avenue, The Bronx",Between 39th and 40th street on 13th Avenue,86
Rosario Brothers Deli Grill,Deli,90,"1082 Olmstead Avenue, The Bronx",311 Avenue X,86
Pancho's,Pancho's Mexican Restaurant,90,"1160 Pugsley Avenue, The Bronx",1160 Pugsley ave,90
D'Angelo's Pizzeria & Restaurant,D'angelo's Pizzeria & Restaurant,100,"1160 Pugsley Avenue, The Bronx",1160 Pugsley ave,90
Take Away Cafe,Stars Cafe & Restaurant,86,"1070 Havemeyer Avenue, The Bronx",196 23 Jamaica Avenue,86
New Soul Cafe,New Fulin Kwok Seafood Restaurant,86,"1039 Castle Hill Avenue, The Bronx",1039 Castle Hill Avenue,95
Eat Well Bakery & Restaurant,Eat Well Bakery and Restaurant,95,"1658 Castle Hill Avenue, The Bronx",1658 Castle Hill Ave,90
Sabor Latino,Tu Sabor Latino,95,"2161 Starling Avenue, The Bronx",2161 Starling Ave,90
Hectore & Marco Pizzeria Restaurant Inc.,Restaurant,90,"2454 East Tremont Avenue, The Bronx",196 23 Jamaica Avenue,86
Sky View Diner,Diner,90,"2365 Westchester Avenue, The Bronx",Westchester ave,90
Capri,El Capri Restaurant,90,"2401 Westchester Avenue # A, The Bronx",Westchester ave,90
King House,Peking House,91,"2381 Westchester Avenue # A, The Bronx",Westchester ave,90
Texmex Restaurant Grocery,Restaurant,90,"2325 Westchester Avenue, The Bronx",Westchester ave,90
Peking House,Peking House,100,"2432 East Tremont Avenue, The Bronx",196 23 Jamaica Avenue,86
Coconut Palm,Coconut Palm Restaurant - Bar & Grill,90,"2407 Westchester Avenue, The Bronx",Westchester ave,90
Tequila & Rum,gabriela's restaurant and tequila bar,86,"2434 East Tremont Avenue, The Bronx",196 23 Jamaica Avenue,86
Jade Garden Restaurant,Garden Restaurant,95,"2413 Westchester Avenue, The Bronx",Westchester ave,90
El Fogon Dominican Kitchen,Ming Hing Kitchen,86,"1368 Castle Hill Avenue, The Bronx",196 23 Jamaica Avenue,86
Tandoori Place,Market Place Restaurant,86,"2146 Starling Avenue, The Bronx",2146 Starling Ave,90
Pizza Place,Pizza Place,100,"1665 Metropolitan Avenue, The Bronx",Metropolitan Ave.,90
Al-Aqsa Restaurant,Al-Aqsa Restaurant,100,"2107 Starling Avenue, The Bronx",2107 Starling Ave,90
Bickles 2 Go,Oliva Paraiso Restaurant No 2,86,"726 Courtlandt Avenue, The Bronx",Courtlandt Avenue,90
Pepe Joe's Brick Oven Pizza,Pizza,90,"722 Courtlandt Avenue #5004, The Bronx",Courtlandt Avenue,90
Landin Mac & Cheese,X-tra Cheese Pizzeria & Restaurant,86,"701 Melrose Avenue, The Bronx",Melrose Ave,90
La Hora Decisiva,La Strada Pizzeria & Restaurant,86,"689 Melrose Avenue, The Bronx",Melrose Ave,90
El Faisan De Oro,El Morro Restaurant & Bar,86,"469 East 156th Street, The Bronx",Street,90
Jimbo's Hamburger Place,Jimbo's,90,"690 Melrose Avenue, The Bronx",Melrose Ave,90
NO.1 Kitchen,No. 1 Kitchen,96,"839f Prospect Avenue, The Bronx",311 Avenue X,86
Bona Pizza,Bona Pizza,100,"751 Westchester Avenue, The Bronx",Westchester ave,90
El Despertar Marlene,El Mexicano,86,"849 Prospect Avenue, The Bronx",849 Prospect Ave,90
Giovanis Big Pizza,Giovani's Big Pizza,97,"839-A Prospect Avenue, The Bronx",29-30  A Union St,86
Wang Eastern Chinese Restaurant,Wang Eastern Chinese Restaurant,100,"780 East 163rd Street, The Bronx",Street,90
Johnson Bar-B-Q,El Morro Restaurant & Bar,86,"790 East 163rd Street, The Bronx",Street,90
Hing Wong,Hing Wong,100,"721 Westchester Avenue, The Bronx",Westchester ave,90
Colony Fried Chicken,Crown Fried Chicken,87,"864 Prospect Avenue, The Bronx",311 Avenue X,86
La Colonia Food,La Strada Pizzeria & Restaurant,86,"594 Morris Avenue, The Bronx",Between 39th and 40th street on 13th Avenue,86
Feng Hua,Chang Hua Restaurant,86,"600 Morris Avenue, The Bronx",600 Morris Ave,90
Felix Nutrition Center Herbalife Independent Distributor,Soldier Jerk Center and Restaurant,86,"271 East 150th Street, The Bronx",50th St.,90
Sabores,El Rinconcito De Los Sabores Restaurant & Deli,90,"582 Morris Avenue, The Bronx",582 Morris Ave,90
Caribbean Take Out,Bea,90,"624 Morris Avenue, The Bronx",624 Morris Ave,90
Lincoln Pizza,Pizza Pizza,95,"253 East 149th Street, The Bronx",9th St,90
La Isla Cuchifrito,La Isla,90,"276 East 149th Street, The Bronx",9th St,90
Yolanda's,Yolanda's Italian Pizzeria & Restaurant,90,"292 East 149th Street, The Bronx",9th St,90
Lincoln DELI,Lincoln Deli,100,"522 Morris Avenue, The Bronx",Between 39th and 40th street on 13th Avenue,86
Merryland Buffet,Merry Land Buffet,97,"325 East 149th Street, The Bronx",9th St,90
Lincoln Towers Cafe,Cafe 47,86,"234 East 149th Street, The Bronx",9th St,90
Tia Guaxcuax,La Tia,86,"605 Courtlandt Avenue, The Bronx",Courtlandt Avenue,90
Los Hermanos Salazar,El Rinconcito De Los Sabores Restaurant & Deli,86,"645 Courtlandt Avenue, The Bronx",Courtlandt Avenue,90
149 Grill,Golden Krust Caribbean Bakery and Grill,86,"355 East 149th Street, The Bronx",9th St,90
Angela's Cuisine,Theresa's Polish American Restaurant,86,"440 East 138th Street, The Bronx",38th St,90
Xime,Carlos Restaurant Equipment,68,"448 East 138th Street, The Bronx",38th St,90
Joselitos mexican deli & grocery,Joselito,90,"450 East 138th Street, The Bronx",38th St,90
Onis Restaurant,Sonrisa Restaurant,91,"226 Willis Avenue, The Bronx",Between 39th and 40th street on 13th Avenue,86
Jimbo's Hamburgers,Jimbo's,90,"228 Willis Avenue, The Bronx",Between 39th and 40th street on 13th Avenue,86
Marce Taqueria Express,Fresh Tortillas (Tex-Mex Express) & Japanese Restaurant,86,"226 Willis Avenue, The Bronx",Between 39th and 40th street on 13th Avenue,86
KRISPY KRUNCHY CHICKEN,Crazy Chicken Restaurant & Coffee Shop,86,"232 Willis Avenue, The Bronx",Between 39th and 40th street on 13th Avenue,86
Lili,D'lilian Bakery,90,"415 East 138th Street, The Bronx",38th St,90
La Fiesta,La Fiesta Restaurant,90,"415 East 138th Street, The Bronx",38th St,90
Juanito Restaurant,junior Restaurant,91,"494 East 138th Street, The Bronx",38th St,90
DC Villanueva,Coffee Cart outside UN DC-2,86,"237 Willis Avenue, The Bronx",Between 39th and 40th street on 13th Avenue,86
Five star kennedy fried chicken and waffle,Kennedy Fried Chicken,90,"266 Willis Avenue, The Bronx",Between 39th and 40th street on 13th Avenue,86
El Viejo Gran Caffè,El Coyote Mexican Restaurant,86,"498 East 138th Street, The Bronx",38th St,90
Santa Clarita,New Santa Ana Restaurant,86,"237 Willis Avenue #2, The Bronx",2-01 50th Ave,86
El Cantinero Poblano,El Mexicano,86,"231 Brook Avenue, The Bronx",Between 39th and 40th street on 13th Avenue,86
Kennedy's Chicken & Sandwiches,Kennedy's,90,"495 East 138th Street, The Bronx",38th St,90
We Ting NYC Mikael’s Kitchen,Moti's,86,"410 East 134th Street, The Bronx",Street,90
Dominican Flavors,Carmen Dominican Bakery & Restaurant,86,"145 Bruckner Boulevard, The Bronx",729 Bruckner Blvd,86
Milk Burger,Milk River Restaurant,86,"148 Bruckner Boulevard, The Bronx",729 Bruckner Blvd,86
Eat Better Deli and Grill,Deli,90,"4202, 527 East 137th Street, The Bronx",Street,90
Cambumbo express Corp,Fresh Tortillas (Tex-Mex Express) & Japanese Restaurant,86,"504 East 138th Street, The Bronx",38th St,90
Brook,Moldova Restaurant Brooklyn,90,"504 East 138th Street, The Bronx",38th St,90
Golden Pizza,Pizza Pizza,95,"504 East 138th Street, The Bronx",38th St,90
Carmen & Cindy,Carmen Dominican Bakery & Restaurant,86,"745 East 136th Street, The Bronx",Street,90
710 Caridad Express,Caridad,90,"710 East 138th Street, The Bronx",38th St,90
Caridad Restaurant,Caridad Restaurant,100,The Bronx,"1095 Prospect Ave, Bronx, NY 10459",86
No.1 Wok,Wok Wok,95,"260 Cypress Avenue, The Bronx",311 Avenue X,86
Liang's Garden,Theresa's Polish American Restaurant,86,"320 Cypress Avenue, The Bronx",311 Avenue X,86
Fresh Taco,New York Deli & Fresh Taco.U,90,"799 Cypress Avenue, The Bronx",311 Avenue X,86
My Three Sons Coffee Shop,Coffee Shop,90,"7121 Fort Hamilton Parkway, Brooklyn",7121 Fort Hamilton Parkway,95
Maria's Pizza,Maria's pizza,100,"7101 Fort Hamilton Parkway, Brooklyn",brooklyn,90
Mei Shiza Inc,Sunshine Restaurant Food & Catering Inc,86,"7111 Fort Hamilton Parkway, Brooklyn",brooklyn,90
Brothers Deli & Bagel,Deli,90,"7105 Fort Hamilton Parkway, Brooklyn",brooklyn,90
Fu Lai Kitchen,Fu Lai Kitchen Chinese Food To Take Out,90,"7023 Fort Hamilton Parkway, Brooklyn",brooklyn,90
George's Souvlaki,Theresa's Polish American Restaurant,86,"7006 Fort Hamilton Parkway, Brooklyn",brooklyn,90
Flaming Pepper Kitchen,Chang Jiang Kitchen Chinese Restaurant,86,"7002 Fort Hamilton Parkway, Brooklyn",brooklyn,90
Noodle Dumpling House,Dumpling House,90,"7002 Fort Hamilton Parkway, Brooklyn",brooklyn,90
Jimmy 3 Son's Deli & Grill,Deli,90,"6901 Fort Hamilton Parkway, Brooklyn",brooklyn,90
Wei Xian Inc,Sunshine Restaurant Food & Catering Inc,86,"6718 Fort Hamilton Parkway, Brooklyn",brooklyn,90
Dream Eatery,The Golden Dream Restaurant,86,"6712 Fort Hamilton Parkway, Brooklyn",brooklyn,90
New Corner,New Corner Restaurant,90,"7201 8th Avenue, Brooklyn",7201 8th Ave,90
