name_google,name_foursquare,ratio_name,address_google,address_foursquare,ratio_address
La Sorrentina,La Strada Pizzeria & Restaurant,86,"6524 11th Avenue, Brooklyn",brooklyn,90
Ocean Chinese Restaurant,Chinese Restaurant,95,"6909 8th Avenue, Brooklyn",6909 8th Ave,90
Q & L Bakery,bakery,90,"6516 11th Avenue, Brooklyn",brooklyn,90
Mang Tang Hung,TANG,90,"6508 11th Avenue, Brooklyn",6508 11th Ave,90
Eissawy Halal Food,Halal Food,90,"6503-6501 Fort Hamilton Parkway, Brooklyn",brooklyn,90
新鳯凰城大酒店,New Hon Wong Restaurant 新恒旺大飯店,39,"912 65th Street, Brooklyn",65th street,90
Kung Fu Steamer,Jia Fu Lou Chinese Restaurant,86,"6415 11th Avenue, Brooklyn",6415 11th Ave,90
Great Fellas,Great Wall Restaurant,86,"6423 11th Avenue, Brooklyn",brooklyn,90
Mama Rao's Ristorante & Party Room,Moti's,86,"6408 11th Avenue, Brooklyn",brooklyn,90
Parc Oasis Oyster Bar,La Kuchara Ecuadorian Restaurant Bar,86,"6403 11th Avenue, Brooklyn",brooklyn,90
Meze,Agnanti Meze,90,"6601 13th Avenue, Brooklyn",brooklyn,90
One,Number One Chinese,90,"6320 11th Avenue, Brooklyn",6320 11th Ave,90
Rakuzen AYCE Sushi Brooklyn,"Golden Forest Chinese Restaurant, Brooklyn Ny",86,"6408 Fort Hamilton Parkway, Brooklyn",brooklyn,90
大丰收 Good Harvest,Good Day Seafood Restaurant,86,"6324 Fort Hamilton Parkway, Brooklyn",brooklyn,90
Baby Olive,Baby Restaurant,86,"1402 86th Street On, 14th Avenue, Brooklyn",4th Ave,90
Bklyn's Pizza,Bklyn Pizza,95,"1406 86th Street #3408, Brooklyn",brooklyn,90
Park Bagels,Evergreen Park Restaurant,86,"1410 86th Street, Brooklyn",brooklyn,90
Mike's Diner Of Brooklyn,Diner,90,"1454 86th Street, Brooklyn",brooklyn,90
Mia Zia,Mamma Mia Pizza Restaurant,86,"8424 13th Avenue, Brooklyn",brooklyn,90
Tommaso,Tommaso's,95,"1464 86th Street, Brooklyn",1464 86th St,90
God Father Martono,Father & Sons Wood Fire Oven Pizza,86,Brooklyn,brooklyn,100
BurgerFi: Take Out Available,OUT Latin Food,86,"719 86th Street, Brooklyn",brooklyn,90
Annabelle's Pastaria,Star,90,"717 86th Street, Brooklyn",brooklyn,90
Dyker Park Bagels,Miller's Ale House - Rego Park,86,"713 86th Street, Brooklyn",brooklyn,90
Szechuan Delight 川園,Szechuan Delight,95,"709 86th Street, Brooklyn",brooklyn,90
Landy's Pizzeria & Restaurant,Pizzeria & Restaurant,95,"9050 Fort Hamilton Parkway, Brooklyn",brooklyn,90
Hana Japanese Restaurant,Dan Japanese Restaurant,94,"524 86th Street, Brooklyn",brooklyn,90
3 Pyramids Halal Cart,Halal,90,Brooklyn,brooklyn,100
Middle Eastern Halal Cart Citibank Side,Halal,90,"8601 5th Avenue, Brooklyn",5th Avenue,90
E Noodle,E and J Restaurant,86,"8619 5th Avenue, Brooklyn",5th Avenue,90
Thai Leaf,Mekong Thai & Vietnamese Restaurant,86,"611 86th Street, Brooklyn",brooklyn,90
⼀成都故乡,Chen Du Tian Fu 成都天府,45,"8701 5th Avenue, Brooklyn",5th Avenue,90
Grand Sichuan House,Hunan House Chinese Restaurant,86,"8701 5th Avenue, Brooklyn",5th Avenue,90
Pizza Wagon,Pizza Pizza,95,"8610 5th Avenue, Brooklyn",5th Avenue,90
Lonestar Sports Bar & Grill,Star,90,"8703 5th Avenue, Brooklyn",5th Avenue,90
Stewart's,Theresa's Polish American Restaurant,86,"8518 5th Avenue, Brooklyn",5th Avenue,90
TIME FOR SALAD,Manna's Soul Food & Salad Bar,86,"480 86th Street, Brooklyn",brooklyn,90
Halal Gyro Cart,Halal,90,"8610 5th Avenue, Brooklyn",5th Avenue,90
Hibachi Master,Kiraku Hibachi & Sushi,86,"8512 5th Avenue, Brooklyn",5th Avenue,90
Mancini's,Theresa's Polish American Restaurant,86,"8504 5th Avenue, Brooklyn",5th Avenue,90
Sunset Bagels Bay Ridge,Bay restaurant,86,"8624 5th Avenue, Brooklyn",5th Avenue,90
Delia's Lounge & Restaurant,Delia's Lounge & Restaurant,100,"9224 3rd Avenue, Brooklyn",9224 3rd Ave,90
Charlie's Sandwich Shop,Theresa's Polish American Restaurant,86,"9216 3rd Avenue, Brooklyn",brooklyn,90
Suki Sushi,Yuki Sushi,90,"9208 3rd Avenue, Brooklyn",brooklyn,90
Kim Chee,Kim Fai Restaurant,86,"9324 3rd Avenue, Brooklyn",9324 3rd Ave,90
Gluten Free Food Brooklyn,Gluten Free Food Brooklyn,100,"9406 3rd Ave, store front, Brooklyn","9406 3rd Ave, store front",95
Best Lunch Restaurant,Restaurant,90,"9406 3rd Ave, basement, Brooklyn",brooklyn,90
Breakfast Restaurants,Restaurant,90,"9406 3rd Ave, first floor, Brooklyn",brooklyn,90
Healthy Lunch Near Me,Wimpsy's Restaurant Coffee Shop: Breakfast Lunch Dinner,86,"9406 3rd Ave, front, Brooklyn",brooklyn,90
Brunch Bay Ridge,Golden Bay Parkway Restaurant Inc,86,"9406 3rd Аvenue, Brooklyn",brooklyn,90
Best Delicious Food Brooklyn,Best Delicious Food Brooklyn,100,"9406 3rd Avenue, Brooklyn",brooklyn,90
The Wicked Monk,The Golden Glass Restaurant,86,"9510 3rd Avenue, Brooklyn",brooklyn,90
Baya Bar Bay Ridge,Bar Sol De Quito Restaurant II,86,"9417 3rd Avenue, Brooklyn",417 3rd Ave,90
Pipin's Pub,Theresa's Polish American Restaurant,86,"9023 3rd Avenue, Brooklyn",brooklyn,90
Nonno's Pizza,Pizza Pizza,95,"8816 3rd Avenue, Brooklyn",brooklyn,90
Bridgeview Diner,Diner,90,"9011 3rd Avenue, Brooklyn",brooklyn,90
Standard Burger,Go Burger by BLT restaurants Group,86,"8812 3rd Avenue, Brooklyn",brooklyn,90
West Shore Inn Steakhouse,C B Finger Licking Jamaican and West Indian Restaurant,86,"3955 Victory Boulevard, Staten Island",2670 Coney Island Ave,86
494 Chicken,Kennedy Fried Chicken,86,"3785 Victory Boulevard, Staten Island",2670 Coney Island Ave,86
Michael's Meatball Shoppes,Moti's,86,"4085 Victory Boulevard, Staten Island",2670 Coney Island Ave,86
Blaze Lounge & Cafe,Cafe 47,86,"4164 Victory Boulevard, Staten Island",2670 Coney Island Ave,86
Showplace Entertainment Center,Jonaki Caterers Restaurant (formerly Steve's Utica Jerk Center),86,"141 East Service Road, Staten Island",2670 Coney Island Ave,86
El Pollo,El Pollo Restaurant,90,"4168 Victory Boulevard, Staten Island",2670 Coney Island Ave,86
Bagel Cafe,Stars Cafe & Restaurant,86,"6734, 3579 Victory Boulevard, Staten Island",2670 Coney Island Ave,86
Taqueria Mexican Restaurant,Tequila Mexican Restaurant,91,"3579 Victory Boulevard, Staten Island",2670 Coney Island Ave,86
Casanova,Casanova Family Italian Restaurant & Pizzeria,90,"3555 Victory Boulevard, Staten Island",2670 Coney Island Ave,86
Maynila,Manila Bar & Restaurant,77,"3555 Victory Boulevard, Staten Island",2670 Coney Island Ave,86
Ti Amo Pizza,Pizza Pizza,95,"3555 Victory Boulevard, Staten Island",2670 Coney Island Ave,86
Dynasty Taste,Taste,90,"77 Richmond Hill Road, Staten Island",2670 Coney Island Ave,86
Bario's,Bario's,100,"446 Nome Avenue, Staten Island",311 Avenue X,86
Miller's Ale House - Staten Island,Moti's,86,"2883 Richmond Avenue, Staten Island",Richmond Avenue,90
Gino's Villa Monte Pizzeria,Gino's Villa Monte Pizzeria & Restaurant,95,"2811 Richmond Avenue, Staten Island",Richmond Avenue,90
Jersey Mike's Subs,Theresa's Polish American Restaurant,86,"2795 Richmond Avenue, Staten Island",Richmond Avenue,90
Brothers Halal,Halal,90,"1031-, 1045 Richmond Avenue, Staten Island",Richmond Avenue,90
Sakai Ramen and Izakaya,Ambrosia Italian and Albanian Restaurant,86,"965 Richmond Avenue ste f, Staten Island",Richmond Avenue,90
Umi Sushi & Hibachi,Umi Sushi,90,"939 Richmond Avenue, Staten Island",Richmond Avenue,90
Yum Yum,Yum Bakery,95,"1778 Forest Avenue, Staten Island",Forest Avenue,90
The Greek Avocado @ Mikes Dakota diner,Diner,90,"921 Richmond Avenue, Staten Island",Richmond Avenue,90
Smoke shop & Tobacco,Loma restaurant and coffee shop,86,"136 New Dorp Lane, Staten Island",4417 New Utrecht Ave,86
Cantina Mexicana,Mexicana,90,"140 New Dorp Lane, Staten Island",4417 New Utrecht Ave,86
Giacomo's Pizzeria & Restaurant,Pizzeria & Restaurant,95,"170 New Dorp Lane, Staten Island",4417 New Utrecht Ave,86
Brioso,Sabrioso Deli Market,90,"174 New Dorp Lane, Staten Island",4417 New Utrecht Ave,86
Pizza di molise,Pizza Pizza,95,"309 Bradley Avenue, Staten Island",196 23 Jamaica Avenue,86
Star Park,Star,90,"6201 20th Avenue, Brooklyn",brooklyn,90
Rona Food Corporation,Food Corp,90,"6113 20th Avenue, Brooklyn",6113 20th Ave,90
Verona on the Grill,Golden Krust Caribbean Bakery and Grill,86,"6113 20th Avenue, Brooklyn",6113 20th Ave,90
Tasty Garden,Kan's Tasty Garden Restaurant,90,"6415 20th Avenue, Brooklyn",6415 20th Ave,90
La Cemita,La Strada Pizzeria & Restaurant,86,"6417 20th Avenue, Brooklyn",6417 20th Ave,90
Europa Pizzeria,La Strada Pizzeria & Restaurant,86,"6423 20th Avenue, Brooklyn",brooklyn,90
E Dim Sum,K K Coffee Dim Sum,90,"2006 65th Street, Brooklyn",65th street,90
Golden City 煌嘉囍宴,"Golden Forest Chinese Restaurant, Brooklyn Ny",86,"6418 20th Avenue, Brooklyn",brooklyn,90
Tova Kosher Pizza,Tov Kosher Pizza,97,"4514 13th Avenue, Brooklyn",4514 13th Ave,90
Benny's Famous Pizza,Benny's Famous Pizza,100,"4514 13th Avenue, Brooklyn",4514 13th Ave,90
China Glatt,China Gourmet Chinese Restaurant,86,"4413 13th Avenue, Brooklyn",brooklyn,90
Upside Now!,Southside Coffee,63,"4621 13th Avenue, Brooklyn",brooklyn,90
Amnon's Kosher Pizza,Kosher Pizza,90,"4814 13th Avenue, Brooklyn",brooklyn,90
Falfamania,Mangia,82,"4305 12th Avenue, Brooklyn",brooklyn,90
Orchidea Restaurant,Restaurant,90,"4815 12th Avenue, Brooklyn",brooklyn,90
Spoons,Spoons Restaurant,90,"5001 13th Avenue, Brooklyn",5001 13th Ave,90
Asia Glatt Kosher,Asia Glatt Kosher,100,"4813 New Utrecht Avenue, Brooklyn",4813 New Utrecht Ave,90
Nu Cafe 47,Cafe 47,95,"4709 New Utrecht Avenue, Brooklyn",4709 New Utrecht Ave,90
Sesame - Boro Park,Miller's Ale House - Rego Park,86,"5024 13th Avenue, Brooklyn",brooklyn,90
Santos 2,Santos Restaurant,86,"4718 New Utrecht Avenue, Brooklyn",4718 New Utrecht Ave,90
Yi's Sandwich Shop,Theresa's Polish American Restaurant,86,"1211 McDonald Avenue, Brooklyn",brooklyn,90
Sungai Malaysian Cuisine,Annie Chan's Japanese Cuisine Restaurant,86,"6218 18th Avenue, Brooklyn",18th Avenue,90
Jin Jin Hong Kong Cafe,Hong Kong,90,"6224 18th Avenue, Brooklyn",18th Avenue,90
Naim Kosher Pizza,Kosher Pizza,95,"3904 15th Avenue, Brooklyn",5th Avenue,90
Noshers,Pongal Kosher South Indian Vegetarian Restaurant,77,"4312 15th Avenue, Brooklyn",5th Avenue,90
Freund's Kitchen,Theresa's Polish American Restaurant,86,"4305 15th Avenue, Brooklyn",5th Avenue,90
Sushi K Bar,El Morro Restaurant & Bar,86,"4120 16th Avenue, Brooklyn",brooklyn,90
Matamin Kosher Products Co.,Benny's Kosher Pizza Falafel & Dairy Restaurant,86,"4302 16th Avenue, Brooklyn",brooklyn,90
Three Flavors Dumpling King Inc.,Flavors Restaurant,86,"6308 18th Avenue, Brooklyn",18th Avenue,90
Umai Ramen,Ajisen Ramen,73,"6320 18th Avenue, Brooklyn",18th Avenue,90
J & V Pizzeria,J & V Pizzeria,100,"6322 18th Avenue, Brooklyn",18th Avenue,90
Sandwich King Deli,Sandwich King,95,"146-25 Northern Boulevard, Flushing",46-25,90
Aladin Lamb BBQ,Ding BBQ and Hot Pot Restaurant,86,"42-32 162nd Street, Flushing",Street,90
Malien Group Inc,Sunshine Restaurant Food & Catering Inc,86,"4205 162nd Street, Flushing",Street,90
New Asian,New Asian Restaurant,90,"41-24 162nd Street, Flushing",41-24,90
Hainan,Chinantla Restaurant,75,"41-25 162nd Street, Flushing",Street,90
Pelicana Chicken - Flushing,Chicken Festival,86,"41-23 162nd Street, Flushing",Street,90
Zu Rang Restaurant,Restaurant,90,"4114 162nd Street, Flushing",Street,90
Dongwon Sushi & Tuna,Umi Sushi,86,"41-19 162nd Street, Flushing",Street,90
Parksanbal Babs,Balboa,75,"41-10 162nd Street, Flushing",Street,90
Hansol Food,Hansol Food,100,"41-06 162nd Street, Flushing",41-06 162nd St,90
Nalmada Pocha,Alma,90,"41-04 162nd Street, Flushing",Street,90
Somoon Corporation.,Guang Zhou Resturant (formerly Perfect Team Corporation),86,"4104 162nd Street, Flushing",Street,90
La Nueva Amistad,La Strada Pizzeria & Restaurant,86,"40-29 162nd Street, Flushing",Street,90
Fratelli's Pizzeria,Fratelli's,90,"4036 162nd Street, Flushing",Street,90
Steve's Coffee Shop,Steve's Coffee Shop,100,"4034 162nd Street, Flushing",Street,90
Soolmokgo,Elmo,68,"162-8 Northern Boulevard, Flushing",147-18 Northern Blvd,86
고려당(Koryodang),Koryodang Bakery & Cafe,86,"41-06 163rd Street, Flushing",Street,90
Song's Family Food,Song's Family Food,100,"162-20 Northern Boulevard, Flushing",147-18 Northern Blvd,86
chuanzhuren hot pot & BBQ,Hot Pot Jamaican & American Restaurant,86,"149-52 41st Avenue, Flushing",1st ave.,90
Sambak Sambabzip,Alma,68,"41-11 150th Street, Flushing",41-11 150th St,90
Hanshin Pocha (한신포차),Ocha,90,"149-46 41st Avenue 1 Fl, Flushing",1st ave.,90
Dammion - 담미온,Amma,68,"149-44 41st Avenue, Flushing",149-44 41st Ave,90
N.Y and Seoul,Ghoroa Sweets and Restaurant,86,"4105 150th Street, Flushing",50th St.,90
뉴역전구이,403 Restaurant,0,"41-5 150th Street, Flushing",50th St.,90
Mekong,Mekong Thai & Vietnamese Restaurant,90,"15632 Northern Boulevard, Flushing",147-18 Northern Blvd,86
Mail Garden,mail garden restaurant,90,"149-32 41st Avenue, Flushing",1st ave.,90
Gu Wol San,San Soo Kap San,86,"156-28 Northern Boulevard, Flushing",147-18 Northern Blvd,86
Ssam Tong Korean BBQ,146-13 Northern Blvd Korean Restaurant,86,"41-08 149th Place, Flushing",41-87 Bowne St,86
Han Joo,Han Joo,100,"41-06 149th Place, Flushing",41-06 149th Pl,90
Mapo | Korean BBQ Flushing | Korean Restaurant | 마포 숯불갈비 플러싱 맛집,Korean Restaurant,90,"149-24 41st Avenue, Flushing",1st ave.,90
One for the Road,One Point Five Restaurant,86,"40-25 150th Street, Flushing",50th St.,90
Jang Dok Dae Korean,146-13 Northern Blvd Korean Restaurant,86,"149-22 41st Avenue, Queens",1st ave.,90
Heungbune 흥부네,Blue,68,"149-22 41st Avenue, Flushing",1st ave.,90
KangTong,Tuang Thong,74,"149-20 41st Avenue, Queens",1st ave.,90
Joong Koog Jip,Go Hyang Jip Korean Food Market,86,"149-08 41st Avenue, Flushing",1st ave.,90
Chinese House,King Chinese Restaurant,86,"14908 41st Avenue, Flushing",1st ave.,90
Las Juanas Restaurant Asadero,Las Juanas Restaurant Asadero,100,"9515 Northern Boulevard, Jackson Heights",147-18 Northern Blvd,86
Cheng Garden,Garden 13 Dairy Restaurant and Pizza,86,"9422 Northern Boulevard, Flushing",147-18 Northern Blvd,86
Cafe Rubio,Rubio's Cafe,95,"9805 Northern Boulevard, Corona",147-18 Northern Blvd,86
Grano de Café,Bar Sol De Quito Restaurant II,86,"9812 Northern Boulevard, Corona",147-18 Northern Blvd,86
The King of Taco,C&L Of East Ocean Restaurant,86,"9017 31st Avenue, East Elmhurst",9017 31st Ave,90
Nueva Fuente,La Nueva Colombia Restaurant,86,"98-18 Northern Boulevard, Queens",85-18 Northern Boulevard,88
111 Deli Stop Corp,111 Deli Stop Corp,100,"110-21 Northern Boulevard, Flushing",147-18 Northern Blvd,86
Rainhas Churrascaria,Churrascaria Plataforma,71,"108-01 Northern Boulevard, Corona",147-18 Northern Blvd,86
Capelli's Cafe,Theresa's Polish American Restaurant,86,"107-11 Northern Boulevard, Corona",147-18 Northern Blvd,86
El Fogon Costeno,EL FOGON COSTENO RESTAURANT,90,"10912 Northern Boulevard #1344, Corona",147-18 Northern Blvd,86
La Roja de Todos,La Roja de Todos Restaurant & Bakery,90,"10802 Northern Boulevard, Corona",147-18 Northern Blvd,86
Polanco's,Polanco's Restaurant,90,"33-13 108th Street, Corona",Street,90
La Esquina del Sabor,La Strada Pizzeria & Restaurant,86,"99-01 Northern Boulevard, Corona",147-18 Northern Blvd,86
Manta Llave Del Mar,El Monstro del Sazon Pizzaria & Restaurant,86,"9912 Northern Boulevard, Flushing",147-18 Northern Blvd,86
El TRI MX Restaurant & Bar,El TRI MX Restaurant & Bar,100,"99-12 Northern Boulevard, Corona",147-18 Northern Blvd,86
Caridad Restaurant,Caridad Restaurant,100,"100-02 Northern Boulevard, Flushing",147-18 Northern Blvd,86
El Pailon,El Morro Restaurant & Bar,86,"100-08 Northern Boulevard, Corona",147-18 Northern Blvd,86
Montañita Restaurant,Restaurant,90,"100 14 Northern Boulevard, Corona",147-18 Northern Blvd,86
Rams Deli and Grill,deli and grill,95,"203-01 Hollis Avenue, Jamaica",107-01 37th Ave,86
New pizza place,Pizza Place,95,"20527 Hollis Avenue, Jamaica",20527 Hollis Ave,90
Hops Kitchen,Halal Chinese Kitchen,86,"109-69 Francis Lewis Boulevard, Queens Village",Cristofordo Columbo Boulevard,86
Auntie Coleen's Kitchen LLC,Moti's,86,"11329 205th Street, St. Albans",Street,90
Maxine On the Boulevard,Max,90,"11333 Farmers Boulevard, New York",New York,90
LabadI Restaurant & Lounge (CORMIER)),Restaurant,90,"207-13 Jamaica Avenue, Queens Village",Jamaica ave,90
D ROTI HUT,Roti Corner Restaurant,86,"20801 Jamaica Avenue, Queens",Jamaica ave,90
La Tuna,El Maguey y La Tuna,90,"557 Kings Highway, Brooklyn",brooklyn,90
Kosha Ro Sushi,Ginpachi Sushi Restaurant,86,"1878 East 4th Street, Brooklyn",brooklyn,90
Slices of Brooklyn,C&L Of East Ocean Restaurant,86,"549 Kings Highway, Brooklyn",brooklyn,90
Tam Tam Express,Cam Tak Express Restaurant,86,"1637 East 17th Street, Brooklyn",brooklyn,90
Mint Brooklyn,"Golden Forest Chinese Restaurant, Brooklyn Ny",86,"535 Kings Highway, Brooklyn",brooklyn,90
El Pollo,El Pollo Restaurant,90,"1869 East 3rd Street, Brooklyn",brooklyn,90
David's restaurant,David's Restaurant,100,"539 Kings Highway, Brooklyn",brooklyn,90
Adam's Deli On The Corner,Deli,90,"525 Kings Highway, Brooklyn",brooklyn,90
Siena,Sensa,80,"533 Kings Highway, Brooklyn",brooklyn,90
Think Sweet Cafe,Cafe 47,86,"546 Kings Highway, Brooklyn",brooklyn,90
Pita Sababa,Pasha Pizza Pita Grill,86,"540 Kings Highway, Brooklyn",brooklyn,90
Kosher Sushi Delivery,Deli,90,"1802 E19 ocean pkwy, Brooklyn",brooklyn,90
Season,Season Restaurant,90,"1321 Avenue U, Brooklyn",1321 Avenue U,90
J&M Pizza II,J-M Pizza II,100,"1323 Avenue U, Brooklyn",Avenue U,90
Luigi's Pizza,Luigi's Pizza,100,"1615 Avenue U, Brooklyn",Avenue U,90
Three Star,Star,90,"1611 Avenue U, Brooklyn",1611 Avenue U,90
Golden Z,"Golden Forest Chinese Restaurant, Brooklyn Ny",86,"1410 Avenue U, Brooklyn",1410 Avenue U,90
El Mexicano Mexican Restaurant NY,El Mexicano,90,"2102 East 15th Street, Brooklyn",brooklyn,90
La Villita,La Villita Restaurant,90,"1249 Avenue U, Brooklyn",Avenue U,90
Pho Vietnam,Phở Vietnam,91,"1243 Avenue U, Brooklyn",Avenue U,90
Da E Net,E and J Restaurant,86,"1223 Avenue U, Brooklyn",Avenue U,90
Taco Keto,Mister Taco Mexican Restaurant,86,"1702 Avenue U, Brooklyn",Avenue U,90
Wing Hing Seafood Restaurant,Wing Hing Seafood Restaurant,100,"1217 Avenue U, Brooklyn",1217 Avenue U,90
Fortuna,Fortuna,100,"1223 Avenue U, Brooklyn",Avenue U,90
金湷园酒家 JIN CUN YUAN RESTAURANT,Restaurant,90,"1232 Avenue U, Brooklyn",Avenue U,90
Oasis Cafe,Oasis Cafe,100,"2689 Coney Island Avenue, Brooklyn",brooklyn,90
Caspiy,Lucas Pizza,75,"1309 Avenue Z, Brooklyn",brooklyn,90
Halal food court,Halal Food,90,Brooklyn,brooklyn,100
Osaka Sushi Express,Umi Sushi,86,"1328 Sheepshead Bay Road #3920, Brooklyn",brooklyn,90
Romanoff,Romanoff Restaurant,90,"2670 Coney Island Avenue, Brooklyn",2670 Coney Island Ave,90
Bassett Caterers,Jonaki Caterers Restaurant (formerly Steve's Utica Jerk Center),86,"1404 Avenue X, Brooklyn",brooklyn,90
TETE-A-TETE,a taberna Portuguese restaurant,86,"2601 East 14th Street, Brooklyn",brooklyn,90
Foteh's Tandoori,Theresa's Polish American Restaurant,86,"2650 Coney Island Avenue, Brooklyn",brooklyn,90
La Bella Pizza,La Bella Pizza,100,"2650 Coney Island Avenue, Brooklyn",brooklyn,90
HABIBI MOROCCAN HALAL FOOD & SMOOTHIES,Halal Food,90,"2616 East 15th Street, Brooklyn",brooklyn,90
Yardies Jerk,Jerk-A-Rona Restaurant and Grill,86,"198-18 Linden Boulevard, Queens",147-18 Northern Blvd,86
Latty's Healthy Eaters,Theresa's Polish American Restaurant,86,"19910 Linden Boulevard, Jamaica",19625 Jamaica Ave,86
Sea Level Sea and Soul,Sea,90,"114-32 Farmers Boulevard, St. Albans",1100 60th St,86
Boulevard Fish & Chips,Fish,90,"113-33 Farmers Boulevard, Jamaica",196 23 Jamaica Avenue,86
Malibu Iguana,Li Li,86,"17826 Jamaica Avenue, Jamaica",17826 Jamaica Ave,90
Numidia halal food,Halal Food,90,"Hillside ave, 175th Street, Jamaica",Hillside Ave.,90
Benny's Pizza,Pizza Pizza,95,"175-63 Hillside Avenue, Jamaica",Hillside Avenue,90
Abuela Tamales,Abuela Antonia Mexican Restaurant,86,"175-21 88th Avenue, Jamaica",8th Ave.,90
BBQ Village,Korean BBQ Restaurant,86,"181-12 Hillside Avenue, Jamaica",Hillside Avenue,90
Roti Corner,Roti Corner Restaurant,90,"18018 Hillside Avenue, Jamaica",Hillside Avenue,90
Lin's Number One,Theresa's Polish American Restaurant,86,"17937 Hillside Avenue, Queens",17937 Hillside Ave,90
Golden Chicken,"Golden Forest Chinese Restaurant, Brooklyn Ny",86,"17944 Hillside Avenue, Jamaica",Hillside Avenue,90
Adana Turkish Grill,Golden Krust Caribbean Bakery and Grill,86,"178-25 Hillside Avenue, Jamaica",178-25 Hillside Ave,90
Omiya Sushi,Ginpachi Sushi Restaurant,86,"2317 Avenue U, Brooklyn",Avenue U,90
Sango Sushi,Ginpachi Sushi Restaurant,86,"1708 East 16th Street, Brooklyn",brooklyn,90
Jin,Jin Cheng Restaurant,90,"1708 East 16th Street, Brooklyn",brooklyn,90
Paraiso Azteca,Azteca,90,"1681 East 16th Street, Brooklyn",brooklyn,90
King's Pizza,King's Pizza,100,"1688 East 16th Street, Brooklyn",brooklyn,90
New Lan King,Lan King,90,"1690 East 16th Street, Brooklyn",brooklyn,90
Best Halal Gyro and Grill,Halal,90,"Corner Of East 16 Street And, Kings Highway, Brooklyn",brooklyn,90
Tacos Lino's,Theresa's Polish American Restaurant,86,"Kings Hwy & E 15 st, Brooklyn",brooklyn,90
Fruits-A-Plenty Inc,a taberna Portuguese restaurant,86,"1507 Kings Highway, Brooklyn",brooklyn,90
Perizia Kosher Pizza,Perizia Kosher Pizza,100,"1626 East 16th Street, Brooklyn",brooklyn,90
Yum Yummy,Yummy Yummy,95,"1624 East 16th Street, Brooklyn",brooklyn,90
Meraki Hummus & Juice,Smooth Taste Restaurant-Juice Bar,86,"1671-73A East 13th Street, Brooklyn",brooklyn,90
Pirosmani,Mangia,72,"2222 Avenue U, Brooklyn",Avenue U,90
Spiro's,Spiro's Food Truck,90,"2103 Avenue U, Brooklyn",2103 Avenue U,90
Simply Sweet | Raw & Vegan Desserts,Sweet Rice,86,"2106a Avenue U, Brooklyn",Avenue U,90
Gabby's,Gabby's Coffee Shop,90,"101 Ditmas Avenue, Brooklyn",brooklyn,90
Old Baku,Old Brooklyn Pizza Restaurant,86,"115 Ditmas Avenue, Brooklyn",brooklyn,90
Family Garden,New 888 Family Garden Restaurant,90,"111 Ditmas Avenue # A, Brooklyn",brooklyn,90
Corner Cafe,94 Corner Cafe,95,"2 Ditmas Avenue, Brooklyn",brooklyn,90
One Two Free Sushi,Number One Chinese Restaurant,86,"318 Cortelyou Road, Brooklyn",brooklyn,90
Randazzo Pizzeria,La Strada Pizzeria & Restaurant,86,"306 Ditmas Avenue, Brooklyn",306 Ditmas Ave,90
Ginger House Vegan,Hunan House Chinese Restaurant,86,"310 Ditmas Avenue, Brooklyn",310 Ditmas Ave,90
Tandir Kebab,Istanbul Restaurant Fish & Kebab,86,"312 Ditmas Avenue, Brooklyn",brooklyn,90
Cafe Samarkand,Stars Cafe & Restaurant,86,"413 Cortelyou Road, Brooklyn",brooklyn,90
Golden Stars,Golden Star,96,"4303 16th Avenue, Brooklyn",4303 16th Ave,90
David’s Pizzeria & Restaurant,Pizzeria & Restaurant,95,"418 Ditmas Avenue, Brooklyn",brooklyn,90
Taj Kebab,Istanbul Restaurant Fish & Kebab,86,"414 Ditmas Avenue, Brooklyn",414 Ditmas Ave,90
Emir Palace,China palace chinese restaurant,86,"4210 18th Avenue, Brooklyn",18th Avenue,90
465 ocean parkwy,C&L Of East Ocean Restaurant,86,"465 Ocean Parkway Service Road, Brooklyn",brooklyn,90
Mashallah Sweets and Restaurant,Mashallah,90,"663 Coney Island Avenue, Brooklyn",663 Coney Island Ave,90
Mashallah Halal Restaurant,Mashallah,90,"663 Coney Island Avenue, Brooklyn",663 Coney Island Ave,90
Shandar,Shandar Sweet & Restaurant,90,"679 Coney Island Avenue, Brooklyn",679 Coney Island Ave,90
Hadi Restaurant,Hadi Restaurant,100,"683 Coney Island Avenue, Brooklyn",683 Coney Island Ave,90
Punjab Restaurant,Raj Sohna Punjab Restaurant,90,"691 Coney Island Avenue, Brooklyn",brooklyn,90
Andrew’s Classic BKLYN Luncheonette,Moti's,86,"1017 Cortelyou Road, Brooklyn",brooklyn,90
The Castello Plan,The Golden Glass Restaurant,86,"1213 Cortelyou Road, Brooklyn",brooklyn,90
Pizza Central of Brooklyn,Pizza Central of Brooklyn,100,"941 McDonald Avenue, Brooklyn",941 McDonald Ave,90
China Dragon,China Dragon Restaurant,90,"4320 18th Avenue, Brooklyn",18th Avenue,90
Chapimex Deli,Chapimex Deli,100,"943 McDonald Avenue, Brooklyn",brooklyn,90
Trini Breakfast Shed,Wimpsy's Restaurant Coffee Shop: Breakfast Lunch Dinner,86,"3209 Church Avenue, Brooklyn",3209 Church Ave,90
AZ Deli,AZ Deli,100,"3301 Church Avenue, Brooklyn",brooklyn,90
Flame Gyro,"Airways Pizza, Gyro & Restaurant",86,"2701 Church Avenue, Brooklyn",brooklyn,90
Rantab Restaurant,Restaurant,90,"2602 Church Avenue, Brooklyn",brooklyn,90
Sip N Chat Cocktail Lounge,All Refrigeration 'N Restaurant Equipment,86,"2910 Avenue D, Brooklyn",brooklyn,90
Step On Top,Top Class Restaurant,86,"2810 Avenue D, Brooklyn",brooklyn,90
Pizzadilla and Wings,Pizza,90,"1845 Nostrand Avenue, Brooklyn",Nostrand Avenue,90
Fresh & Delicious,Deli,90,"1877 Nostrand Avenue, Brooklyn",Nostrand Avenue,90
C & C,C & C Restaurant,90,"1183 Rogers Avenue, Brooklyn",1183 Rogers Ave,90
Lee's Resturant & Bakery,Lee's,90,"1211 Rogers Avenue, Brooklyn",brooklyn,90
R&S Caribbean,Bea,90,"1214 Rogers Avenue, Brooklyn",brooklyn,90
Gobo,Bobo,75,"2620 Avenue D, Brooklyn",brooklyn,90
Orin & Camila Roti Shop,Webster Coffee Shop Prestige Restaurant,86,"1214 Rogers Avenue, Brooklyn",brooklyn,90
Yo Yo Fritaille,Kay Manmanm Restaurant and Fritaille,86,"1758 Nostrand Avenue, Brooklyn",Nostrand Avenue,90
Flava II,FLAVA II  RESTAURANT AND BAKERY,90,"1914 Nostrand Avenue, Brooklyn",Nostrand Avenue,90
Big New York Fried Chicken and Pizza,New York Fried Chicken & Pizza,95,"1922 Nostrand Avenue, Brooklyn",Nostrand Avenue,90
Kenny's Roaster,Theresa's Polish American Restaurant,86,"1924 Nostrand Avenue, Brooklyn",Nostrand Avenue,90
Chez Macul,S'MAC,72,"1115 Rogers Avenue, Brooklyn",brooklyn,90
Football Restaurant & Bakery,Restaurant,90,"1727 Nostrand Avenue, Brooklyn",1727 Nostrand Ave,90
Thanks Giving,lending a helping hand at tge church giving out food to the needy,86,"1736 Nostrand Avenue, Brooklyn",Nostrand Avenue,90
Combite Creole,Kween Creole Restaurant,86,"1728 Nostrand Avenue, Brooklyn",Nostrand Avenue,90
God Bless,The New Understanding Church (God's Deliverance Temple),86,"1709 Nostrand Avenue, Brooklyn",Nostrand Avenue,90
THE LOFT BKNY,The Loft BKNY Restaurant & Lounge,90,"1712 Nostrand Avenue, Brooklyn",Nostrand Avenue,90
Yaya's Pizzeria,La Strada Pizzeria & Restaurant,86,"1675 Nostrand Avenue, Brooklyn",Nostrand Avenue,90
Footprints Cafe Express,Print,90,"1377 Flatbush Avenue, Brooklyn",Flatbush ave,90
Centro Deportivo/Club ManoGuayabo,Club Deli Restaurant,86,"870 East 162nd Street, The Bronx",Street,90
Don Chile,Don Pepe Restaurant,86,"801 Southern Boulevard, The Bronx",901 Southern Blvd,86
Nanny's Room,Theresa's Polish American Restaurant,86,"849 Bruckner Boulevard, The Bronx",729 Bruckner Blvd,86
Empanadas RD,Foodtown White Plains Rd,86,"854 Southern Boulevard, The Bronx",901 Southern Blvd,86
Milly's Corner,Theresa's Polish American Restaurant,86,"1129 Longwood Avenue, The Bronx",311 Avenue X,86
Chilo's - Taco Truck and Bar,Moti's,86,"323 Franklin Avenue, Brooklyn",brooklyn,90
Nice Pizza,Nice Pizza,100,"340 Franklin Avenue, Brooklyn",brooklyn,90
Nyammings Caribbean Restaurant,Caribbean Restaurant,90,"355 Franklin Avenue, Brooklyn",brooklyn,90
Hong Kong Cafe,Hong Kong,90,"357 Franklin Avenue, Brooklyn",brooklyn,90
Kings of N.Y.C. Slice,All Refrigeration 'N Restaurant Equipment,86,"486 Dekalb Avenue, Brooklyn",brooklyn,90
Punta Cana,Punta Cana Restaurant,90,"490 Dekalb Avenue, Brooklyn",brooklyn,90
Black Swan,Black Barn Restaurant,86,"1048 Bedford Avenue, Brooklyn",brooklyn,90
Fancy Nancy,Nancy's Resturant,86,"1038 Bedford Avenue, Brooklyn",brooklyn,90
Dosa Royale,"Royale Gourmet Deli, Inc.",86,"258 Dekalb Avenue, Brooklyn",brooklyn,90
The Great Georgiana,The Loft BKNY Restaurant & Lounge,86,"248 Dekalb Avenue, Brooklyn",brooklyn,90
Brooklyn Public House,Public House,90,"247 Dekalb Avenue, Brooklyn",brooklyn,90
Mega Bites,Mega Food Market,86,"245 Dekalb Avenue, Brooklyn",brooklyn,90
Roman's,Roman’s,100,"243 Dekalb Avenue, Brooklyn",243 Dekalb Ave,90
Fan Fried Rice Bar,Bar Sol De Quito Restaurant II,86,"525 Dekalb Avenue, Brooklyn",brooklyn,90
Colador Cafe,Stars Cafe & Restaurant,86,"1000 Bedford Avenue, Brooklyn",brooklyn,90
Brain Food,Brain Food Kitchen,90,"967 Bedford Avenue, Brooklyn",brooklyn,90
Moishe's Place,Theresa's Polish American Restaurant,86,"868 Bedford Avenue, Brooklyn",brooklyn,90
Coffee Break,Coffee Break,100,"683A Myrtle Avenue, Brooklyn",brooklyn,90
Cheskys deli,Deli,90,"700 Myrtle Avenue, Brooklyn",brooklyn,90
La Placita Oxaqueña,La Strada Pizzeria & Restaurant,86,"709 Myrtle Avenue, Brooklyn",brooklyn,90
Locanda Vini & Olii,Oceana,75,"129 Gates Avenue, Brooklyn",brooklyn,90
Brooklyn Shawarma,"Golden Forest Chinese Restaurant, Brooklyn Ny",86,"1001 Fulton Street, Brooklyn",Fulton,90
Buka,Buka Nigerian Restaurant,90,"946 Fulton Street, Brooklyn",946 Fulton St,90
Bed-Stuy Fish Fry,Fish,90,"940 Fulton Street, Brooklyn",Fulton,90
Otway,Ota-Ya Japanese Restaurant,72,"930 Fulton Street, Brooklyn",Fulton,90
B'KLYN BURRO,C B Finger Licking Jamaican and West Indian Restaurant,86,"922 Fulton Street, Brooklyn",Fulton,90
Star Deli & Grill,Star Deli & Grill,100,"10632 Sutphin Boulevard, Queens",Sutphin,90
Country Life Jerk,Jerk-A-Rona Restaurant and Grill,86,"147-12 Tuskegee Airmen Way, Jamaica",147-18 Northern Blvd,86
Bamboo Garden,Bamboo Garden,100,"14610 Liberty Avenue, Jamaica",Liberty ave,90
Carmine's,Carmine’s Italian Restaurant,90,"146-46 Liberty Avenue, Jamaica",146-46 Liberty Ave,90
Jouvay Night Club,Uva,90,"147-02 Liberty Avenue, Jamaica",Liberty ave,90
New York Fried Chicken,New York Fried Chicken & Pizza,95,"147-1 Liberty Avenue, Queens",Liberty ave,90
Shake n Burger,All Refrigeration 'N Restaurant Equipment,86,"147-01 Liberty Avenue, Jamaica",Liberty ave,90
Little Anthony's,Little Bandgladesh Restaurant,86,"15019 Liberty Avenue, Jamaica",Liberty ave,90
Latino Coffee and Pizza,Pizza,90,"150-19 Liberty Avenue, Jamaica",Liberty ave,90
Zhang's Garden,Theresa's Polish American Restaurant,86,"175-25 Jamaica Avenue, Jamaica",Jamaica ave,90
Caribbean Roti Express,Bea,90,"173-21 Jamaica Avenue, Jamaica",217-21 Jamaica Avenue,90
TAQUERIA LAS CHELAS,Mi Barrio Taqueria Restaurant,86,"170 09 Jamaica Avenue, Jamaica",Jamaica ave,90
Berbice,The Blessed Kitchen Experience,64,"173-06 Jamaica Avenue, Jamaica",Jamaica ave,90
Happy Family,Happy Family Restaurant,90,"17111 Jamaica Avenue, Jamaica",17111 Jamaica Ave,90
Sea Shore,Sea Shore Restaurant & Marina,90,"591 City Island Avenue, The Bronx",591 City Island Ave,90
City Island Lobster House,Lobster Box,86,"691 Bridge Street, The Bronx",Street,90
JP's,Moti's,86,"703 Minnieford Avenue, The Bronx",196 23 Jamaica Avenue,86
Chikurin,Chikurin Japanese Restaurant,90,"1777 Ocean Avenue, Brooklyn",1777 Ocean Ave,90
Pescada,Esca,90,"1776 Ocean Avenue, Brooklyn",brooklyn,90
Uman Pizza,Uman Pizza,100,"1919 Avenue M, Brooklyn",brooklyn,90
The New Pizza Professor Brooklyn,The New Pizza Professor,95,"1824 Avenue M, Brooklyn",brooklyn,90
Bronzini Sushi Cafe,Cafe 47,86,"1815 Avenue M, Brooklyn",5 ave,90
Sushi King,King Chinese Restaurant,86,"992 East 15th Street, Brooklyn",brooklyn,90
Kam Shing,Kam Sing,94,"1608 Avenue H, Brooklyn",1608 Avenue H,90
Truffle Craft Burgers & Grill,Craft,90,"1519 Avenue J, Brooklyn",brooklyn,90
Di Fara Pizza,Di Fara Pizza,100,"1424 Avenue J, Brooklyn",brooklyn,90
Benny's Brick Oven Pizza,Benny's Brick Oven Pizza,100,"1418 Avenue J, Brooklyn",brooklyn,90
MD Kitchen,Halal Chinese Kitchen,86,"1012 East 15th Street A, Brooklyn",brooklyn,90
Bonaptit,Bon Appetit,84,"1568 Coney Island Avenue, Brooklyn",brooklyn,90
Bon Appetit,Bon Appetit,100,"1568 Coney Island Avenue, Brooklyn",brooklyn,90
El Sancho,El Morro Restaurant & Bar,86,"142 Avenue U, Brooklyn",Avenue U,90
Paraiso,El Paraiso,95,"158 Avenue U, Brooklyn",Avenue U,90
Living Room,Living Room Lounge,90,"178 Avenue U, Brooklyn",Avenue U,90
N & D Pizza West 9,Pizza,90,"107 Avenue U, Brooklyn",107 Avenue U,90
Vinny's Lunchbox,Theresa's Polish American Restaurant,86,"171 Avenue U, Brooklyn",Avenue U,90
Grand Fortune,564 Grand Restaurant,86,"202 Avenue U, Brooklyn",Avenue U,90
Parkview Diner,Diner,90,"2939 Cropsey Avenue, Brooklyn",brooklyn,90
Benson Eating Station,Food Station,86,"2435 86th Street, Brooklyn",brooklyn,90
Wasabi Sushi,Wasabi,90,"2375 86th Street, Brooklyn",brooklyn,90
El Gallo Taqueria,Mi Barrio Taqueria Restaurant,86,"214 Highlawn Avenue, Brooklyn",214 Highlawn Ave,90
Avocados Mexican Grill Restaurant,Restaurant,90,"428 Kings Highway, Brooklyn",brooklyn,90
Emerald Fortune,Fortune Seafood Restaurant,86,"318 Kings Highway, Brooklyn",brooklyn,90
Knapp Pizza III,Knapp Pizza III,100,"427 Kings Highway, Brooklyn",brooklyn,90
Italia Pizza,Italia Pizza,100,"307 Kings Highway, Brooklyn",brooklyn,90
Chorsu Samarkanda,Marea,72,"461 Kings Highway, Brooklyn",brooklyn,90
Tacos López 2,Tacos Lopez 2,96,"465 Kings Highway, Brooklyn",brooklyn,90
El Cerrito del Carmen,El Mexicano,86,"2024 McDonald Avenue, Brooklyn",brooklyn,90
Devine Bakery Pizzeria,bakery,90,"1999 McDonald Avenue, Brooklyn",brooklyn,90
Organic Juice Bar & Grill,Golden Krust Caribbean Bakery and Grill,86,"484 Kings Highway, Brooklyn",brooklyn,90
Golden Palace Kitchen,"Golden Forest Chinese Restaurant, Brooklyn Ny",86,"486 Kings Highway, Brooklyn",brooklyn,90
Lucy's Pizza & Restaurant,Rudy's Pizza & Restaurant,92,"488 Kings Highway, Brooklyn",brooklyn,90
Mama Mia Pizza,Mamma Mia Pizza,97,"2337 Bath Avenue, Brooklyn",2337 Bath Ave,90
New Taste To Go,Taste,90,"2310 86th Street, Brooklyn",brooklyn,90
Nyonya,Nyonya,100,"2322 86th Street, Brooklyn",brooklyn,90
KOREA BLACK SUSHI,Umi Sushi,86,"2332 86th Street, Brooklyn",2332 86th St,90
Gshmak Bakery and Cafe,Gshmak Bakery and Cafe,100,"164 Wallabout Street, Brooklyn",brooklyn,90
Brooklyn Bagel,Brooklyn Bagel & Coffee Co.,90,"7 Heyward Street, Brooklyn",brooklyn,90
Klein's Kosher,Theresa's Polish American Restaurant,86,"595 Bedford Avenue, Brooklyn",brooklyn,90
Charlie's Corner,Theresa's Polish American Restaurant,86,"537 Park Avenue, Brooklyn",brooklyn,90
Flaum's Appetizing,Theresa's Polish American Restaurant,86,"40 Lee Avenue, Brooklyn",brooklyn,90
Panini Le Cafe,Stars Cafe & Restaurant,86,"45 Lee Avenue, Brooklyn",brooklyn,90
Gottlieb's Restaurant,Gottlieb's Restaurant,100,"352 Roebling Street, Brooklyn",352 Roebling St,90
Levy's Delicious Food Glatt Kosher,Y&S Deli,90,"147 Division Avenue, Brooklyn",brooklyn,90
Smiling Herbs Inc,Sunshine Restaurant Food & Catering Inc,86,"152 South 9th Street, Brooklyn",brooklyn,90
Roebling Pizza,Roebling Pizza,100,"326 Roebling Street, Brooklyn",brooklyn,90
Aden Deli & Fried Chicken,Deli,90,"282 Broadway, Brooklyn",brooklyn,90
El Emperador Elias,El Emperador Elias,100,"274 Broadway, Brooklyn",274 Broadway,90
Fortune Place,Fortune Seafood Restaurant,86,"286 Broadway, Brooklyn",brooklyn,90
Pizza Supreme,Pizza Supreme,100,"297 Broadway, Brooklyn",297 Broadway,90
99¢ Supreme Pizza,Pizza Supreme,95,"297 Broadway, Brooklyn",297 Broadway,90
Sabrina's,Sabrina's Pizzeria,90,"294 Broadway, Brooklyn",294 Broadway,90
Shalom Japan,Shalom's Restaurant,86,"310 South 4th Street, Brooklyn",brooklyn,90
Coffee Break Bedford,Coffee Break Bedford,100,"419 Bedford Avenue, Brooklyn",brooklyn,90
Barano,"PASSION Cafe, Lounge, Bar and Restaurant",75,"26 Broadway, Brooklyn",brooklyn,90
Marlow & Sons,Phil & Sons Pizzeria & Restaurant,86,"81 Broadway, Brooklyn",brooklyn,90
Diner,Diner,100,"85 Broadway, Brooklyn",85 Broadway,90
Patrizia's of Williamsburg,Moti's,86,"35 Broadway, Brooklyn",brooklyn,90
Donna,Primadonna Restaurant,90,"27 Broadway, Brooklyn",brooklyn,90
Giando on the Water,620 on Caton Pizzeria and Restaurant,86,"400 Kent Avenue, Brooklyn",brooklyn,90
Chez Pedro,Pedro's,79,"440 Wythe Avenue, Brooklyn",brooklyn,90
Blank Cafe,Stars Cafe & Restaurant,86,"25 Broadway, Brooklyn",brooklyn,90
Loosie's Kitchen,Theresa's Polish American Restaurant,86,"91A South 6th Street, Brooklyn",brooklyn,90
Peter Luger Steak House,Tokyo Steak,86,"178 Broadway, Brooklyn",brooklyn,90
Anaiah,Anaiah’s Seafood Restaurant,90,"744 Myrtle Avenue, Brooklyn",744 Myrtle Ave,90
750 Myrtle Diner,Diner,90,"750 Myrtle Avenue, Brooklyn",brooklyn,90
2 Baci Pizzeria,La Strada Pizzeria & Restaurant,86,"345 A Nostrand Avenue, Brooklyn",Nostrand Avenue,90
Crown Halal Chicken & Pizza,Crown Halal Chicken and Pizza,95,"357 Nostrand Avenue, Brooklyn",Nostrand Avenue,90
JA Rasta Pasta and Seafood City,Seafood City,90,"402 Nostrand Avenue, Brooklyn",Nostrand Avenue,90
Hings Kwok,Hings Kwok,100,"323 Nostrand Avenue, Brooklyn",Nostrand Avenue,90
Madame Poupon,Maya,68,"387A Nostrand Avenue, Brooklyn",Nostrand Avenue,90
King of the Sea,Sea,90,"1102 Bedford Avenue, Brooklyn",brooklyn,90
Golden Hing,Golden Hing,100,"1082 Bedford Avenue # 1, Brooklyn",1082 Bedford Ave,90
Home Frite,Belky's Home Style Cooking Restaurant,86,"1047 Bedford Avenue, Brooklyn",brooklyn,90
Pilar Cuban Eatery,Pilar Cuban Eatery,100,"1074 Bedford Avenue, Brooklyn",brooklyn,90
Joloff,Joloff Restaurant 2,90,"1168 Bedford Avenue #1617, Brooklyn",1168 Bedford Ave,90
Bombay Grill,Golden Krust Caribbean Bakery and Grill,86,"1176 Bedford Avenue, Brooklyn",brooklyn,90
Bombay Heights,Bombay's Indian Restaurant,86,"1070 Bedford Avenue, Brooklyn",brooklyn,90
Napoleon’s Southern Cuisine and Bakery,bakery,90,"1180 Bedford Avenue, Brooklyn",brooklyn,90
Seven,Seven Stars Chinese Restaurant,90,"470 Nostrand Avenue, Brooklyn",Nostrand Avenue,90
Swell Dive,ALDI,68,"1013 Bedford Avenue, Brooklyn",brooklyn,90
No. 1Chinese & Japanese restaurant,Restaurant,90,"1011 Bedford Avenue, Brooklyn",1011 Bedford Ave,90
New No. 1,New No. 1 Chinese Restaurant,90,"1011 Bedford Avenue, Brooklyn",1011 Bedford Ave,90
Sushi Tatsu,Ginpachi Sushi Restaurant,86,"1185 Bedford Avenue, Brooklyn",brooklyn,90
Beds Thai,Mekong Thai & Vietnamese Restaurant,86,"1185 Bedford Avenue, Brooklyn",brooklyn,90
Corner Grind Coffee Kitchen,Coffee,90,"1183 Bedford Avenue, Brooklyn",brooklyn,90
Sun-Sing Restaurant,Sun Hing Restaurant,95,"299 Marcus Garvey Boulevard, Brooklyn",brooklyn,90
Kum Wah,Kum Wah Restaurant,90,"208 Lewis Avenue, Brooklyn",208 Lewis Ave,90
Jag Deli & Grill,Deli & Grill,95,"158 Lewis Avenue, Brooklyn",brooklyn,90
Boca Santa,New Santa Ana Restaurant,86,"480 Madison Street, Brooklyn",Madison St,90
maya congee cafe and chinatown,Maya,90,"563 Gates Avenue, Brooklyn",brooklyn,90
Bravi Ragazzi Brooklyn - Pizza & Bar,Pizza,90,"570 Putnam Avenue, Brooklyn",brooklyn,90
King Food,New Food King,95,"127 Malcolm X Boulevard, Brooklyn",brooklyn,90
Ho Mei,Ho Mei - Chinese Food,90,"222 Malcolm X Boulevard, Brooklyn",brooklyn,90
Soldier,Original's Soldier Jamaican Restaurant,90,"98 Malcolm X Boulevard, Brooklyn",brooklyn,90
Jerk Center,Soldier Jerk Center and Restaurant,90,"98 Malcolm X Boulevard, Brooklyn",brooklyn,90
L'Antagoniste,C&L Of East Ocean Restaurant,86,"238 Malcolm X Boulevard, Brooklyn",brooklyn,90
MadhiFood,iFood,90,"620 Monroe Street, Brooklyn",brooklyn,90
Peri Peri Grill House,Golden Krust Caribbean Bakery and Grill,86,"235 Malcolm X Boulevard, Brooklyn",brooklyn,90
Grandchamps,Agra,68,"197 Patchen Avenue, Brooklyn",brooklyn,90
Sal’s Pizzeria,Sal's Pizzeria,100,"Lexington Ave &, Stuyvesant Avenue, Brooklyn",brooklyn,90
Madison Food Market,Food market,90,"613 Madison Street, Brooklyn",Madison St,90
Fat Doughnut,Fat Cheng Restaurant,86,"50 Malcolm X Boulevard, Brooklyn",brooklyn,90
Xcellent Soul Food,Xcellent Soul Food,100,"372 Ralph Avenue, Brooklyn",brooklyn,90
Paphos Diner,Diner,90,"2501 Fulton Street, Brooklyn",Fulton,90
Burger Urway Express,Fresh Tortillas (Tex-Mex Express) & Japanese Restaurant,86,"1846 East New York Avenue, Brooklyn",New York,90
Enterando,Soldier Jerk Center and Restaurant,80,"2565 Atlantic Avenue, Brooklyn",brooklyn,90
BKLYN eats.....where East New York eats,East New York,90,"2592 Atlantic Avenue, Brooklyn",brooklyn,90
Jim Bu,Sho Bu Restaurant,86,"49 Mother Gaston Boulevard, Brooklyn",brooklyn,90
Max's Deli,Max's Deli,100,"2623 Atlantic Avenue, Brooklyn",brooklyn,90
Wah Sing,Sing Wah Sing,90,"143 Rockaway Avenue, Brooklyn",143 Rockaway Ave,90
Simmer Down Restaurant & Bakery,Restaurant,90,"1290 Herkimer Street, Brooklyn",brooklyn,90
Finger Lick'n,All Refrigeration 'N Restaurant Equipment,86,"133 Rockaway Avenue, Brooklyn",133 Rockaway Ave,90
Jay's,Jazzy Jay's Restaurant,90,"133 Rockaway Avenue, Brooklyn",133 Rockaway Ave,90
Super Convenience Deli & Grocery,Convenience Deli & Grocery,95,"1525 East New York Avenue, Brooklyn",New York,90
Abuela Antonia Mexican Restaurant,Abuela Antonia Mexican Restaurant,100,"225 Rockaway Avenue, Brooklyn",225 Rockaway Ave,90
Soulful Foods,Eisenberger's Health Foods,86,"185 Rockaway Avenue, Brooklyn",brooklyn,90
The Green Place,The Golden Glass Restaurant,86,"180 Rockaway Avenue, Brooklyn",brooklyn,90
Brooklyn Pizzeria & Kennedy Chicken,Brooklyn Pizzeria,90,"1364 Sterling Place, Brooklyn",brooklyn,90
Marcys House Food,Hunan House Chinese Restaurant,86,"1250 Park Place, Brooklyn",brooklyn,90
PJ,PJ Restaurant & Bakery,60,"1339 Saint Johns Place, Brooklyn",1339 Saint Johns Pl,90
King's Wok Kitchen,KING'S WOK,90,"261 Troy Avenue, Brooklyn",Troy Ave,90
Yangtze River,Milk River Restaurant,86,"1394 Saint Johns Place, Brooklyn",brooklyn,90
Mandela,Mi Candela,82,"267 Troy Avenue, Brooklyn",Troy Ave,90
Compton’s,Theresa's Polish American Restaurant,86,"172 Utica Avenue, Brooklyn",brooklyn,90
Kansas Chicken & Burger,GO Burger Truck,86,"263 Schenectady Avenue, Brooklyn",brooklyn,90
P&C,Top Class Restaurant,90,"191 Utica Avenue, Brooklyn",191 Utica Ave,90
Vibez Palate,East Palate Restaurant,86,"197 Utica Avenue, Brooklyn",197 Utica Ave,90
Tony's pizza,Tony's Pizza,100,"1412 Saint Johns Place, Brooklyn",brooklyn,90
Tamra Teahouse,Bushbaby Coffee & Teahouse,86,"1524 Bergen Street, Brooklyn",brooklyn,90
Texas Fried Chicken & Pizza,Texas Fried Chicken & Pizza,100,"240 Utica Avenue, Brooklyn",brooklyn,90
Indian Masala,Rajdhani Indian Restaurant,86,"1174 Saint Marks Avenue, Brooklyn",brooklyn,90
Special Deli & Grill,Deli,90,"360 Malcolm X Boulevard, Brooklyn",brooklyn,90
New Sin Lee,New Fulin Kwok Seafood Restaurant,86,"301 Malcolm X Boulevard, Brooklyn",brooklyn,90
Krazy Chicken & Pizza,Krazy Chicken & Pizza,100,"299 Malcolm X Boulevard, Brooklyn",brooklyn,90
Magic Soul Food,Magic Soul Food,100,"320 Malcolm X Boulevard, Brooklyn",brooklyn,90
Chez Oskar,Kar,90,"310 Malcolm X Boulevard, Brooklyn",brooklyn,90
Sergio's Pizza,Sergio's Pizza,100,"279 Malcolm X Boulevard, Brooklyn",brooklyn,90
Kiwi Food Market,Kiwi Food Market,100,"1741 Fulton Street, Brooklyn",Fulton,90
Kwikees Cuisine,Annie Chan's Japanese Cuisine Restaurant,86,"78 Utica Avenue, Brooklyn",brooklyn,90
New Sunny,New Fulin Kwok Seafood Restaurant,86,"69 Utica Avenue, Brooklyn",69 Utica Ave,90
Irie Caribbean Kitchen & Bakery,Irie Caribbean Kitchen & Bakery,100,"126 Utica Avenue, Brooklyn",brooklyn,90
Bed-Stuy Fish Fry,Fish,90,"827 Nostrand Avenue, Brooklyn",Nostrand Avenue,90
Tony's,Tony's Pier Restaurant,90,"850 Nostrand Avenue, Brooklyn",Nostrand Avenue,90
Brooklyn Wing House,"Golden Forest Chinese Restaurant, Brooklyn Ny",86,"1218 Union Street, Brooklyn",brooklyn,90
Crown Fried Chicken & Coffee Shop,Crown Fried Chicken& Coffee Shop,98,"818 Nostrand Avenue, Brooklyn",Nostrand Avenue,90
K&S Supermarket,Theresa's Polish American Restaurant,86,"237 Rogers Avenue, Brooklyn",brooklyn,90
Lula Bird,Golden Bird Chinese Food,86,"814 Nostrand Avenue, Brooklyn",Nostrand Avenue,90
Cocks,Cocks Restaurant,90,"806 Nostrand Avenue, Brooklyn",Nostrand Avenue,90
Karibbean Green,Kar,90,"804 Nostrand Avenue, Brooklyn",Nostrand Avenue,90
Great Flavor Catering,Caribbean Flavor & American Restaurant,86,"426 Eastern Parkway, Brooklyn",brooklyn,90
Trinidad Golden Place,"Golden Forest Chinese Restaurant, Brooklyn Ny",86,"788 Nostrand Avenue, Brooklyn",Nostrand Avenue,90
A Tapp Creation,a taberna Portuguese restaurant,86,"781 Eastern Parkway, Brooklyn",brooklyn,90
Sushi Bleu @ The Marketplace,Umi Sushi,86,"589 East New York Avenue, Brooklyn",New York,90
BOEUF & BUN,Golden Bun Bakery,86,"271 Kingston Avenue, Brooklyn",brooklyn,90
Izzy's Fried Chicken,Pizza Fried Chicken,87,"262 Kingston Avenue, Brooklyn",brooklyn,90
Ital Kitchen,Halal Chinese Kitchen,86,"1032 Union Street, Brooklyn",1032 Union St,90
FRANKLIN820,Li Li,86,"820 Franklin Avenue, Brooklyn",brooklyn,90
Sal's,Sal's Restaurant,90,"810 Franklin Avenue, Brooklyn",810 Franklin Ave,90
Wise deli & grill,Wise Deli & Grill,100,"821 Franklin Avenue, Brooklyn",brooklyn,90
Frenchy's Food Truck,Food Truck,90,"333 Eastern Parkway, Brooklyn",brooklyn,90
El Barrio Burritos,Mi Barrio Taqueria Restaurant,86,"796A Franklin Avenue, Brooklyn",brooklyn,90
Aita Trattoria,Maria's Trattoria Restaurant,86,"798A Franklin Avenue, Brooklyn",brooklyn,90
mcking gourmet deli,King Gourmet Deli,94,"790 Franklin Avenue, Brooklyn",brooklyn,90
Falafel Spot,Benny's Kosher Pizza Falafel & Dairy Restaurant,86,"6002 Foster Avenue, Brooklyn",brooklyn,90
StephLova's Cafe,Theresa's Polish American Restaurant,86,"952 Utica Avenue, Brooklyn",brooklyn,90
Jumbo House,Hunan House Chinese Restaurant,86,"942 Utica Avenue, Brooklyn",brooklyn,90
China Restaurant,China Restaurant,100,"937 Utica Avenue, Brooklyn",937 Utica Ave,90
Caribbean Jerkee's Delight Restaurant,Caribbean Jerkee's Delight,95,"Utica Ave & Snyder Ave, Brooklyn",brooklyn,90
P & S,Theresa's Polish American Restaurant,86,"917 Utica Avenue # A, Brooklyn",917 Utica Ave,90
Upper Dem Express,Cam Tak Express Restaurant,86,"915 Utica Avenue, Brooklyn",brooklyn,90
Carib Blends Kitchen,Chang Jiang Kitchen Chinese Restaurant,86,"915 Utica Avenue, Brooklyn",brooklyn,90
Chick Hut,Tropical Hut Restaurant,86,"986 Rutland Road, Brooklyn",Rutland Road,90
New Golden Billion,New Fulin Kwok Seafood Restaurant,86,"976 Rutland Road, Brooklyn",Rutland Road,90
JFK Fried Chicken,JFK Fried Chicken & Pizza,95,"986 Rutland Road, Brooklyn",Rutland Road,90
Jamrock,Jamrock Jamaican Restaurant,90,"1009 Rutland Road, Brooklyn",Rutland Road,90
Bolas Garden,Garden 13 Dairy Restaurant and Pizza,86,"218 Remsen Avenue, Brooklyn",Remsen Avenue,90
Kam Long Kitchen,Kam Luang Kitchen,91,"1031 Rutland Road, Brooklyn",Rutland Road,90
China Moon,China Moon,100,"1068 Rutland Road, Brooklyn",Rutland Road,90
Richness,Richness Restaurant,90,"1063 Rutland Road, Brooklyn",Rutland Road,90
Trini Roti House,Hunan House Chinese Restaurant,86,"1065 Rutland Road, Brooklyn",Rutland Road,90
Catch,Something Catchy Seafood Restaurant,90,"9007 Avenue A, Brooklyn",7 Avenue A,90
Trini Girls Kitchen,Chang Jiang Kitchen Chinese Restaurant,86,"560 Remsen Avenue, Brooklyn",Remsen Avenue,90
Mc Donald's on church ave,Moti's,86,"5707 Church Avenue, Brooklyn",brooklyn,90
Funcity,Unity Coffee Shop,66,"5602 Church Avenue, Brooklyn",5602 Church Ave,90
Shashemane International Restaurant,International Restaurant,95,"195 East 56th Street, Brooklyn",brooklyn,90
Da Spot Restaurant,Restaurant,90,"214 East 55th Street, Brooklyn",brooklyn,90
Klassix Restaurant & Bar,Restaurant,90,"5419 Church Avenue, Brooklyn",brooklyn,90
Palooza Flava,FLAVA II  RESTAURANT AND BAKERY,86,"5419 Church Avenue, Brooklyn",brooklyn,90
Linda's,Linda's Restaurant,90,"5322 Church Avenue, Brooklyn",brooklyn,90
Bon Taste,Taste,90,"5302 Church Avenue, Brooklyn",5302 Church Ave,90
L'exotique,C&L Of East Ocean Restaurant,86,"5302 Church Avenue, Brooklyn",5302 Church Ave,90
Island Pride,Island Pride,100,"5403 Church Avenue, Brooklyn",403 Church Ave,90
Hong Kuang Huang,Shun Hong Chinese Restaurant,86,"5226 Church Avenue, Brooklyn",5226 Church Ave,90
Nanni,Don Giovanni Ristorante,72,"5222 Church Avenue, Brooklyn",brooklyn,90
New Hong Kong,Hong Kong,95,"310 East 53rd Street, Brooklyn",brooklyn,90
Blue Ocean,Blue Ocean,100,"5024 Church Avenue, Brooklyn",brooklyn,90
Bronx Soul Food,famous restaurant Chinese food,86,"1306 East Gun Hill Road, The Bronx",823 East 169th Street,86
Your Daley Bread,Center of Hope International Bread of Life Food Bank,86,"1301 East Gun Hill Road, The Bronx",823 East 169th Street,86
Vybes Kitchen,Halal Chinese Kitchen,86,"1296 East Gun Hill Road, The Bronx",1296 Nostrand Ave,86
K & P Jerk And Catering Restaurant,Restaurant,90,"1236 East Gun Hill Road, The Bronx",823 East 169th Street,86
Hot Wok,Wok Wok,95,"1877 Rockaway Parkway, Brooklyn",brooklyn,90
B. Place,C B Finger Licking Jamaican and West Indian Restaurant,86,"2016 Nostrand Avenue, Brooklyn",Nostrand Avenue,90
Nostrand Market Corp,Nostrand Food Market Corp,95,"2022 Nostrand Avenue, Brooklyn",Nostrand Avenue,90
Samuels Top Ranking Fish Shop,Fish,90,"3315 Church Avenue, Brooklyn",brooklyn,90
Dana Caribbean Cuisine,Bea,90,"2026 Nostrand Avenue, Brooklyn",Nostrand Avenue,90
Caribbean Top Grill,Bea,90,"2077 Nostrand Avenue, Brooklyn",Nostrand Avenue,90
Ital Fusion,Taipan Fusion Restaurant and Hookah Lounge,86,"2085 Nostrand Avenue, Brooklyn",Nostrand Avenue,90
Island Burger,Mike's Island Grill Restaurant,86,"2093 Nostrand Avenue, Brooklyn",Nostrand Avenue,90
Roti R Us,J and R Bakery and Restaurant,86,"1493 Albany Avenue, Brooklyn",brooklyn,90
2 Dogz 2 Go,Oliva Paraiso Restaurant No 2,86,"4102 Farragut Road, Brooklyn",brooklyn,90
Genao,Genao,100,"162 Throop Avenue, Brooklyn",162 Throop Ave,90
Marias,Maria's,92,"162 Throop Avenue, Brooklyn",162 Throop Ave,90
Mirakuya,Kiraku Japanese Restaurant,68,"727 Flushing Avenue, Brooklyn",brooklyn,90
El Burrito Nacho II,Bar Sol De Quito Restaurant II,86,"747 Flushing Avenue, Brooklyn",brooklyn,90
Halal Gyro Cart,Halal,90,"755 Flushing Avenue, Brooklyn",brooklyn,90
Natural Gourmet Deli,Deli,90,"740 Broadway, Brooklyn",brooklyn,90
La Isla Cuchifritos,La Isla,90,"6 Graham Avenue, Brooklyn",brooklyn,90
A+ Express,A-HO RESTAURANT,86,"794 Broadway 5316, Brooklyn",brooklyn,90
Little Caesars,Little Caesar's,97,"715 Broadway, Brooklyn",brooklyn,90
Georges Latin Americana Bistro,IKEA Bistro,86,"11 Graham Avenue, Brooklyn",1 Graham Ave,90
Agra Heights,Agra,90,"226 Wilson Avenue, Brooklyn",brooklyn,90
Pastelitos Elvys,Li Li,86,"255 Wilson Avenue, Brooklyn",brooklyn,90
Sol Sips,Bar Sol De Quito Restaurant II,86,"203 Wilson Avenue, Brooklyn",brooklyn,90
Zatar Cafe & Bistro,ATA,90,"1294 Myrtle Avenue, Brooklyn",brooklyn,90
Wata Berry Greens,ATA,90,"1410 Myrtle Avenue #4513, Brooklyn",brooklyn,90
Mi Tlaxcalita Mexican Cuisine,Mi Candileja,86,"1429 Myrtle Avenue, Brooklyn",1429 Myrtle Ave,90
Mi Bella Cholulita,Mi Barrio Taqueria Restaurant,86,"1386 Dekalb Avenue, Brooklyn",brooklyn,90
BK Taco Factory,Mister Taco Mexican Restaurant,86,"195 Stanhope Street, Brooklyn",brooklyn,90
Las Lunitas,Las Juanas Restaurant Asadero,86,"195 Stanhope Street, Brooklyn",brooklyn,90
Fire House Deli & Grill,Fire House Deli & Grill,100,Brooklyn,brooklyn,100
Tony's Pizzeria and Restaurant,Tony's Pizzeria and Restaurant,100,"443 Knickerbocker Avenue, Brooklyn",443 Knickerbocker Ave,90
OMG pizza,OMG Pizza,100,"1307 Myrtle Avenue, Brooklyn",brooklyn,90
Taqueria Santa Fe,Mi Barrio Taqueria Restaurant,86,"214 Stanhope Street, Brooklyn",brooklyn,90
Pita Point,One Point Five Restaurant,86,"508 Marion Street, Brooklyn",brooklyn,90
Tre Jolie Cafe lounge,Cafe 47,86,"1459 Bushwick Avenue, Brooklyn",brooklyn,90
New Jin Shing,New Win Hing,88,"1794 Broadway, Brooklyn",brooklyn,90
Krazy Pizza and Wings,Pizza,90,"1784 Broadway, Brooklyn",brooklyn,90
Egg Roll,Rock'n Roll Deli,86,"1772 Broadway, Brooklyn",brooklyn,90
Armando's Pizza,Armando's Pizza,100,"1717 Broadway, Brooklyn",brooklyn,90
J's Jerk Hut,Theresa's Polish American Restaurant,86,"117 Rockaway Avenue, Brooklyn",brooklyn,90
Daily Press Coffee and Bar,Daily Press Coffee,95,"38 Somers Street, Brooklyn",brooklyn,90
Brooklyn Cider House,"Golden Forest Chinese Restaurant, Brooklyn Ny",86,"1100 Flushing Avenue, Brooklyn",brooklyn,90
Falansai Take Out and Delivery,Deli,90,"112 Harrison Place, Brooklyn",brooklyn,90
Bunna Cafe,Stars Cafe & Restaurant,86,"1084 Flushing Avenue, Brooklyn",brooklyn,90
Dashi Brooklyn,"Golden Forest Chinese Restaurant, Brooklyn Ny",86,"119 Ingraham Street, Brooklyn",brooklyn,90
Dublin’ Donuts,Li Li,86,"149 George Street, Brooklyn",brooklyn,90
Omakase Ajihei,Maya,68,"156 Knickerbocker Avenue, Brooklyn",brooklyn,90
Taqueria El Fogon,Mi Barrio Taqueria Restaurant,86,"1050 Flushing Avenue, Brooklyn",brooklyn,90
La Perla Del Ulua,La Strada Pizzeria & Restaurant,86,"354 Melrose Street, Brooklyn",brooklyn,90
Not for Profit Pictures,The Restaurant I'm Not Allowed To Name,86,"57 Thames Street, Brooklyn",brooklyn,90
Mi Mariachi,Mi Barrio Taqueria Restaurant,86,"1201 Flushing Avenue, Brooklyn",brooklyn,90
Sopa de caracol,Bar Sol De Quito Restaurant II,86,"186 Knickerbocker Avenue, Brooklyn",186 Knickerbocker Ave,90
Abracadabra Magic Deli,Deli,90,"190 Knickerbocker Avenue, Brooklyn",brooklyn,90
King Gourmet Deli,King Gourmet Deli,100,"193 Knickerbocker Avenue, Brooklyn",193 Knickerbocker Avenue,95
Strange Flavor Burger Shack,GO Burger Truck,86,"369 Troutman Street, Brooklyn",brooklyn,90
Arepera Guacuco,Arepera Guacuco Restaurant,90,"44 Irving Avenue, Brooklyn",44 Irving Ave,90
No. 1 Chinese Restaurant,No. 1 Chinese Restaurant,100,"197 Knickerbocker Avenue, Brooklyn",brooklyn,90
Mally's Deli,Deli,90,"199 Knickerbocker Avenue, Brooklyn",brooklyn,90
BCGA Concept Corp.,Bognan International Corp West African Restaurant,86,"465 Johnson Avenue, Brooklyn",brooklyn,90
Guadalupe Inn,Sizzle Inn Restaurant,86,"1 Knickerbocker Avenue, Brooklyn",brooklyn,90
Bushwick Ice House,Hunan House Chinese Restaurant,86,"35 Ingraham Street, Brooklyn",brooklyn,90
Semkeh,Prontos Food Mart & Smoke Shop,62,"53 Morgan Avenue, Brooklyn",brooklyn,90
EL SANTO TAQUERIA BROOKLYN,"Golden Forest Chinese Restaurant, Brooklyn Ny",86,"1053 Flushing Avenue, Brooklyn",brooklyn,90
Otis,D&G Deli & Rotisserie,90,"18 Harrison Place, Brooklyn",brooklyn,90
Norwind's,Theresa's Polish American Restaurant,86,"1043 Flushing Avenue, Brooklyn",brooklyn,90
El Cortez,El Morro Restaurant & Bar,86,"17 Ingraham Street, Brooklyn",brooklyn,90
"Sweet Chili: Cuisine - Thai, Vietnamese, Asian, Southeast Asian",Mekong Thai & Vietnamese Restaurant,86,"1045 Flushing Avenue, Brooklyn",brooklyn,90
Redcrest Fried Chicken,Crazy Chicken Restaurant & Coffee Shop,86,"235 Menahan Street, Brooklyn",brooklyn,90
Sushi King,King Chinese Restaurant,86,"1442 Myrtle Avenue, Brooklyn",brooklyn,90
Burgers N' Shakes,All Refrigeration 'N Restaurant Equipment,86,"264 Bleecker Street, Brooklyn",brooklyn,90
New Apolo,New Apolo Restaurant,90,"1477 Myrtle Avenue, Brooklyn",1477 Myrtle Ave,90
Cholula Deli,Cholula Deli,100,"1481 Myrtle Avenue, Brooklyn",brooklyn,90
NYCC Cafe,Stars Cafe & Restaurant,86,"1485 Myrtle Avenue, Brooklyn",brooklyn,90
Esmeralda's,Esmeralda's Restaurant,90,"1497 Myrtle Avenue, Brooklyn",497 Myrtle Ave,90
Resto Esmeralda,Esmeralda Restaurant,76,"1476-1480 Myrtle Avenue, Brooklyn",brooklyn,90
Dromedary Urban Tiki Bar,DROM,90,"266 Irving Avenue, Brooklyn",brooklyn,90
Lucy's Vietnamese,Theresa's Polish American Restaurant,86,"262 Irving Avenue, Brooklyn",brooklyn,90
Nicandra's,Theresa's Polish American Restaurant,86,"264 Irving Avenue, Brooklyn",brooklyn,90
Las Alcapurrias Frituras,Las Comadres,86,"Cooper Avenue, Ridgewood",Between 39th and 40th street on 13th Avenue,86
Houdini Kitchen Laboratory,Ming Hing Kitchen,86,"1563 Decatur Street, Ridgewood",Street,90
Wyckoff Deli,Wycoff Deli,96,"1034 Wyckoff Avenue, Ridgewood",Wyckoff Ave,90
Hong Kong Express,Hong Kong,90,"989 Wyckoff Avenue, Ridgewood",Wyckoff Ave,90
Taqueria Cocoyoc,Mi Barrio Taqueria Restaurant,86,"211 Wyckoff Avenue, Brooklyn",Wyckoff Ave,90
Crepes & More,Purtouliano's Pizza and More,86,"205 Wyckoff Avenue, Brooklyn",Wyckoff Ave,90
Akaru Sushi,Kar,90,201 Wyckoff Avenue,Wyckoff Ave,90
Calibella Bakery & Piqueteadero,Calibella Bakery,90,"164 Wyckoff Avenue, Brooklyn",Wyckoff Ave,90
La Gualaceña,La Strada Pizzeria & Restaurant,86,"178 Wyckoff Avenue, Brooklyn",Wyckoff Ave,90
Sally Roots,Sally's Restaurant,86,"195 Wyckoff Avenue, Brooklyn",Wyckoff Ave,90
Paucar’s Deli & Grocery,Deli & Grocery,90,"198 Wyckoff Avenue, Brooklyn",98 Wyckoff Ave,90
Ops,Golden chopsticks,90,"346 Himrod Street, Brooklyn",brooklyn,90
Cafe at Klom Klorm,Cafe 47,86,"371 Himrod Street, Brooklyn",brooklyn,90
Klom Klorm,Ako,60,"181 Wyckoff Avenue, Brooklyn",Wyckoff Ave,90
D' Montazo,D Zion Restaurant,86,"216 Wyckoff Avenue, Brooklyn",Wyckoff Ave,90
Cholula Deli,Cholula Deli,100,"222 Wyckoff Avenue, Brooklyn",Wyckoff Ave,90
Taqueria Al Pastor,Mi Barrio Taqueria Restaurant,86,"128 Wyckoff Avenue, Brooklyn",128 Wyckoff Ave,90
Gyro,"Airways Pizza, Gyro & Restaurant",90,"151 Wyckoff Avenue, Brooklyn",Wyckoff Ave,90
Inca Chicken,Kennedy Fried Chicken,86,"122 Wyckoff Avenue, Brooklyn",122 Wyckoff Ave,90
Sabor Tropical,Spice Island Tropical Restaurant,86,"334 Menahan Street #11237, Brooklyn",brooklyn,90
Elmekkah Bar and Grill,Ambrosia Italian and Albanian Restaurant,86,"277 Wyckoff Avenue, Brooklyn",Wyckoff Ave,90
Sol De Quito,Bar Sol De Quito Restaurant II,90,"189 Irving Avenue, Brooklyn",brooklyn,90
Rosita Sunday corp-grill,Golden Krust Caribbean Bakery and Grill,86,"283 Wyckoff Avenue, Brooklyn",283 Wyckoff Ave,90
Bill's,Rochambeau Restaurant (Bill's),90,"9-85 Wyckoff Avenue, Queens",Wyckoff Ave,90
C&B Luncheonette,C&L Of East Ocean Restaurant,86,"983 Wyckoff Avenue, Ridgewood",Wyckoff Ave,90
Palace of Zuly,C&L Of East Ocean Restaurant,86,"913 Wyckoff Avenue, Flushing",Wyckoff Ave,90
Luv Story,LuV-N-Oven Pizza,86,"894 Wyckoff Avenue, Brooklyn",Wyckoff Ave,90
Lo mejor de Playitas,Bar Sol De Quito Restaurant II,86,"19-98, 19-32 Stanhope Street, Ridgewood",Street,90
El Pin Pollo,El Morro Restaurant & Bar,86,"392 Woodward Avenue, Ridgewood",392 Woodward Ave,90
Beijing,Beijing Garden Chinese Restaurant,90,"551 Woodward Avenue, Ridgewood",551 Woodward Ave,90
Bravo's,Bravo's Pizza,90,"377 Seneca Avenue, Queens",Seneca Avenue,90
Jim's China King,China King,90,"563 Seneca Avenue, Ridgewood",Seneca Avenue,90
Estrella Del Mar,La Estrella del Mar,95,"552 Seneca Avenue, Ridgewood",552 Seneca Ave,90
I Like Food,famous restaurant Chinese food,86,"652 Woodward Avenue, Ridgewood",311 Avenue X,86
Carlo's Pizza,Carlos Pizza,96,"575 Seneca Avenue, Ridgewood",575 Seneca Ave,90
Guadalajara De Dia 2,Guadalajara de Dia II,93,"566 Seneca Avenue, Ridgewood",566 Seneca Ave,90
Martiniello's Pizzeria & Family Restaurant,Family Restaurant,90,"62-98 Forest Avenue, Ridgewood",Forest Avenue,90
The Seneca,The Golden Glass Restaurant,86,"582 Seneca Avenue, Ridgewood",Seneca Avenue,90
El Sabor Del Austro,El Mexicano,86,"580 Seneca Avenue, Flushing",580 Seneca Ave,90
La Canoa,Canoa,90,"6-51 Onderdonk Avenue, Flushing",Onderdonk,90
La Bella Mariella,La Strada Pizzeria & Restaurant,86,"3579 6061, Fresh Pond Road, Flushing",603 Flushing Ave,86
Lee Panda,Panda Chinese Restaurant,86,"60-63 Fresh Pond Road, Queens",13861 Queens Blvd,86
Grosik Inc,Sunshine Restaurant Food & Catering Inc,86,"60-45 Fresh Pond Road, Queens",45-21 Parsons Blvd,86
Johnny's Cafe,Theresa's Polish American Restaurant,86,"60-39 Fresh Pond Road, Maspeth",Rutland Road,86
The Live Oak,The Golden Glass Restaurant,86,"59-94 Fresh Pond Road, Queens",94-14 Sutphin Blvd,86
El Alto,El Morro Restaurant & Bar,86,"6001 Metropolitan Avenue, Flushing",Metropolitan Ave.,90
Slovianka,Jian,68,"6242 Forest Avenue, Ridgewood",Forest Avenue,90
Burger City,Green City Restaurant,86,"62-20 Forest Avenue, Ridgewood",Forest Avenue,90
La Cocina De Mama,La Cocina,90,"56-13 Metropolitan Avenue, Ridgewood",Metropolitan Ave.,90
Sushi Bleu @ Moishas Supermarket,Sushi Ji Restaurant,86,"315 Avenue M, Brooklyn",5 ave,90
Europe Bakery,European Bakery,93,"2367 60th Street, Brooklyn",brooklyn,90
Master Wonton,Duck Wong Wonton Restaurant,86,"2369 60th Street, Brooklyn",brooklyn,90
Wegmans Pizza,Pizza Pizza,95,"21 Flushing Avenue, Brooklyn",brooklyn,90
New Dragon Palace,New Dragon,90,"47 North Oxford Street, Brooklyn",brooklyn,90
The Burger Bar by Wegmans,"Caribbean American Ent. Bar, Lounge & Restaurant",86,"21 Flushing Avenue, Brooklyn",brooklyn,90
Park Avenue Luncheonette,Park Ave Chinese,86,"131 Park Avenue, Brooklyn",brooklyn,90
Luciano's,Luciano's,100,"15 MetroTech Center, Brooklyn",brooklyn,90
Cafe Metro,Cafe M,90,"15 MetroTech Center, Brooklyn",brooklyn,90
Wetzel's Pretzels,Theresa's Polish American Restaurant,86,"139 Flatbush Avenue Space #160, Brooklyn",Flatbush ave,90
Deniz Turkish Mediterranean,Oasis Mediterranean restaurant (مطعم الواحة),86,"662 Fulton Street, Brooklyn",Fulton,90
Peaches HotHouse,ACME,68,"87 South Elliott Place, Brooklyn",brooklyn,90
baba cool,Cool Running Restaurant,86,"64-B Lafayette Avenue, Brooklyn",Lafayette Ave,90
Qatar Airways Club,ATA,90,"620 Atlantic Avenue, Brooklyn",brooklyn,90
Parm,Parm,100,"Barclays Center, 620 Atlantic Avenue Suite Level A, Brooklyn",brooklyn,90
Dickey's Barbecue Pit,Theresa's Polish American Restaurant,86,"196 Flatbush Avenue Ste A, Brooklyn",Flatbush ave,90
Patsy’s Pizzeria,Patsy's Pizzeria,100,"450 Dean Street, Brooklyn",brooklyn,90
Mokbar BK,The Flat's BK Speed Coffee,86,"212 Flatbush Avenue, Brooklyn",Flatbush ave,90
M&J Navy Yard Sub Shoppe,J Y R Restaurant,86,"108 Flushing Avenue, Brooklyn",brooklyn,90
GMC Temaxcal,GMC Temaxcal,100,"163 Park Avenue, Brooklyn",brooklyn,90
Tiger Box,Sammy's Fish Box Restaurant,86,"169 Park Avenue, Brooklyn",169 Park Ave,90
"66S FUSION - Sushi Brooklyn, Japanese food, Seafood, Asian restaurant",Asian Restaurant,90,"130 Flushing Avenue, Brooklyn",brooklyn,90
Amarachi,Amarachi,100,"189 Bridge Street, Brooklyn",189 Bridge St,90
The Food Sermon,The Food Sermon,100,"Building 77, Brooklyn",brooklyn,90
Grandchamps Navy Yard,Yard Style Caribbean Restaurant and Bakery,86,"141 Flushing Avenue building 77 suite 110, Brooklyn",brooklyn,90
Mothership Meat Company,Peter's Gourmet Organic Food Company,86,"27-20 40th Avenue, Long Island City",144-20,86
GoodFellas of LIC,C&L Of East Ocean Restaurant,86,"2519 40th Avenue, Long Island City",2519 40th Ave,90
Mosaic Cafe And Bakery,bakery,90,"39-20 27th Street, Queens",27th Street,90
Oro,Borough Restaurant,90,"41-17 Crescent Street, Long Island City",41-17 Crescent St. Long Island City,95
The Station,The Golden Glass Restaurant,86,"25-07 Queens Plaza North, Long Island City",33-25 Francis Lewis Blvd,86
House of Thai,Swadee House Of Thai And Vegetarian Food,90,"2501 40th Avenue, Long Island City",196 23 Jamaica Avenue,86
Hidalgo Mexican Food,La Asuncion Mexican Restaurant,86,"35-09 Vernon Boulevard, Astoria",10015 Astoria Blvd,86
Neels Pizza and Pasta,Pizza,90,"10-01 36th Avenue, Queens",10-01 36th Ave,90
Josefina's,Josefina's Mexican Restaurant,90,"36-01 10th Street fl 1, Long Island City",Street,90
Niforos Corner,Roti Corner Restaurant,86,"35-60 11th Street, Queens",11th Street,90
il Miglio Brick Oven Pizzeria & Italian Restaurant,Restaurant,90,"11-03 36th Avenue, New York",11-03 36th Ave,90
Sushi House,Ginpachi Sushi Restaurant,86,"37-20 22nd Street, New York",New York,90
The Quesadilla Store,The Loft BKNY Restaurant & Lounge,86,"39-01 22nd Street, Long Island City",Street,90
NY Famous Deli,NY Famous Deli,100,"1683 East 172nd Street, The Bronx",72nd Street,90
Yo Soy Tu Cocina,Tu Nuevo Amor Restaurant,86,"1163 Manor Avenue, The Bronx",Between 39th and 40th street on 13th Avenue,86
tulcimex deli 2 inc,Deli,90,"1305 Rosedale Avenue, The Bronx",1305 Rosedale Ave,90
Sandy's Deli & Mexican Grill,Andy's Deli,90,"1305 Rosedale Avenue, The Bronx",1305 Rosedale Ave,90
Legend's,Gen,90,"1735 East 172nd Street, The Bronx",72nd Street,90
I Love NY Pizza,I Love NY Pizza,100,"1739 East 172nd Street, The Bronx",72nd Street,90
Mandarin Wok,Mandarin Wok,100,"1762 East 172nd Street, The Bronx",72nd Street,90
El Nuevo Pollo Sabroso,Pollo Sabroso,90,"1779 Westchester Avenue, The Bronx",Westchester ave,90
Dragon Village,Dragon Village Chinese Restaurant,90,"1795 Westchester Avenue, The Bronx",1795 Westchester Ave,90
SING HING CHINESE RESTAURANT,Hing Hing Chinese Restaurant,96,"1520 Metropolitan Avenue, The Bronx",1520 Metropolitan Ave,90
APPLEBEES,Applebee's Grill + Bar,80,"Metropolitan Avenue, The Bronx",Metropolitan Ave.,90
Venice Pizzeria,Venice pizzeria,100,"1539 Unionport Road, The Bronx",Rutland Road,86
Jimmy's Deli,Jimmy Deli,95,"2254 East Tremont Avenue, The Bronx",196 23 Jamaica Avenue,86
Taqueria Tlaxcalli,Mi Barrio Taqueria Restaurant,86,"2103 Starling Avenue, The Bronx",2103 Starling Ave,90
Jerry's Pizzeria,Jerry's Pizza,90,"2094 Starling Avenue, The Bronx",2094 Starling Ave,90
Bronx Grill,Golden Krust Caribbean Bakery and Grill,86,"2375 East Tremont Avenue, The Bronx",196 23 Jamaica Avenue,86
"Golden Corral - Bronx, NY","Golden Forest Chinese Restaurant, Brooklyn Ny",86,"2375 East Tremont Avenue, The Bronx",196 23 Jamaica Avenue,86
Golden Corral Buffet & Grill,"Golden Forest Chinese Restaurant, Brooklyn Ny",86,"2375 East Tremont Avenue, The Bronx",196 23 Jamaica Avenue,86
Tehuacan Deli Grocery,Deli Grocery,90,"1837 Westchester Avenue, The Bronx",Westchester ave,90
Chickenfest Azteca,Azteca,90,"86 Hugh J. Grant Circle, The Bronx",1217 Avenue J,86
Alaksa Restaurant,Al-Aqsa Restaurant,91,"Starling Avenue, The Bronx",Between 39th and 40th street on 13th Avenue,86
Neerob Restaurant & Halal Chiness,Restaurant,90,"2096 Starling Avenue, The Bronx",311 Avenue X,86
Premium Sweets and Restuarant,Premium Sweets & Restaurant,89,"2104 Starling Avenue, The Bronx",2104 Starling Ave,90
Khalil Biryani House,Hunan House Chinese Restaurant,86,"1445 Olmstead Avenue, The Bronx",311 Avenue X,86
Kennedy chicken & Pizza,Kennedy Chicken & Pizza,100,"1926 D, Cross Bronx Expressway, The Bronx","Terminal D, near Gate D11",86
Cachapa Cachapa 2,Oliva Paraiso Restaurant No 2,86,"1805 Westchester Avenue, The Bronx",Westchester ave,90
Estrellita Mixteca,Taqueria La Mixteca Restaurant,86,"1813 Westchester Avenue, The Bronx",Westchester ave,90
Trattoria Bambino's Pizza,Pizza,90,"80-01 Myrtle Avenue, Glendale",Myrtle Ave.,90
Sweet Rice,Sweet Rice,100,"80-21 Myrtle Avenue, Glendale",80-21 Myrtle Ave,90
Bedford Cafe,Bedford Cafe Restaurant,90,"1 Bedford Park Boulevard, The Bronx",1 Worlds Fair Marina,86
Las Maravillas De Mexico,La Roja de Todos Restaurant & Bakery,86,"11-13 Bedford Park Boulevard, The Bronx",40-11 150th St,86
Plato & Rumba,Sabor y Rumba Restaurant Bar,86,"2958 Jerome Avenue, The Bronx",311 Avenue X,86
Choi Yuan,Choi Yuan - Chinese Restaurant,90,"4 Bedford Park Boulevard West, The Bronx",4174 Bedford Ave,86
Jerome Pizza Pasta,pizza & pasta,95,"21 Bedford Park Boulevard, The Bronx",45-21 Parsons Blvd,86
Bedford Donut Shop Inc,Sunshine Restaurant Food & Catering Inc,86,"8 Bedford Park Boulevard, The Bronx",4174 Bedford Ave,86
Kennedy Fried Chicken Acsw,Kennedy Fried Chicken,95,"25 Bedford Park Boulevard, The Bronx",33-25 Francis Lewis Blvd,86
Villa Pizza,Villa Pizza,100,"3133 Villa Avenue, The Bronx",Between 39th and 40th street on 13th Avenue,86
National,National,100,"8 Bedford Park Boulevard, The Bronx",4174 Bedford Ave,86
Peter's Deli,Peter's Deli,100,"2897 Sedgwick Avenue, The Bronx",Sedgwick Ave,90
Foo Hing Kitchen,Hing Hing Chinese Restaurant,86,"2895 Sedgwick Avenue, The Bronx",2895 Sedgwick Ave,90
ObaaPa Restaurant,Restaurant,90,"3128 Villa Avenue, The Bronx",3128 Villa Ave,90
La Cabana Salvadoreña,La Cabana Salvadorena,98,"3150 Villa Avenue, The Bronx",3150 Villa Ave,90
Anbu Room,Living Room Lounge,86,"2650 Briggs Avenue, The Bronx",311 Avenue X,86
Lorretta riddles,Star,68,"2632-2640 Marion Avenue, The Bronx",196 23 Jamaica Avenue,86
B&D’s Bites,Theresa's Polish American Restaurant,86,"130 West 238th Street, The Bronx",38th St,90
Tilila,La Puntilla Bar & Restaurant,75,"3648 Bailey Avenue, The Bronx",311 Avenue X,86
Con Sabor Latino,Sabor Latino Cuchifrito Restaurant,86,"3652 Bailey Avenue, The Bronx",3652 Bailey Ave,90
New Yeung Hing,New Yung Hong,89,"3650 Bailey Avenue, The Bronx",3650 Bailey Ave.,90
Bronx Alehouse,Bronx African American Restaurant,86,"216 West 238th Street, The Bronx",38th St,90
A 1 Gourmet Deli & Pizza,Gourmet Deli & Pizza,95,"240 West 238th Street, The Bronx",38th St,90
Flame Bronx,The Flame Restaurant,86,"5740 Broadway Unit # 5, The Bronx",740 Broadway,90
macdonalds,McDonald's,90,"5765 Broadway, The Bronx",Broadway,90
Leche Y Miel Restaurant,Restaurant,90,"5761 Broadway, The Bronx",5761,90
Empanada Monumental,Fada,68,"206 West 236th Street, The Bronx",Street,90
Bronx Riverdale Diner,Diner,90,"3657 Kingsbridge Avenue, The Bronx",196 23 Jamaica Avenue,86
Kingsbridge Social Club,Sugar Hill Restaurant & Supper Club,86,"3625 Kingsbridge Avenue, The Bronx",196 23 Jamaica Avenue,86
Tropical Rotisserie,Spice Island Tropical Restaurant,86,"2701 Sedgwick Avenue, The Bronx",Sedgwick Ave,90
LUCKY STAR,Star,90,"145 West Kingsbridge Road, The Bronx",1621 west 1st street,86
Caridad Kingsbridge,Caridad,90,"135 West Kingsbridge Road, The Bronx",135-29 Springfield Blvd,86
Sazón De Lupita,Bar Sol De Quito Restaurant II,86,"155 West Kingsbridge Road, The Bronx",1621 west 1st street,86
Delicious Pizza Cafe Rest.,Cafe R,90,"269 West Kingsbridge Road, The Bronx",1621 west 1st street,86
Kosher Boyz Grill,Simon Sez Kosher Restaurant,86,"61-07 Utopia Parkway, Queens",95-07 31st Ave,86
Aria Kabab,Aria Kabab Pizza & Shish Kabab,90,"72-55 Kissena Boulevard, Flushing",Kissena,90
OLLIE'S SICHUAN 成都印象,Theresa's Polish American Restaurant,86,"411 West 42nd Street, New York",New York,90
Bea,Bea,100,"403 West 43rd Street, New York",New York,90
West Bank Cafe,Stars Cafe & Restaurant,86,"407 West 42nd Street, New York",New York,90
Chirping chicken,Crazy Chicken Restaurant & Coffee Shop,86,"587 9th Avenue, New York","New York, New York",95
Chimichurri Grill,Golden Krust Caribbean Bakery and Grill,86,"609 9th Avenue, New York","New York, New York",95
Dalton's Bar & Grill,Theresa's Polish American Restaurant,86,"611 9th Avenue, New York","New York, New York",95
Sushiva - Temporarily Closed,Sushi Q,74,"615 9th Avenue floor 1, New York",New York,90
Mama Mia 44 SW,Mamma Mia Pizza Restaurant,86,"621 9th Avenue, New York","New York, New York",95
Turco Mediterranean Grill,Golden Krust Caribbean Bakery and Grill,86,"604 9th Avenue, New York","New York, New York",95
Patron,Patron Mexican restaurant,90,"608 9th Avenue, New York","New York, New York",95
Red Poke,Red Star Chinese Restaurant,86,"600 9th Avenue, New York","New York, New York",95
At Nine Restaurant & Bar,At Nine Restaurant & Bar,100,"592 9th Avenue, New York","New York, New York",95
Intermezzo,Diner,72,"623 9th Avenue, New York","New York, New York",95
Diamond's Trattoria,Theresa's Polish American Restaurant,86,"623 9th Avenue, New York","New York, New York",95
Westway Diner,Westway Diner,100,"614 9th Avenue, New York","New York, New York",95
Kodama Sushi,Kodama Sushi,100,"301 West 45th Street, New York",45th street,90
Gyu-Kaku Japanese BBQ,Yan Jing Chinese and Japanese Restaurant,86,"321 West 44th Street #103, New York",New York,90
Brazil Brazil,Copacabana Brazilian Restaurant,86,"330 West 46th Street, New York",New York,90
Margarita Bar NYC,Bar Sol De Quito Restaurant II,86,"709 8th Avenue, New York","New York, New York",95
Mama's Pizza,Mama’s Pizza,100,"705 8th Avenue, New York","New York, New York",95
Secret Room New York,New Fulin Kwok Seafood Restaurant,86,"707 8th Avenue, New York","New York, New York",95
Carve Cafe,Stars Cafe & Restaurant,86,"717 8th Avenue, New York","New York, New York",95
Black Sushi,Ginpachi Sushi Restaurant,86,"719 8th Avenue, New York","New York, New York",95
Joe Allen,Joe's Pizzeria,86,"326 West 46th Street, New York",New York,90
PIZZA CAFE,Pizza Cafe,100,"765 8th Avenue, New York","New York, New York",95
Dim Sum Palace,China palace chinese restaurant,86,"334 West 46th Street, New York",New York,90
Lugares visitados,Lupa,68,"323 West 44th Street, New York",New York,90
Sangria 46,Sangria Tapas Bar & Restaurant,86,"338 West 46th Street, New York",38 w,90
Le Rivage,Le Fatima Bar & Grill Restaurant,86,"340 West 46th Street, New York",New York,90
Subway Restaurants,subway restaurant,97,"705 8th Avenue, New York","New York, New York",95
Laurene Gates,Gates Supermarket And Deli,86,"701 8th Avenue, New York","New York, New York",95
A Slice of New York,New Fulin Kwok Seafood Restaurant,86,"727 8th Avenue, New York","New York, New York",95
The Landmark Tavern,The Loft BKNY Restaurant & Lounge,86,"626 11th Avenue, New York","New York, New York",95
Sall Restaurant & Lounge,Sall Restaurant and Lounge,95,"818 10th Avenue, New York","New York, New York",95
Mamasita Bar & Grill,Bar Sol De Quito Restaurant II,86,"818 10th Avenue, New York","New York, New York",95
Mi Nidito,Mi Barrio Taqueria Restaurant,86,"818 10th Avenue, New York","New York, New York",95
Inti,Intimo Restaurant and Lounge,90,"820 10th Avenue, New York","New York, New York",95
Gardenia Terrace,Broadway Lounge & Terrace,86,"826 10th Avenue, New York","New York, New York",95
Giardino 54,Jardino,77,"400 1/2 West 54th Street, New York",New York,90
K Rico Steakhouse,Boca Juniors Argentine Steakhouse,86,"772 9th Avenue, New York","New York, New York",95
Hummus Kitchen,Halal Chinese Kitchen,86,"768 9th Avenue, New York","New York, New York",95
Pure Thai Cookhouse,Mekong Thai & Vietnamese Restaurant,86,"766 9th Avenue #2, New York",New York,90
Luckys Famous Burgers,Lucky,90,"370 West 52nd Street, New York",New York,90
Bombay Grill House,Hunan House Chinese Restaurant,86,"764 9th Avenue, New York","New York, New York",95
Afghan Kebab House,Hunan House Chinese Restaurant,86,"764 9th Avenue, New York","New York, New York",95
Go! Go! Curry! Hell's Kitchen,Hell's Kitchen,90,"366 West 52nd Street, New York",New York,90
Totto,Ott,90,"366 West 52nd Street, New York",New York,90
Arriba Arriba Midtown,Arriba Arriba,90,"762 9th Avenue, New York","New York, New York",95
Ageha Sushi,Ginpachi Sushi Restaurant,86,"767 9th Avenue, New York","New York, New York",95
Empanada Mama,Mama’s Coffee Shop & Restaurant,86,"765 9th Avenue, New York","New York, New York",95
Jasper's Taphouse & Kitchen,Moti's,86,"761 9th Avenue, New York","New York, New York",95
Badshah,Padishah,80,"788 9th Avenue, New York","New York, New York",95
Briciola,Olea,77,"370 West 51st Street, New York",New York,90
'ritas,Ritas Pizzeria and Restaurant,90,"756 9th Avenue, New York","New York, New York",95
Poulette,Juliette,75,"790 9th Avenue, New York","New York, New York",95
CD Restaurant,Cd Restaurant & Bar,95,"217-21 Jamaica Avenue, Queens",217-21 Jamaica Avenue,95
Las Delicias Dominican Corporation,Delicia,90,"217-19 Jamaica Avenue, Jamaica",217-21 Jamaica Avenue,90
Patio,Patio,100,"21821 Jamaica Avenue, Queens Village",Jamaica ave,90
Lucky Grill Restaurant & Sweets NY,Lucky Sweets & Restaurant,95,"215-45 Jamaica Avenue, Queens Village",Jamaica ave,90
Windies,Windies Restaurant,90,"216-06 Jamaica Avenue, Jamaica",216-06 Jamaica Ave,90
Happy Kitchen,Happy Kitchen Japanese Restaurant,90,"21529 Jamaica Avenue, Jamaica",Jamaica ave,90
Empire Wok Express,Empire Wok,90,"215-29 Jamaica Avenue, Queens Village",Jamaica ave,90
Fazee's Delight,Deli,90,"215-21 Jamaica Avenue, Queens Village",Jamaica ave,90
Jenivieve's Jerk Rotisserie Inc,Moti's,86,"220-25 Jamaica Avenue, Queens Village",Jamaica ave,90
Flanm cuisine & catering,Annie Chan's Japanese Cuisine Restaurant,86,"215-07 Jamaica Avenue, Queens Village",215-07 Jamaica Ave,90
Emilio's Mexican Grill,Theresa's Polish American Restaurant,86,"221-03 Jamaica Avenue, Queens Village",Jamaica ave,90
Adelitas Bar & Grill,Deli,90,"221-03 Jamaica Avenue, Jamaica",Jamaica ave,90
Silver Spoon Restaurant & Jerk Center,Silver Spoon Restaurant,90,"207-12 Hollis Avenue, Queens Village",207-12,90
Cara Mia Restaurant,Cara Mia Restaurant,100,"22020 Hillside Avenue, Queens Village",22020 Hillside Ave,90
Zahid’s Halal Food,Zahid's Halal Food,100,"and, Braddock Avenue, Springfield Boulevard, Queens Village",Braddock Ave,90
Buffet,Asian Buffet Restaurant,90,"219-17 Hillside Avenue, Queens Village",Hillside Avenue,90
Chicky's,Theresa's Polish American Restaurant,86,"248-43 Jericho Turnpike, Jamaica",196 23 Jamaica Avenue,86
Leone's Pizzeria,Leone's Pizzeria,100,"84-02 Cooper Avenue, Glendale",84-02 Cooper Ave,90
Chili's Grill & Bar,Chili's Grill & Bar,100,"80-16 Cooper Avenue, Queens",Between 39th and 40th street on 13th Avenue,86
The Shops at Atlas Park,The New Millenium Spanish Restaurant,86,"8000 Cooper Avenue, Queens",Between 39th and 40th street on 13th Avenue,86
California Pizza Kitchen at Atlas Park,Pizza,90,"7103 80th Street #7101, Queens",Street,90
Shiro of Japan,C&L Of East Ocean Restaurant,86,"80-40 Cooper Avenue, Ridgewood",40-11 150th St,86
Menchie's Frozen Yogurt,Theresa's Polish American Restaurant,86,"8060 Cooper Avenue, Queens",Between 39th and 40th street on 13th Avenue,86
Pop pot noodle & tea cafe,Cafe 47,86,"8000 Cooper Avenue, Queens",Between 39th and 40th street on 13th Avenue,86
Zhen Good Taste,Zheng Good Taste,97,"59-61 69th Street, Queens",9th St,90
El Pollo Sabrosón,El Morro Restaurant & Bar,86,"66-35 Grand Avenue, Flushing",66-35 Grand Ave,90
Shelly's Deli and Cafe,Deli,90,"5634 66th Street, Maspeth",Street,90
Hospitality Solutions & Creators,Green Food Solutions,86,"5706 69th Lane, Maspeth",19509 69th Ave,86
E-Chiban,E and J Restaurant,86,"66-47 Fresh Pond Road, Ridgewood",211-47 Jamaica Ave,86
Gyro World,World Fair Marina Restaurant & Banquet,86,"66-57 Fresh Pond Road, Ridgewood",Rutland Road,86
Taqueria Kermes,Mi Barrio Taqueria Restaurant,86,"66 Fresh Pond Road #36, Queens",13861 Queens Blvd,86
Tendo Sushi,Ginpachi Sushi Restaurant,86,"66-26 Fresh Pond Road, Ridgewood",Rutland Road,86
El Arepazo Colombian Food,Sunshine Restaurant Food & Catering Inc,86,"8626 Roosevelt Avenue, Jackson Heights",Roosevelt Ave.,90
T - Mezcal,T&G Restaurant Spot,86,"88-08 Roosevelt Avenue, Flushing",Roosevelt Ave.,90
Toro Bravo,Bravo African Restaurant,86,"8812 Roosevelt Avenue, New York",New York,90
Asia Kitchen,Halal Chinese Kitchen,86,"87-46 Britton Avenue, Elmhurst",41-87 Bowne St,86
El gran coffee shop,Coffee Shop,90,"86-10 Roosevelt Avenue, Jackson Heights",Roosevelt Ave.,90
Taqueria Chila,Mi Barrio Taqueria Restaurant,86,"86-28 Roosevelt Avenue, Jackson Heights",Roosevelt Ave.,90
Tornado Crepe,Crepe Suzette Restaurant,86,"8610 Roosevelt Ave#10 Jackson Heights, Flushing",Roosevelt Ave.,90
12 Corazones,152-12 Northern Blvd Chinese Restaurant,86,"86-22 Roosevelt Avenue, Jackson Heights",Roosevelt Ave.,90
Delicias Puebla,Delicia,90,"89-04 Roosevelt Avenue, Jackson Heights",Roosevelt Ave.,90
Sky Cafe,Stars Cafe & Restaurant,86,8620 Whitney Avenue,Whitney Avenue,95
Prontito Restaurante Colombiano,Restaurant,90,"40-25 Forley Street, Elmhurst",Street,90
Tia Julia Comida Tipica Mexicana,Mexicana,90,"4008 Case Street, Queens",Street,90
Tasty Chaulafan,Tasty Delicious Bakery & Restaurant,86,"8610 Roosevelt Avenue # 4, Jackson Heights",Roosevelt Ave.,90
Asian Taste 86 Halal Indonesian Fusion,Taste,90,"86-10 Whitney Avenue, Elmhurst",Whitney Avenue,90
Taco Veloz,Mister Taco Mexican Restaurant,86,"86-10 Roosevelt Avenue, Jackson Heights",Roosevelt Ave.,90
Tacos Al Suadero,Masters of Tacos Mexican Restaurant,86,"8721 Roosevelt Avenue, Flushing",Roosevelt Ave.,90
Lhasa Fresh Food,Lhasa Fresh Food,100,"81-09 41st Avenue, Queens",1st ave.,90
Mama's Pizza & Cafe,Mama's Pizza And Cafe,95,"80-14 Roosevelt Avenue, Flushing",80-14 Roosevelt Ave,90
La Esquina Del Camaron Mexicano,La Badee Restaurant,86,"80-02 Roosevelt Avenue, Jackson Heights",Roosevelt Ave.,90
Pollos Gus,Pollos Gus,100,"80-26 Roosevelt Avenue, Jackson Heights",Roosevelt Ave.,90
82nd Food Court Chicken Fest,Food Court,90,"40-36 82nd Street, Flushing",Street,90
Copacabana Brazilian Grill,Golden Krust Caribbean Bakery and Grill,86,"80-26 Roosevelt Avenue, New York",New York,90
Louie's,Caridad & Louie's Restaurant,90,"8134 Baxter Avenue # 1, Elmhurst",1 Worlds Fair Marina,86
La Fusta,La Fusta,100,"80-32 Baxter Avenue, Queens",Between 39th and 40th street on 13th Avenue,86
Jose's Seafood,Sea,90,"81-04 Roosevelt Avenue, Flushing",Roosevelt Ave.,90
Mister Cangrejo Restaurant,Mister Cangrejo Restaurant,100,"79-09 Roosevelt Avenue, Jackson Heights",79-09 Roosevelt Ave,90
M2N cafeteria,Clifford Chance Cafeteria-Restaurant Associates,86,"40-12 82nd Street, Queens",Street,90
Cositas Ricas,Pecositas Cafe & Bakery,69,"7919 Roosevelt Avenue, Jackson Heights",Roosevelt Ave.,90
Guayaco's,Guayaco's Restaurant,90,"81-42 Baxter Avenue, Flushing",81-42 Baxter Ave,90
Cubano Sandwich Shop,Cuba,90,"7814 Roosevelt Avenue, Queens",Roosevelt Ave.,90
76 Taqueria,Mi Barrio Taqueria Restaurant,86,"7911 Roosevelt Avenue, Jackson Heights",Roosevelt Ave.,90
Coatzingo,Coatzingo Restaurant,90,"79-11 Roosevelt Avenue, Flushing",79-11 Roosevelt Ave,90
Pico De Gallo,Bar Sol De Quito Restaurant II,86,"8009 Roosevelt Avenue, New York",New York,90
Dumpling Town,Q Town (Taiwanes/Chinese/Seafood)Restaurant,86,"86-55 Broadway, Queens",55 Broadway,90
Jin Ma Bakery,Jin Ma Bakery,100,"86-22 Broadway, Queens",22 Broadway,90
Broadway Snacks,Broadway Pizzeria Italian Restaurant,86,"86-10 Justice Avenue, Flushing",37-10 114th St,86
Awang Kitchen,Halal Chinese Kitchen,86,"8405 Queens Boulevard #1c, Elmhurst",Queens Boulevard,90
Shanghai King,Shanghai,90,"86-22 Broadway, Elmhurst",22 Broadway,90
老華西街,Taiwanese Specialties 老華西街台菜館,90,"84 02 Broadway, Queens",84-02 Broadway,90
Taiwanese Gourmet,China Gourmet Chinese Restaurant,86,"8402 Broadway, Elmhurst",2 Broadway,90
Dek Sen,Cho-sen Garden,86,"86-08 Whitney Avenue, Queens",Whitney Avenue,90
Lao Fu Zhou,Fu Man Lou Restaurant,86,"83-11 Broadway, Flushing",83-11 Broadway,90
Sweet Yummy House,Hunan House Chinese Restaurant,86,"83 13 Broadway, Queens",Broadway,90
Guo’s Restaurant,Gou's Restaurant,94,"83-29 Broadway, Elmhurst",83-29 Broadway,90
Anda Cafe,Stars Cafe & Restaurant,86,"8331 Broadway, Queens",8331 Broadway,90
JOJU MODERN VIETNAMESE SANDWICHES,Subway Sandwiches,86,"83-25 Broadway, Elmhurst",Broadway,90
Hua Rong,Hua Rong,100,"8323 Broadway #1, Flushing",8323 Broadway,90
Broadway Chinese Seafood,Sea,90,"83-17 Broadway, Queens",Broadway,90
Elmhurst Famous Pizza,Elmhurst Famous Pizza,100,"8307 Broadway, Flushing",8307 Broadway,90
Lao Bei Fang Dumpling House,Dumpling House,90,"83-05 Broadway, Elmhurst",83-05 Broadway,90
Bappy Sweet,Shandar Sweet & Restaurant,86,"8507 Whitney Avenue, Flushing",Whitney Avenue,90
Fu Fan,Fu Fan Restaurant,90,"8505 Whitney Avenue, Elmhurst",8505 Whitney Ave,90
Chao Thai,Chao Thai ร้านชาวไทย,90,"85-03 Whitney Avenue, Queens",Whitney Avenue,90
Boon Chu 83-18 Broadway,Broadway Pizzeria Italian Restaurant,86,83-18 Broadway,8318 Broadway,96
Vivi Bubble Tea,Bidonville Coffee and Tea,86,"83-28 Broadway, Elmhurst",83-28,90
Ruyi Seafood,Sea,90,"8334 Broadway, Elmhurst",8334 Broadway,90
Happy Stony Noodle,Happy Family Chinese Restaurant,86,"83-47 Dongan Avenue, Queens",Between 39th and 40th street on 13th Avenue,86
Blvd Pizzeria,La Strada Pizzeria & Restaurant,86,"89-04 Queens Boulevard, Queens",Queens Boulevard,90
Sizzling Republic,Li Li,86,"89-08 Queens Boulevard, Elmhurst",Queens Boulevard,90
Sariling Atin,Li Li,86,"89-12 Queens Boulevard, Elmhurst",Queens Boulevard,90
Rakuzen,Yuraku Restaurant,64,"89-23 Queens Boulevard, Elmhurst",Queens Boulevard,90
Success Chinese,Success Chinese Resturant,90,"14209 Farmers Boulevard, Jamaica",196 23 Jamaica Avenue,86
Maceus Studios,ACME,68,"175-25 139th Road, Jamaica",39th,90
Aso Rock,Ocean Rock Restaurant,86,"13824 Farmers Boulevard, Jamaica",196 23 Jamaica Avenue,86
Dragon Palace,Dragon Chinese Restaurant,86,"138-22 Farmers Boulevard, Jamaica",196 23 Jamaica Avenue,86
Glacé,Little Bandgladesh Restaurant,68,"13810 Farmers Boulevard, Jamaica",196 23 Jamaica Avenue,86
Obama Deli & Grill,Deli,90,"13640 Farmers Boulevard, Jamaica",196 23 Jamaica Avenue,86
West Bar and Lounge,Ambrosia Italian and Albanian Restaurant,86,"133-24 Springfield Boulevard, St. Albans",1100 60th St,86
Southern Girls Soul Food,Sunshine Restaurant Food & Catering Inc,86,"218-28 Merrick Boulevard, Springfield Gardens",Cristofordo Columbo Boulevard,86
Jamaican Jerk Grill,Golden Krust Caribbean Bakery and Grill,86,"217-12 Merrick Boulevard, Laurelton",152-12 Northern Blvd,86
Jamaican Flavors,Jamaican Flavors Restaurant,90,"134-41 Springfield Boulevard, Springfield Gardens",Cristofordo Columbo Boulevard,86
Spring Gardens,Spring Gardens Jamaican Restaurant,90,"135-29 Springfield Boulevard, Jamaica",29-30  A Union St,86
Louis Pizzeria,Louis Pizza,88,"1840 Nereid Avenue, The Bronx",1840 Nereid Ave,90
First Family Pizzeria,Family Pizzeria,95,"1840 Nereid Avenue, The Bronx",1840 Nereid Ave,90
Cooler Runnings,Cooler Runnings Jamaican Restaurant Inc,90,"1802 Nereid Avenue, The Bronx",1802 Nereid Ave,90
NY BEST DELI & Gourmet Corp,Deli,90,"1801 Nereid Avenue, The Bronx",311 Avenue X,86
St Bess Jamaican Restaurant,Restaurant,90,"4466 Baychester Avenue, The Bronx",Baychester Avenue,90
Dacks Cuisine,Annie Chan's Japanese Cuisine Restaurant,86,"1785 Nereid Avenue, The Bronx",311 Avenue X,86
Peppers,Joey Pepperoni's Pizza,77,"4564 White Plains Road, The Bronx",White Plains Road,90
Big Daddy's Caribbean taste restuarant,Big Daddy's Caribbean Taste Restaurant,97,"4406 White Plains Road, The Bronx",White Plains Road,90
Kennedy's Fried Chicken & Pizza,Kennedy Fried Chicken & Pizza,97,"4400 White Plains Road, The Bronx",White Plains Road,90
Kennedys,Kennedy's,94,"4400 White Plains Road, The Bronx",White Plains Road,90
Stop-In N-Out Deli,Deli,90,"703 Nereid Avenue, The Bronx",Between 39th and 40th street on 13th Avenue,86
Island Taste,Island Taste,100,"958 Cranford Avenue, The Bronx",311 Avenue X,86
Kennedys Fried Chicken,Kennedy Fried Chicken,98,"4049 Laconia Avenue, The Bronx",311 Avenue X,86
Hyderi Fast Food Inc,Fast Food,90,"4049 Laconia Avenue, The Bronx",311 Avenue X,86
Tipsy’z Restaurant,Restaurant,90,"4035 Laconia Avenue, The Bronx",311 Avenue X,86
Laconia Pizza,Pizza Pizza,95,"3985A Laconia Avenue, The Bronx",311 Avenue X,86
Big Wong No Delivery,Deli,90,"3975 Laconia Avenue, The Bronx",3975 Laconia Ave,90
Rainbow Diner,Rainbow Diner,100,"2197 White Plains Road, The Bronx",White Plains Road,90
Tessey’s International Kitchen (T.I.K.),National,90,"2542B White Plains Road, The Bronx",White Plains Road,90
Cemitas Puebla,Tacos Puebla Restaurant,86,"679 Allerton Avenue, The Bronx",Allerton Ave.,90
Estrellita Poblana II,Estrellita Poblana,95,"2819 White Plains Road, The Bronx",White Plains Road,90
Taystee Seafood Shack,Sea,90,"678 Allerton Avenue, The Bronx",Allerton Ave.,90
Vesuvio Pizza,Pizza Vesuvio,95,"680 Allerton Avenue, The Bronx",Allerton Ave.,90
JR Primos,JR Primos Restaurant,90,"698 Allerton Avenue, The Bronx",Allerton Ave.,90
Sweet Breez,Shandar Sweet & Restaurant,86,"2857 White Plains Road, The Bronx",White Plains Road,90
Santos Fish Market,Fish Market,90,"2859 White Plains Road, The Bronx",White Plains Road,90
Century,Century,100,"2861 White Plains Road, The Bronx",White Plains Road,90
Jus Chill,JUS Food Truck,86,"589 New Lots Avenue, Brooklyn",brooklyn,90
Island Tropics,Island Tropics Caribbean Restaurant,90,"589 New Lots Avenue, Brooklyn",brooklyn,90
La Lechonera,Lechonera La Isla,95,"747 New Lots Avenue, Brooklyn",brooklyn,90
Caterinas Pizzeria,Caterina Pizza,88,"907 Livonia Avenue, Brooklyn",brooklyn,90
Shun Feng,Shun Deck Restaurant,86,"524 New Lots Avenue, Brooklyn",524 New Lots Ave,90
New York Chan,New York Chan Chinese Restaurant,90,"744 New Lots Avenue, Brooklyn",744 New Lots Ave,90
Loma,Loma restaurant and coffee shop,90,"754 New Lots Avenue, Brooklyn",754 New Lots Ave,90
Marthita's Kitchen,Theresa's Polish American Restaurant,86,"754 New Lots Avenue, Brooklyn",754 New Lots Ave,90
Four Aces,Two Four One St Cafe Restaurant,86,"684 Hegeman Avenue, Brooklyn",brooklyn,90
Kingston 7,No.7 Restaurant Chinese Food,86,"686 Hegeman Avenue, Brooklyn",brooklyn,90
El Canario,La Flor del Canario Restaurant,90,"Van Siclen Avenue, Brooklyn",brooklyn,90
Golden Horse,Golden Horse Restaurant,90,"792 New Lots Avenue, Brooklyn",792 New Lots Ave,90
Restaurant & Deli Inc,Deli Restaurant,95,"889 Sutter Avenue, Brooklyn",brooklyn,90
Almonte,Almonte Restaurant,90,"2053 Pitkin Avenue, Brooklyn",2053 Pitkin Ave,90
Los Primos Delicatessen,'Essen,90,"236 Granville Payne Avenue, Brooklyn",brooklyn,90
Irie Spice,Spice,90,"1864 Pitkin Avenue, Brooklyn",brooklyn,90
ENY halal Fried Chicken,Halal,90,"143 Pennsylvania Avenue, Brooklyn",brooklyn,90
Happy Coffee Shop Inc.,Coffee Shop,90,"2729 Atlantic Avenue, Brooklyn",brooklyn,90
Caoba Brooklyn Bistro,"Golden Forest Chinese Restaurant, Brooklyn Ny",86,"100 Jamaica Avenue, Brooklyn",100 Jamaica Ave,90
D’ Savannah Roti Shop,Savann,90,"119-15 Liberty Avenue, South Richmond Hill",Liberty ave,90
Broadway Bakery & Pizzeria,Broadway Bakery And Pizzeria,95,"119-02 Liberty Avenue, South Richmond Hill",Liberty ave,90
Zaki Fresh Kitchen (Halal Food Truck),Halal Food,90,"11918 Liberty Avenue, South Richmond Hill",Liberty ave,90
Bakewell express,Cam Tak Express Restaurant,86,"10408 Lefferts Boulevard, South Richmond Hill",Cristofordo Columbo Boulevard,86
Kaieteur Liberty,Kaieteur,90,"12004 Liberty Avenue, South Richmond Hill",12004 Liberty Ave,90
Sonny's Roti Shop,Theresa's Polish American Restaurant,86,"118-06 Liberty Avenue, New York",New York,90
Singh's Roti Shop #3,Theresa's Polish American Restaurant,86,"11806 Liberty Avenue, South Richmond Hill",Liberty ave,90
New Thriving,New Thriving,100,"12012 Liberty Avenue, South Richmond Hill",Liberty ave,90
Chopsticks,Golden chopsticks,90,"117-18 Liberty Avenue, New York",New York,90
Shah's Halal Richmond Hill,Halal,90,"120-23 Liberty Avenue, South Richmond Hill",Liberty ave,90
Rockaway Roti Shop,Loma restaurant and coffee shop,86,"12279 Rockaway Boulevard, Queens",13861 Queens Blvd,86
Nikki's Roti Shop,Nikki’s Roti Shop & Bakery Inc.,90,"123-28 Rockaway Boulevard, South Ozone Park",152-28 Northern Blvd,86
Rockaway Halal Buffet,Halal,90,"122-21 Rockaway Boulevard, South Ozone Park",45-21 Parsons Blvd,86
MashAllah grill,Mashallah,90,"2004 Bath Avenue, Brooklyn",brooklyn,90
Pino Pizza,Pizza Pizza,95,"2025 Bath Avenue, Brooklyn",2025 Bath Ave,90
MR.BUN,Mr Triunfel Restaurant,86,"2048 86th Street, Brooklyn",2048 86th St,90
Choi Fook Restaurant,Restaurant,90,"2050 86th Street, Brooklyn",2050 86th St,90
Ichi Sushi,Ginpachi Sushi Restaurant,86,"2040 86th Street, Brooklyn",brooklyn,90
Double Fire Gourmet,China Gourmet Chinese Restaurant,86,"2122 86th Street, Brooklyn",brooklyn,90
Saint Rosalia,Li Li,86,"18th Avenue, Brooklyn",18th Avenue,90
Khyber Halal Cart,Halal,90,"1799-1701 65th Street, Brooklyn",65th street,90
Tacos Lupita,Lupita's Restaurant,86,"1802 65th Street, Brooklyn",65th street,90
Tung Tung,Tung Tung Restaurant Inc,90,"6512 18th Avenue, Brooklyn",18th Avenue,90
Yummy Rice,Yummy Yummy,95,"6515 18th Avenue, Brooklyn",18th Avenue,90
DaVinci Pizzeria,DaVinci's Pizzeria,95,"6514 18th Avenue, Brooklyn",18th Avenue,90
Columbus Deli,Deli,90,"6610 18th Avenue, Brooklyn",6610 18th Ave,90
Yi Chu,Tong Sam Gyup Goo Yi Restaurant,86,"6417 17th Avenue, Brooklyn",7th Ave,90
65 Kuho Sushi & Hot Pot,Hot Pot Jamaican & American Restaurant,86,"1701 65th Street, Brooklyn",65th street,90
Hanoi Vietnamese Sandwiches,Subway Sandwiches,86,"6522 20th Avenue, Brooklyn",brooklyn,90
