name_google,name_foursquare,ratio_name,address_google,address_foursquare,ratio_address
Halal Kitchen,Halal Kitchen,100,"7112 Grand Avenue, Queens",Grand Avenue,90
Spice Kitchen,Spice,90,"71-04 Grand Avenue, Maspeth",Grand Avenue,90
Connolly's Corner,Connolly's Corner,100,"71-15 Grand Avenue, Queens",Grand Avenue,90
Maspeth Pizzeria,Maspeth Pizza,90,"71-09 Grand Avenue, Maspeth",71-09 Grand Ave,90
Homemade Taqueria Maspeth,Maspeth Pizza,86,"71-3 Grand Avenue, Maspeth",Grand Avenue,90
Wakamatsu,Wakamatsu,100,"70-18 Grand Avenue, Queens",70-18 Grand Ave,90
Maspeth Deli & Grill,Maspeth Grill & Deli,95,"71-01 Grand Avenue, Flushing",71-01 Grand Ave,90
Hush Cafe Lounge and Garden,Cafe 47,86,"70-10 Grand Avenue, Maspeth",Grand Avenue,90
Quraishe halal food cart,Halal Food,90,"69-80 Grand Avenue, Maspeth",Grand Avenue,90
69 Pizzeria,69 Pizzeria,100,"4917 69th Street, Woodside",4917 69th St,90
La Fondita Restaurant,Restaurant,90,"49-11 69th Street, Woodside",9th St,90
New Great Wall,Great Wall,95,"69-13 Woodside Avenue, Flushing",188-13 Jamaica Ave,86
Pollos Mario Woodside,Mario's Pizza,86,"62-01 Woodside Avenue, Woodside",171-01 Northern Blvd,86
Gino‚Äôs Pizzeria,Gino's Pizzeria,100,"39-63 61st Street, Woodside",61st Street,90
El Sabroso Coffee Shop,El Sabroso Coffee Shop,100,"64-04 Roosevelt Avenue, Woodside",Roosevelt Ave.,90
Desi Cuisine,Annie Chan's Japanese Cuisine Restaurant,86,"6208 Roosevelt Avenue, Woodside",Roosevelt Ave.,90
Papa Sal's Pizza,Sal's Pizza,95,"39-63 61st Street, Woodside",61st Street,90
F. Ottomanelli Burgers and Belgian Fries,Annas Restaurant and Deli,86,"60-15 Woodside Avenue, Queens",60-15 Woodside Ave,90
Woodside Cafe,Stars Cafe & Restaurant,86,"60-06 Woodside Avenue, Woodside",311 Avenue X,86
Three Bowls Noodle House,Dumpling House,86,"6328 Roosevelt Avenue, Woodside",Roosevelt Ave.,90
JAG Specialty Foods,Ideal foods,86,"115-5 15th Avenue, College Point",5th Avenue,90
Genaro's Pizza College Point NY,Pizza,90,"18-12 College Point Boulevard, Flushing",147-18 Northern Blvd,86
NYC Palate Catering,Sunshine Restaurant Food & Catering Inc,86,"1818 College Point Boulevard, College Point",1818 Avenue U,86
Annadale Diner,Diner,90,"791 Annadale Road, Staten Island",2670 Coney Island Ave,86
Annadale Terrace,Broadway Lounge & Terrace,86,"801 Annadale Road, Staten Island",2670 Coney Island Ave,86
Empire Amboy Szechuan,Empire Szechuan,95,"34b Jefferson Boulevard, Staten Island",2670 Coney Island Ave,86
Romeo's Pizzeria & Restaurant,Romano's Pizzeria & Restaurant,95,"34 Jefferson Boulevard, Staten Island",2670 Coney Island Ave,86
Il Sogno,Il Miglio Pizza & Italian Restaurant,86,"26 Jefferson Boulevard, Staten Island",2670 Coney Island Ave,86
Priv√©,Restaurant With Private Rooms,90,"813 Annadale Road, Staten Island",2670 Coney Island Ave,86
Annadale Bakery,bakery,90,"821 Annadale Road, Staten Island",2670 Coney Island Ave,86
Mangia,Mangia,100,"20 Jefferson Boulevard, Staten Island",144-20,86
The Square on Annadale,620 on Caton Pizzeria and Restaurant,86,"833 Annadale Road, Staten Island",2670 Coney Island Ave,86
Mona Lisa Pizzeria,La Strada Pizzeria & Restaurant,86,"839 Annadale Road, Staten Island",2670 Coney Island Ave,86
The Pizza Parlor,Pizza Pizza,95,"6 Sneden Avenue, Staten Island",311 Avenue X,86
La Fontana Sorellena,La Strada Pizzeria & Restaurant,86,"885 Annadale Road, Staten Island",2670 Coney Island Ave,86
Dough Vale,Mother Dough Pizza,86,"330 South 3rd Street, Brooklyn",brooklyn,90
Zeff's Pizzeria,La Strada Pizzeria & Restaurant,86,"312 South 3rd Street, Brooklyn",brooklyn,90
Black Flamingo,Flamingo Restaurant & Mantra Lounge,86,"168 Borinquen Place, Brooklyn",brooklyn,90
El Gran Canario üá©üá¥,El Morro Restaurant & Bar,86,"174 Borinquen Place, Brooklyn",174 Borinquen Pl,90
Wei‚Äôs,Theresa's Polish American Restaurant,86,"145 Borinquen Place, Brooklyn",145 Borinquen Pl,90
Lighthouse,LightHouse Fish Market & Restaurant,90,"145 Borinquen Place, Brooklyn",145 Borinquen Pl,90
Don Pancho Villa,Don Pancho Villa,100,"189 Borinquen Place, Brooklyn",brooklyn,90
Modern Love,I Love New York Pizza,86,"317 Union Avenue, Brooklyn",brooklyn,90
Mocha Gourmet Deli,Ocha,90,"301 Union Avenue, Brooklyn",brooklyn,90
Sabor Latino,Tu Sabor Latino,95,"347 Union Avenue, Brooklyn",brooklyn,90
Loasis,El Oasis,86,"489 Grand Street, Brooklyn",Grand street,90
Best Pizza,Best Pizza,100,"33 Havemeyer Street, Brooklyn",brooklyn,90
Fedoroff's Roast Pork,Theresa's Polish American Restaurant,86,"178 North 10th Street, Brooklyn",brooklyn,90
Wing Jawn,Wing xin chinese restaurant,86,"180 North 10th Street, Brooklyn",brooklyn,90
Kilo Bravo,Bravo African Restaurant,86,"180 North 10th Street, Brooklyn",brooklyn,90
Fada,Fada,100,"530 Driggs Avenue, Brooklyn",530 Driggs Ave,90
El Almac√©n,Alma,90,"557 Driggs Avenue, Brooklyn",brooklyn,90
Nora Thai,Mekong Thai & Vietnamese Restaurant,86,"176 North 9th Street, Brooklyn",brooklyn,90
Pearl's,Pearls,92,"178 North 8th Street, Brooklyn",brooklyn,90
Trix Cafe,Stars Cafe & Restaurant,86,"145 Bedford Avenue, Brooklyn",brooklyn,90
Xi'an Town,Q Town (Taiwanes/Chinese/Seafood)Restaurant,86,"165 Bedford Avenue, Brooklyn",brooklyn,90
Acqua Santa,New Santa Ana Restaurant,86,"556 Driggs Avenue, Brooklyn",brooklyn,90
Two Boots Williamsburg,"Williamsburg Pizza and Restaurant, Greens Pizza",86,"558 Driggs Avenue, Brooklyn",brooklyn,90
Moda Y Comida,Migueleno's Pizza Y Restaurant,86,"152L Bedford Avenue, Brooklyn",brooklyn,90
Pokeworks,Orso,68,"169 Bedford Avenue, Brooklyn",brooklyn,90
Caf√© Beit,The River Caf√©,86,"158 Bedford Avenue, Brooklyn",brooklyn,90
Vinnie's,Vinnie's Pizza,90,"148 Bedford Avenue, Brooklyn",brooklyn,90
Allswell,Caldwell Deli,68,"124 Bedford Avenue, Brooklyn",brooklyn,90
Sweet Chick,Shandar Sweet & Restaurant,86,"164 Bedford Avenue, Brooklyn",brooklyn,90
Madhat Hallal Food Truck,Food Truck,90,"Bedford and, Metropolitan Avenue, Brooklyn",brooklyn,90
Williamsburg Halal Food,Halal Food,90,"249-255 Bedford Avenue, Brooklyn",brooklyn,90
Cesar‚Äôs empanadas,Cesar's Empanadas,100,"206-238 Metropolitan Avenue, Brooklyn",brooklyn,90
Williamsburg Pizza,Williamsburg Pizza,100,"238 Bedford Avenue, Brooklyn",brooklyn,90
Brodo,Moldova Restaurant Brooklyn,72,"238 Bedford Avenue, Brooklyn",brooklyn,90
Kimbap Lab,Sterling Concepts Food Lab,86,"238 Bedford Avenue, Brooklyn",brooklyn,90
Setagaya,Star,68,"280 Bedford Avenue, Brooklyn",brooklyn,90
Salt + Charcoal,Salt Of the Earth Bakery,86,"171 Grand Street, Brooklyn",Grand street,90
Dim Sum Bar,El Morro Restaurant & Bar,86,"167 Grand Street, Brooklyn",Grand street,90
by CHLOE.,The Mark Restaurant by Jean-Georges,86,"171 North 3rd Street, Brooklyn",brooklyn,90
Tacombi,Omai,68,"242 Metropolitan Avenue, Brooklyn",brooklyn,90
Egg,Reggae Food,90,"109 North 3rd Street, Brooklyn",brooklyn,90
Tikka Indian Grill,Golden Krust Caribbean Bakery and Grill,86,"185 Grand Street, Brooklyn",Grand street,90
Snacky,Hillside Deli Snack Bar,78,"187 Grand Street, Brooklyn",Grand street,90
Glaze Teriyaki,teriyaki guys food truck,86,"145 North 4th Street, Brooklyn",brooklyn,90
Nitehawk Cinema,Cinema Paradiso Italian Restaurant,86,"136 Metropolitan Avenue, Brooklyn",brooklyn,90
Wing Luck,Wing Luck Restaurant,90,"252 Livonia Avenue, Brooklyn",252 Livonia Ave,90
Napoli Pizzeria,Napoli's Pizzeria,95,"254 Livonia Avenue # A, Brooklyn",brooklyn,90
Wah Yung,Newwah Yung Chinese Restaurant,90,"648 Rockaway Avenue, Brooklyn",brooklyn,90
Mannys Pizza Burger Fried Chicken,Pizza,90,"459 Mother Gaston Boulevard, Brooklyn",brooklyn,90
No. 1 Great Wall,Great Wall No.1,95,"446A Mother Gaston Boulevard, Brooklyn",brooklyn,90
Kim's Chinese & Sushi,Theresa's Polish American Restaurant,86,"3712 East Tremont Avenue, The Bronx",3712 13th Ave,86
Jun Bo,Jun Bo Restaurant,90,"3712 East Tremont Avenue, The Bronx",3712 13th Ave,86
Brewski's Bar & Grill,Theresa's Polish American Restaurant,86,"3718 East Tremont Avenue, The Bronx",196 23 Jamaica Avenue,86
Seaside Bar & Grill,Sea,90,"134 Pennyfield Avenue, The Bronx",134 Pennyfield Ave,90
Bayview Restaurant,Restaurant,90,"138 Pennyfield Avenue, The Bronx",196 23 Jamaica Avenue,86
Nana Good Eats,Good Day Seafood Restaurant,86,"152-67A 10th Avenue, Queens",10th,90
Cascarino's,Theresa's Polish American Restaurant,86,"152-59 10th Avenue, Whitestone",10th,90
New Hong Kong,Hong Kong,95,"10-17 154th Street, Whitestone",Street,90
Health Kitchen,Halal Chinese Kitchen,86,"1017 154th Street, Whitestone",Street,90
Tony's Beechhurst Deli,Deli,90,"11-18 154th Street, Whitestone",Street,90
Out latin food breakfast,OUT Latin Food,90,"100-02 103rd Avenue, New York",New York,90
Taste Cafe & Grill,Taste,90,"107-02 101st Avenue, Ozone Park",1st ave.,90
Punjabi Kabab and Gyro,Ambrosia Italian and Albanian Restaurant,86,"108-3 101st Avenue, South Richmond Hill",1st ave.,90
Lynx Lounge,Taipan Fusion Restaurant and Hookah Lounge,86,"104-07 Liberty Avenue, Ozone Park",Liberty ave,90
kennedy Fried Chicken,Kennedy Fried Chicken,100,"108-15 101st Avenue, New York",New York,90
S&A West Indian Restaurant,S&A West Indian Restaurant,100,"10306 Liberty Avenue, Queens",10306 Liberty Avenue,95
Romeo's Pizzeria,Romeo's Pizza,90,"103-20 Liberty Avenue, Ozone Park",103-20 Liberty Ave,90
FRESH 2 GO CORP,Incheon Restaurant Corp,86,"104-02 Liberty Avenue, Jamaica",Liberty ave,90
Betty Ann‚Äôs Place,Theresa's Polish American Restaurant,86,"98th Street, Ozone Park",Street,90
Long Hing Kitchen,Ming Hing Kitchen,88,"10422 Liberty Avenue, Jamaica",Liberty ave,90
New Happy Golden House,New Fulin Kwok Seafood Restaurant,86,"105-04 Liberty Avenue, Ozone Park",105-04 Liberty Ave,90
106 Deli & Grill,Deli & Grill,95,"10531 Liberty Avenue, Ozone Park",Liberty ave,90
Atlantic Diner,Diner,90,"111-16 Atlantic Avenue, South Richmond Hill",196 23 Jamaica Avenue,86
Italiana Cremosa,Gaetana's Cucina Italiana,86,"11011 101st Avenue, Jamaica",1st ave.,90
Chicago's Pizza With A Twist,Chicago's Pizza With A Twist,100,"11702 Atlantic Avenue, New York",New York,90
Chicago Style Pizza,Big Al's Chicago Style Pizza,95,"117-04 Atlantic Avenue, Jamaica",19625 Jamaica Ave,86
"Sohna Punjab Indian Restaurant & Bar - S Richmond Hill, Queens",Sohna Punjab,90,"117-10 Atlantic Avenue, South Richmond Hill",117-10 Atlantic Ave,90
India Cafe,Stars Cafe & Restaurant,86,"9408 Lefferts Boulevard, South Richmond Hill",Cristofordo Columbo Boulevard,86
Punjabi Kabab House,Hunan House Chinese Restaurant,86,"91-52 Lefferts Boulevard, Richmond Hill",91-15 31st Ave,86
Vincent & Andrea,Vincent & Andrea's Pizzeria,90,"11317 Jamaica Avenue, Richmond Hill",11317 Jamaica Ave,90
Jumbo Chinese Kitchen,"Golden Forest Chinese Restaurant, Brooklyn Ny",86,"113-04 Jamaica Avenue, Jamaica",Jamaica ave,90
Caribbean Cabana,Bea,90,"116-02 Jamaica Avenue, Queens",Jamaica ave,90
Deleon Latin Cuisine,Annie Chan's Japanese Cuisine Restaurant,86,"116-20 Jamaica Avenue, Richmond Hill",116-20 Jamaica Ave,90
Mi Casa,Mi Casa Bar & Restaurant,90,"116-20 Jamaica Avenue, Jamaica",116-20 Jamaica Ave,90
Alfie's Pizza,Pizza Pizza,95,"86-08 117th Street, Richmond Hill",Street,90
Kings Fried Chicken,Kings Fried Chicken and Pizza,90,"116-23 Jamaica Avenue, Queens",Jamaica ave,90
Crazy Willy's,Crazy Willy's,100,"117-10 Jamaica Avenue, Queens",117-10 Jamaica Ave,90
The Classic Diner,Diner,90,"117-33 Myrtle Avenue, New York",New York,90
Mizu Japanese Restaurant,Izumi Japanese Restaurant,94,"240 Page Avenue, Staten Island",Page Ave,90
Campania,Mangia,71,"240 Page Avenue, Staten Island",Page Ave,90
Peking Taste Page,Taste,90,"240 Page Avenue, Staten Island",Page Ave,90
Palermo Pizzeria And Restaurant LLC,Restaurant,90,"95 Page Avenue, Staten Island",95 Page Ave,90
Loon Chuan,Loon Chuan,100,"85 Page Avenue, Staten Island",85 Page Ave,90
Beaubourg,Bea,90,"225 Liberty Street, New York",225 Liberty St,90
Sweetcatch Poke,Esca,68,"185 Greenwich Street tower 4, New York",85 Greenwich St,90
Northern Tiger,146-13 Northern Blvd Korean Restaurant,86,"250 Vesey Street, New York","New York, New York",95
Umami Burger,Go Burger by BLT restaurants Group,86,"225 Liberty Street Suite 247, New York",225 Liberty St,90
Mumei,Marumi,73,"Four World Trade Center, 150 Greenwich Street, New York",New York,90
Eataly NYC Downtown,ATA,90,"Four World Trade Center, 101 Liberty Street floor 3, New York",New York,90
La Pizza & La Pasta,La Pizza & La Pasta,100,"101 Liberty Street 3rd floor, New York",New York,90
Panini Grill,Golden Krust Caribbean Bakery and Grill,86,"4 South Street, New York","New York, New York",95
Central Market Grill,Seafish Market Seafood Restaurant,86,"4 South Street, New York","New York, New York",95
Playa Bowls,Maya,68,"1 New York Plaza, 1 FDR Drive, New York",New York,90
Cappone‚Äôs Salumeria,Theresa's Polish American Restaurant,86,"1 New York Plaza, FDR Drive, New York",New York,90
Sabi Sushi,Ginpachi Sushi Restaurant,86,"1 New York Plaza, 1 FDR Drive, New York",New York,90
Los tacos City Habanero,El Rinconcito De Los Sabores Restaurant & Deli,86,"63-43 Whitehall Street, New York",New York,90
Rockwell's,Theresa's Polish American Restaurant,86,"105 Broad Street, New York","New York, New York",95
The Dead Rabbit Grocery and Grog,The Pine Restaurant,86,"30 Water Street, New York","New York, New York",95
OBAO,Bobo,75,"38 Water Street, New York","New York, New York",95
Bombay's,Bombay's Indian Restaurant,90,"60 Pearl Street, New York","New York, New York",95
Shorty's,Shorty's Roti Shop,90,"62 Pearl Street, New York","New York, New York",95
Justino's pizza,Pizza Pizza,95,"64 Fulton Street, New York","New York, New York",95
Squire's Diner,Diner,90,"80 Beekman Street #1, New York",New York,90
Kest√© Wall Street,Great Wall Chinese Restaurant,86,"77 Fulton Street, New York","New York, New York",95
Casa Taqueria,Casa,90,"40 Gold Street, New York","New York, New York",95
Matryoshka,Eros,68,"b/t William St & Gold St, 88 Fulton Street, New York",Fulton st,90
Bennie Thai Cafe,Cafe 47,86,"88 Fulton Street, New York","New York, New York",95
Tandoor Palace on Fulton,620 on Caton Pizzeria and Restaurant,86,"88 Fulton Street, New York","New York, New York",95
Cafe Seaport,Sea,90,"150 William Street, New York",New York,90
Stout NYC ~ FiDi,The NYC Bull - Restaurant & Rotisserie,86,"90 John Street, New York","New York, New York",95
Gran Morsi,La Gran Cabana Restaurant,86,"22 Warren Street, New York","New York, New York",95
Kaede,Kaede Japanese Restaurant,90,"90 Chambers Street, New York",90 Chambers St,90
Racines NY,"Golden Forest Chinese Restaurant, Brooklyn Ny",86,"94 Chambers Street, New York",New York,90
Sophie's Cuban Cuisine,Sophie's Cuban Cuisine,100,"96 Chambers Street, New York",New York,90
New Fresco Tortillas,New Fulin Kwok Seafood Restaurant,86,"63 Reade Street, New York","New York, New York",95
Acapulco Fajita,El Puerto De Acapulco Bar & Restaurant,86,"63 Reade Street, New York","New York, New York",95
Tre Sorelle,Tre Stelle Italian Restaurant&Bar,86,"61 Reade Street, New York","New York, New York",95
Los Tacos No. 1,Lucky 1 Chinese Restaurant,86,"136 Church Street, New York",New York,90
Aahar,Bahar,80,"10 Murray Street, New York","New York, New York",95
Dona Bella Pizza,Bella Pizza,95,"154 Church Street, New York",New York,90
Sole Di Capri,Fontana Di Trevi Restaurant,86,"165 Church Street, New York",New York,90
Poke' Bar,El Morro Restaurant & Bar,86,"11 Park Place, New York","New York, New York",95
The Beekman Pub,The Golden Glass Restaurant,86,"15 Beekman Street, New York",New York,90
Temple Court,Max Court Restaurant,86,"5 Beekman Street, New York","New York, New York",95
GRK Fresh Greek,Fresh Meadows Pizzeria and Restaurant,86,"111 Fulton Street, New York",Fulton,90
Pisillo Italian Panini,Ambrosia Italian and Albanian Restaurant,86,"97 Nassau Street, New York","New York, New York",95
Da Claudio,Da Wong Chinese Restaurant,86,"21 Ann Street, New York","New York, New York",95
gfg caf√© ‚Ä¢ cuisine,Annie Chan's Japanese Cuisine Restaurant,86,"168 William Street, New York",New York,90
Kgny,BKNY Thai Restaurant,68,"139 Fulton Street # 418, New York",Fulton,90
Rosella's Pizzeria,La Strada Pizzeria & Restaurant,86,"164 William Street #2611 between Ann St &, Beekman Street, New York",William St.,90
Melt Shop,O N Coffee Shop Restaurant,86,"111 Fulton Street, New York",Fulton,90
Sandwich House,Hunan House Chinese Restaurant,86,"17 Ann Street #1, New York","New York, New York",95
Brooklyn Chop House,"Golden Forest Chinese Restaurant, Brooklyn Ny",86,"150 Nassau Street, New York",New York,90
Pita Express,Pita Express,100,"15 Ann Street, New York","New York, New York",95
Joe‚Äôs Pizza,Joe's Pizza,100,"124 Fulton Street, New York",Fulton,90
Bluebird London NYC,Blue,90,"10 Columbus Circle, New York",New York,90
German Delights Inc.,Deli,90,"1 Columbus Circle, New York",New York,90
Columbus Circle Pizza,Columbus Circle Pizza,100,"10 Columbus Circle, New York",New York,90
Genji Izakaya,Gen,90,"10 Columbus Circle, New York",New York,90
Bar Masa,El Morro Restaurant & Bar,86,"10 Columbus Circle 4th Floor, New York",New York,90
Genji,Gen,90,"10 Columbus Circle, SC101",Columbus Circle,90
Blue Ribbon Sushi Bar & Grill,Blue,90,"308 West 58th Street, New York",New York,90
RedCork Food & Wine,famous restaurant Chinese food,86,"330 West 58th Street, New York",New York,90
Chick'nCone - Fork Free Chicken & Waffles!,Chicken Festival,86,"1000 S 8th Avenue, New York",New York,90
ABA Turkish Restaurant,ABA Turkish Restaurant,100,"325 West 57th Street, New York",New York,90
Nougatine,Nougatine at Jean Georges,90,"1 Central Park West, New York",Central Park,90
Nougatine at Jean-Georges,Nougatine at Jean Georges,100,"1 Central Park West, New York",Central Park,90
Lisa's dumplings,Theresa's Polish American Restaurant,86,"1000 8th Avenue, New York","New York, New York",95
All Stars Sports Bar & Grill,Star,90,"327 West 57th Street, New York",New York,90
El Mitote,El Morro Restaurant & Bar,86,"208 Columbus Avenue, New York",New York,90
Noi Due Carne,Due,90,"141 West 69th Street, New York",St 6,90
Noi Due Cafe,Due,90,"143 West 69th Street, New York",St 6,90
Francesco's Pizza,Pizza,90,"186 Columbus Avenue, New York",New York,90
Nanoosh,Tarboosh,67,"2012 Broadway, New York","New York, New York",95
Sapphire Cuisines of India,A Taste of Delicious Jamaican Restaurant,86,"2014 Broadway Between 68th and 69th Streets, New York",2014 Broadway,90
Vive la Cr√™pe,La Strada Pizzeria & Restaurant,86,"189 Columbus Avenue, New York",New York,90
Sushi Inoue,Ginpachi Sushi Restaurant,86,"35 West 64th Street, New York",St 6,90
Atlantic Grill,Golden Krust Caribbean Bakery and Grill,86,"49 West 64th Street, New York",St 6,90
Tavern On the Green,620 on Caton Pizzeria and Restaurant,86,"West 67th Street, New York","New York, New York",95
Cafe Fiorello,Fiore,90,"1900 Broadway, New York","New York, New York",95
Bar Boulud,El Morro Restaurant & Bar,86,"1900 Broadway, New York","New York, New York",95
Shun Lee West,C B Finger Licking Jamaican and West Indian Restaurant,86,"43 West 65th Street, New York",65th street,90
The Leopard at des Artistes,At Home Restaurant,86,"1 West 67th Street, New York",St 6,90
Disney ABC Cafeteria,Clifford Chance Cafeteria-Restaurant Associates,86,"77 West 66th Street, New York",St 6,90
P.J. Clarke's,Theresa's Polish American Restaurant,86,"44 West 63rd Street, New York",St 6,90
Melissa's Gourmet,Melissa's Gourmet Deli,95,"62 West 62nd Street, New York",St 6,90
The Casbah,The Golden Glass Restaurant,86,"160 West 66th Street, New York",St 6,90
Rosa Mexicano,Rosa Mexicano,100,"61 Columbus Avenue, New York",61 Columbus Ave,90
Second Wind,China Wind Restaurant,86,"70 West 68th Street, New York",St 6,90
Joanne Trattoria,Joanne Trattoria,100,"70 West 68th Street, New York",St 6,90
Sushi Kaito,Ginpachi Sushi Restaurant,86,"244 West 72nd Street, New York",New York,90
Sushi Yasaka,Ginpachi Sushi Restaurant,86,"251 West 72nd Street, New York",New York,90
My Most Favorite Food,My Most Favorite Food,100,"247 West 72nd Street, New York",New York,90
Fischer Bros & Leslie,2 Bros. Pizza,86,"230 West 72nd Street, New York",New York,90
Gebhard's Beer Culture,Theresa's Polish American Restaurant,86,"228 West 72nd Street, New York",New York,90
Cafe Bee,Stars Cafe & Restaurant,86,"239 West 72nd Street, New York",New York,90
Tacos y quesadillas Mexico,J Y R Restaurant,86,"2087 Broadway, New York","New York, New York",95
Fairway 74th Street Cafe,Cafe 47,86,"2121 Broadway, New York","New York, New York",95
Pokebab,Curry & Kebab,64,"2047 Broadway, New York","New York, New York",95
Cafe Luxembourg,Stars Cafe & Restaurant,86,"200 West 70th Street, New York",New York,90
Skyway Halal Gyro Truck,Halal,90,"2045 Broadway, New York","New York, New York",95
Wok City,Wok Wok,95,"153 Amsterdam Avenue, New York",Amsterdam avenue,90
Lucky Deli,Lucky Guy Deli,95,"12 East 37th Street #1, New York",37th,90
Caf√© China ÂÄæÂüé,China Gourmet Chinese Restaurant,86,"13 East 37th Street, New York",37th,90
Slattery's Midtown Pub,Slattery's Midtown Pub,100,"8 East 36th Street, New York",New York,90
W CAFE,Skyview Cafe & Delis,90,"390 5th Avenue, New York","New York, New York",95
Ritenow,El Caribeno,69,"6e East 38th Street, New York",New York,90
Royal 35 Steakhouse,Port Royal Jamaican Restaurant,86,"1 East 35th Street, New York",New York,90
The Morgan Dining Room,The Loft BKNY Restaurant & Lounge,86,"225 Madison Avenue, New York",New York,90
Japas NY,"Golden Forest Chinese Restaurant, Brooklyn Ny",86,"9 East 38th Street, New York",New York,90
PROOF Coffee Roasters,Proof Coffee Roaster,98,"420 5th Avenue, New York","New York, New York",95
Jerusalem Cafe,Stars Cafe & Restaurant,86,"7 West 36th Street, New York",New York,90
Yoon Haeundae Galbi,Ïã†Ï†ïÍ∞àÎπÑ | ShinJung Galbi (ShinJung Galbi),86,"8 West 36th Street, New York",New York,90
OMOMO,Chelsea Commons,72,"11 West 36th Street, New York",New York,90
Tonchin New York,New Fulin Kwok Seafood Restaurant,86,"13 West 36th Street, New York",New York,90
The Wayfarer,The Golden Glass Restaurant,86,"101 West 57th Street, New York",New York,90
Mangia 57th - Midtown Italian Food & Corporate Catering NYC,Danza's Italian Restaurant,86,"50 West 57th Street, New York",New York,90
Quality Meats,Quality Chef Chinese Restaurant,86,"57 West 58th Street, New York",New York,90
Angela's Sandwich Shop,Theresa's Polish American Restaurant,86,"1428 6th Avenue, New York","New York, New York",95
Angelo's Coal Oven Pizzeria,Angelo & Al‚Äôs Pizzeria,87,"117 West 57th Street, New York",New York,90
Cafe' Classico,Stars Cafe & Restaurant,86,"35 West 57th Street, New York",New York,90
Nobu Fifty Seven,Seven Stars Chinese Restaurant,86,"40 West 57th Street, New York",New York,90
Benihana,American Albenian Deli and Grocery,75,"47 West 56th Street, New York",New York,90
Contour,Centoure Bar And Restaurant,77,"50 Central Park South, New York",Central Park,90
Menkui-Tei,Ise Menkui-Tei,95,"58 West 56th Street, New York",New York,90
Bengal Tiger,Bengal Tiger,100,"58 West 56th Street, New York",New York,90
Beyond Sushi,Ginpachi Sushi Restaurant,86,"62 West 56th Street, New York",New York,90
Serafina Osteria,Osteria Gelsi Restaurant,86,"38 East 58th Street, New York",New York,90
Tokya,Totoya,73,"40 East 58th Street, New York",New York,90
Macaron Caf√©,Crotona's Caf√© Restaurant,86,"625 Madison Avenue, New York",New York,90
The Garden,The Garden Restaurant,90,"57 East 57th Street, New York",New York,90
Le Bilboquet,Le Fatima Bar & Grill Restaurant,86,"20 East 60th Street, New York",St 6,90
Avra Madison Estiatorio,MTA Bus - Madison St & Jefferson St (M22),86,"14 East 60th Street, New York",St 6,90
Freds Madison Avenue,The Restaurant At 432 Park Avenue,86,"660 Madison Avenue fl 9, New York",New York,90
Palette At BG,At Kazimir Restaurant,86,"754 5th Avenue, New York","New York, New York",95
Goodmans Cafe,Goodman's Cafe,96,"Beauty Level, 754 5th Avenue, New York",5th Avenue,90
BG,BG Restaurant,90,"754 5th Avenue Seventh Floor, New York",5th Avenue,90
Philippe Chow,Philippe,90,"33 East 60th Street, New York",St 6,90
Il Mulino New York ‚Äì Uptown,New Ho Wah,86,"37 East 60th Street, New York",St 6,90
Trump Grill,Golden Krust Caribbean Bakery and Grill,86,"725 5th Ave, New York","New York, New York",95
Pomona,Silver Spoon Restaurant,68,"8 West 58th Street, New York",New York,90
Armani/Ristorante 5th Avenue,Armani/Ristorante 5th Avenue,100,"717 5th Avenue, New York","New York, New York",95
47 Rockefeller Deli & Convenience Store,Annas Restaurant and Deli,86,"Subway, 1196 6th Ave Lower Level-47 Side, New York",New York,90
Taco Dumbo,Mister Taco Mexican Restaurant,86,"114 West 47th Street, New York",New York,90
Cafe Metro,Cafe M,90,"1221 6th Avenue C1B, New York",New York,90
deep indian kitchen (indikitch),Ming Hing Kitchen,86,"1190 6th Avenue, New York","New York, New York",95
TsuruTonTan Midtown,TANG,68,"64 West 48th Street, New York",New York,90
The Elgin,The Golden Glass Restaurant,86,"64 West 48th Street, New York",New York,90
Yama Ramen,Yama Japanese Restaurant,86,"60 West 48th Street, New York",New York,90
Biryani Cart,Student Biryani & Grill Restaurant,86,"112-100 W 46th St, 6th Avenue, New York",New York,90
Magee Mahon Cafe,Cafe 47,86,"58 West 48th Street, New York",New York,90
Tender Steak & Sushi,Tokyo Steak,86,"130 West 47th Street, New York",New York,90
Desi Food Truck,Desi Food Truck,100,"1221 6th Avenue, New York","New York, New York",95
Adel's Famous Halal Food,Famous Halal Food,95,"1221 6th Avenue, New York","New York, New York",95
Caf√© Fledermaus,Volna Caf√©,86,"1048 5th Avenue, New York","New York, New York",95
Piccola Cucina Uptown,La Cucina,90,"106 East 60th Street, New York",St 6,90
Maison Vivienne,Maison May,86,"116 East 60th Street, New York",St 6,90
Amali,Tamali Lady / Food Truck,90,"115 East 60th Street, New York",St 6,90
The Bar Room,El Morro Restaurant & Bar,86,"117 East 60th Street, New York",St 6,90
Gourmet Park,China Gourmet Chinese Restaurant,86,"119 East 60th Street, New York",St 6,90
Oxford Cafe,Stars Cafe & Restaurant,86,"109 East 59th Street, New York",New York,90
Akoe,Ako,86,"129 East 60th Street, New York",St 6,90
Lezzet,Lezzet Mediterranean Turkish Restaurant,90,"132 East 61st Street, New York",St 6,90
Feinstein's at Loews Regency Hotel,Moti's,86,"540 Park Avenue #210, New York",New York,90
Green Gourmet Deli & Sushi,Deli,90,"790 Lexington Avenue, New York",New York,90
Lilli and Loo,Ghoroa Sweets and Restaurant,86,"792 Lexington Avenue, New York",New York,90
Bar Italia,Vivo Restaurant & Bar Italian Cuisine,90,"768 Madison Avenue, New York",New York,90
Match 65 Brasserie,"Duet Brasserie, Bakery & Catering",86,"29 East 65th Street, New York",65th street,90
Daniel,Daniel,100,"60 East 65th Street, New York",65th street,90
Arabelle,La Caravelle Restaurant,79,"37 East 64th Street, New York",St 6,90
Pastafina,Pastafina,100,"876 Lexington Avenue, New York",876 Lexington Ave,90
Panda Bubble Tea,Panda Chinese Restaurant,86,"858 Lexington Avenue, New York",New York,90
Little luzzo's Ciro Adamo,Luzzo's,90,"119 East 96th Street, New York",New York,90
The Rochard NYC,Ocha,90,"1504 Lexington Avenue, New York",New York,90
Bardolino Pizza,Pizza Pizza,95,"1505 Lexington Avenue, New York",1505 Lexington Ave,90
Bonjour Crepes & Wine,7 Old Fulton Restaurant and Wine Bar,86,"1442 Lexington Avenue, New York",New York,90
Judy's,Judy's Restaurant,90,"1505 Lexington Avenue, New York",1505 Lexington Ave,90
T & J,"Rincon Montane Restaurant , Jamaica",90,"1257 Park Avenue, New York","New York, New York",95
Barking Dog,Salty Dog Bar and Restaurant,86,"1678 3rd Avenue, New York","New York, New York",95
Earl's Beer and Cheese,Ambrosia Italian and Albanian Restaurant,86,"1259 Park Avenue, New York","New York, New York",95
LaRustica Pizza,La Rustica Pizza,97,"1426 Lexington Avenue, New York",New York,90
The District,The Golden Glass Restaurant,86,"1679 3rd Avenue #2522, New York",New York,90
Zesty Pizzeria,La Strada Pizzeria & Restaurant,86,"1670 3rd Avenue, New York","New York, New York",95
Isohama,Isohama,100,"1666 3rd Avenue, New York","New York, New York",95
El Paso Taqueria,El Morro Restaurant & Bar,86,"64 East 97th Street, New York",New York,90
O'Flanagan's Bar & Grill,Theresa's Polish American Restaurant,86,"1664 3rd Avenue, New York","New York, New York",95
Korali Estiatorio,Li Li,86,"1662 3rd Avenue, New York","New York, New York",95
Bread N Wine,All Refrigeration 'N Restaurant Equipment,86,"1417 Lexington Avenue, New York",New York,90
Fish Bone,Fish,90,"4525 Church Avenue, Brooklyn",brooklyn,90
Danny's Tasty Delight,Tasty Deli,90,"778 Lenox Road, Brooklyn",brooklyn,90
Best Bites Restaurant,Best Bites,90,"4601 Church Avenue, Brooklyn",4601 Church Ave,90
FRIED CHICKEN WITH THE SAUCE,The Restaurant,86,"4605 Church Avenue, Brooklyn",4605 Church Ave,90
Faye and King's Express,Ambrosia Italian and Albanian Restaurant,86,"4605 Church Avenue, Brooklyn",4605 Church Ave,90
J&K Jerk Chicken & Grill,Golden Krust Caribbean Bakery and Grill,86,"907 New York Avenue, Brooklyn",New York,90
Katie O's,Katie O's Restaurant,90,"452 East New York Avenue, Brooklyn",New York,90
Culpeppers,Eros,68,"1082 Nostrand Avenue, Brooklyn",Nostrand Avenue,90
Krystal Bar & Lounge,Bar Sol De Quito Restaurant II,86,"1534 University Avenue, The Bronx",196 23 Jamaica Avenue,86
MG. 54 Catering Hall,Zaffran Party Hall & restaurant,86,"1542 University Avenue, The Bronx",196 23 Jamaica Avenue,86
MG54 BAR & LOUNGE,Bar Sol De Quito Restaurant II,86,"1548 -1546, University Avenue, The Bronx",196 23 Jamaica Avenue,86
Wasakaka,ASEA,68,"2440 Amsterdam Avenue, New York",Amsterdam avenue,90
Emergency Snack Bar,Gen,90,"1354 Edward L Grant Highway, The Bronx",943 ave. l,86
The Heights,The Golden Glass Restaurant,86,"203 Audubon Avenue, New York",New York,90
NYY Steak,Mambi Steak House Bar & Grill,86,"1 East 161 Street, The Bronx",Street,90
Bronx Gyro,"Airways Pizza, Gyro & Restaurant",86,The Bronx,"1095 Prospect Ave, Bronx, NY 10459",86
US Kennedy's Chicken & Pizza,Kennedy Pizza & Chicken,95,United States,"2578 Broadway, New York, NY 10025, United States",90
El Nuevo Yoly. Restaurant,Restaurant,90,"118 Featherbed Lane, The Bronx",118-00 Sutphin Blvd,86
Yoly Restaurant,Yoly Restaurant,100,"118 Featherbed Lane, The Bronx",118-00 Sutphin Blvd,86
Sosua Restaurant,Restaurant,90,"57 West 170th Street, The Bronx",Street,90
Pizza Cachapas Y Mas,Pizza,90,"59 West 170th Street, The Bronx",Street,90
Emily Coffee Shop,Coffee Shop,90,"1368 Cromwell Avenue, The Bronx",311 Avenue X,86
Suyo,Sumo Sushi,68,"1401 Plaza Drive, The Bronx",220 Cadman Plaza W,86
Tacos Luna,La Luna Restaurant,86,"1412-1448, Jerome Avenue, The Bronx",196 23 Jamaica Avenue,86
Coffee cosina,Coffee,90,"1350 Jerome Avenue, The Bronx",311 Avenue X,86
Pizza Express,Pizza Express,100,"19 East 170th Street, The Bronx",Street,90
Paul‚Äôs Daughter,Theresa's Polish American Restaurant,86,"1001 Riegelmann Boardwalk, Brooklyn",Boardwalk,90
Sausage Heros Hot Pizza,Eros,90,Brooklyn,brooklyn,100
Pete‚Äôs Clam Stop,Theresa's Polish American Restaurant,86,"1320 Surf Avenue, Brooklyn",brooklyn,90
Mi Candileja Restaurant,Mi Candileja,90,"1509 Mermaid Avenue, Brooklyn",1509 Mermaid Ave,90
Nathan's Famous - Coney Island,Moti's,86,"1310 Surf Avenue, Brooklyn",brooklyn,90
Pizza On The Run,Pizza On The Run,100,"2914 Stillwell Avenue, Brooklyn",brooklyn,90
Turkish Kebab House,Hunan House Chinese Restaurant,86,"2904 Stillwell Avenue, Brooklyn",brooklyn,90
Tom's,Tom's Restaurant,90,"1229 Riegelmann Boardwalk, Brooklyn",Boardwalk,90
Ruby's Bar & Grill,Ruby,90,"1213 Riegelmann Boardwalk, Brooklyn",Boardwalk,90
The Caf√© at Wave Hill,The Loft BKNY Restaurant & Lounge,86,"675 West 249th Street, The Bronx",9th St,90
Corner Cafe & Bakery,Corner Cafe & Bakery,100,"3718 Riverdale Avenue, The Bronx",196 23 Jamaica Avenue,86
Empire 19,Empire Restaurant,86,"19 Knolls Crescent, The Bronx",25-19 Parsons Blvd,86
Famous Pizza Express,Pizza,90,"570 Kappock Street #6402, The Bronx",Street,90
Siam Square,Chelsea Square Restaurant,86,"564 Kappock Street, The Bronx",Street,90
Indian Road Cafe,Cafe 47,86,"600 West 218th Street, New York",New York,90
Taqueria Sinaloense,Mi Barrio Taqueria Restaurant,86,"113 West 225th Street, The Bronx",Street,90
China Wang,China Wang,100,"109 West 225th Street, The Bronx",Street,90
Arturo's Pizza,Arturo's Pizza,100,"5189 Broadway, West 225th Street, The Bronx",Broadway,90
Arturo's Pizza,Arturo's Pizza,100,"5189 Broadway Ste A, The Bronx",Broadway,90
Ceniza Restaurant Two,Restaurant,90,"5085 Broadway, New York","New York, New York",95
Dunkin Donuts,Dunkin',90,"5201 Broadway, New York","New York, New York",95
Amore juice bar,El Morro Restaurant & Bar,86,"5025 Broadway, New York","New York, New York",95
El Nuevo Sabor,El Nuevo Sabor Restaurante,90,"4032 10th Avenue, New York","New York, New York",95
Cafe Tabaco & Ron,Cafe 47,86,"501 West 214th Street # A, New York",New York,90
Piccoli Take Out,New Good Joy Take Out Restaurant,86,"157 A Prospect Park Southwest, Brooklyn",brooklyn,90
Bene,Bene Restaurant & Pizzeria,90,"157 Prospect Park Southwest, Brooklyn",brooklyn,90
Le Paddock,Le Fatima Bar & Grill Restaurant,86,"1235 Prospect Avenue, Brooklyn",brooklyn,90
Cena,Oceana,80,"601 Greenwood Avenue, Brooklyn",brooklyn,90
Little Toninos Pizzeria & Cafe,Cafe 47,86,"424 Greenwood Avenue, Brooklyn",brooklyn,90
Szechuan Garden,szechuan garden restaurant,90,"463 7th Avenue, Brooklyn",7th Ave,90
Java,Java Indonesian Rijsttafel,90,"455 7th Avenue, Brooklyn",455 7th Ave,90
kiku sushi,Kiku,90,"453 7th Avenue, Brooklyn",7th Ave,90
Mike Daddy's Pizza,Mike Daddy's Pizza,100,"449 7th Avenue, Brooklyn",7th Ave,90
Gnarly Eats,EATS DELICIOUS BAKERY & RESTUARANT,86,"447 7th Avenue, Brooklyn",7th Ave,90
Camperdown Elm,Vinegar Hill House Foods @ West Elm,86,"441 7th Avenue, Brooklyn",7th Ave,90
Brancaccio's Food Shop,Brancaccio's,90,"3011 Fort Hamilton Parkway, Brooklyn",brooklyn,90
Uncle Frankie's Pizza,Pizza,90,"3007 Fort Hamilton Parkway, Brooklyn",3007 Fort Hamilton Parkway,95
Yummy Thai,Yummy Yummy,95,"383 Flatbush Avenue, Brooklyn",Flatbush ave,90
Kami Asian,Okami Asian Fusion Restaurant,90,"385 Flatbush Avenue, Brooklyn",Flatbush ave,90
El Paso,El Paso Restaurant,90,"387 Flatbush Avenue, Brooklyn",Flatbush ave,90
Hungry Ghost,OTB,60,"183 Sterling Place, Brooklyn",brooklyn,90
El Gran Castillo De Jagua,El Castillo De Jagua,95,"355 Flatbush Avenue, Brooklyn",Flatbush ave,90
Fausto,Sabor Del Austro Restaurant,75,"348 Flatbush Avenue, Brooklyn",Flatbush ave,90
Wing Wagon,Wing xin chinese restaurant,86,"351 Flatbush Avenue, Brooklyn",Flatbush ave,90
Autumn,Matamin Dairy Restaurant,60,"349 Flatbush Avenue, Brooklyn",Flatbush ave,90
Antonio's,Antonio's Restaurant,90,"318 Flatbush Avenue, Brooklyn",Flatbush ave,90
Sushi Lin,Ginpachi Sushi Restaurant,86,"335 Flatbush Avenue, Brooklyn",Flatbush ave,90
Ruby Kitchen,Ruby,90,"162 Park Place, Brooklyn",brooklyn,90
Dao Palate,East Palate Restaurant,86,"329 Flatbush Avenue, Brooklyn",Flatbush ave,90
Milk River Restaurant,Milk River Restaurant,100,"960 Atlantic Avenue B, Brooklyn",960 Atlantic Ave,90
Best Burger Palace,Best China,86,"986 Atlantic Avenue, Brooklyn",brooklyn,90
Vegetarian palate,Ital Shak Vegetarian Restaurant,86,"603 Washington Avenue, Brooklyn",brooklyn,90
Sapid,Sapid Indian Restaurant,90,"595 Washington Avenue, Brooklyn",595 Washington Ave,90
Nate,POMEGRANATE DELI,90,"595 Washington Avenue, Brooklyn",595 Washington Ave,90
Look,Overlook,90,"622 Washington Avenue, Brooklyn",brooklyn,90
Art Cafe + Bar,El Morro Restaurant & Bar,86,"884 Pacific Street, Brooklyn",brooklyn,90
Belli Osteria,Osteria Gelsi Restaurant,86,"860 Fulton Street, Brooklyn",Fulton,90
Emily,Emily's Restaurant,90,"919 Fulton Street, Brooklyn",Fulton,90
likkle jamaican dumpling house & library,Dumpling House,90,"884 Fulton Street, Brooklyn",Fulton,90
James,James,100,"605 Carlton Avenue, Brooklyn",605 Carlton Ave,90
Burrito Bar and Kitchen,Ambrosia Italian and Albanian Restaurant,86,"307 Flatbush Avenue, Brooklyn",Flatbush ave,90
Cheryl's Global Soul,Cheryl's Global Soul,100,"236 Underhill Avenue, Brooklyn",brooklyn,90
King David Tacos,King Wok Chinese Restaurant,86,"Grand Army Plaza, Brooklyn",brooklyn,90
Grand Panda,Panda Chinese Restaurant,86,"10403 Glenwood Road, Brooklyn",brooklyn,90
Heng Chang,Chang Jiang Kitchen Chinese Restaurant,86,"2042 Rockaway Parkway, Brooklyn",brooklyn,90
Brooklyn Lifestyle Athletic Club,Club Deli Restaurant,86,"1500 Paerdegat Avenue North, Brooklyn",brooklyn,90
Richard's,Richard's Fine Foods And Bordello,90,"9112 Avenue L, Brooklyn",brooklyn,90
La Tranquilit√© L'Impressioniste,La Badee Restaurant,86,"9128 Avenue L, Brooklyn",brooklyn,90
Richard's Diner & Catering,Diner,90,"9712 Seaview Avenue, Brooklyn",brooklyn,90
Food King,New Food King,95,"9202 Avenue L #A, Brooklyn",brooklyn,90
Happy Taco,Happy Family Restaurant,86,"9202 Avenue L, Brooklyn",brooklyn,90
Yi Hong,Tong Sam Gyup Goo Yi Restaurant,86,"9103 Avenue L, Brooklyn",brooklyn,90
Ghetto Shack Restaurant,Restaurant,90,"9320 Avenue L, Brooklyn",brooklyn,90
Honey Bee's,Theresa's Polish American Restaurant,86,"9322 Avenue L, Brooklyn",brooklyn,90
Richard's Restaurant and Bar,Restaurant,90,"9404 Avenue L, Brooklyn",brooklyn,90
Il Posto,Il Miglio Pizza & Italian Restaurant,86,"7409 Avenue U, Brooklyn",Avenue U,90
Park Place Restaurant,Market Place Restaurant,91,"7409 Avenue U, Brooklyn",Avenue U,90
Wilkens Fine Foods,Wilkens Fine Foods,100,"7114 Avenue U, Brooklyn",Avenue U,90
Bergen Beach Cafe,Gen,90,"7112 Avenue U 1st Floor, Brooklyn",Avenue U,90
Joann's Cuisine,Theresa's Polish American Restaurant,86,"729 East 87th Street, Brooklyn",brooklyn,90
Ashoka Grill,Golden Krust Caribbean Bakery and Grill,86,"1436 Flatbush Avenue, Brooklyn",Flatbush ave,90
Mei Jung Mei,Mei Jung Mei Chinese Restaurant,90,"1402 Flatbush Avenue, Brooklyn",Flatbush ave,90
BG Caf√© Creole,Kween Creole Restaurant,86,"1366 Flatbush Avenue, Brooklyn",Flatbush ave,90
Taste Of The City fresh grill,Taste,90,"1368 Flatbush Avenue, Brooklyn",Flatbush ave,90
Yoyo Fritaille,Kay Manmanm Restaurant and Fritaille,86,"2811 Glenwood Road, Brooklyn",brooklyn,90
OOH LA LA Ambience Express,La Palina,86,"1433 Flatbush Avenue, Brooklyn",Flatbush ave,90
Mirna's Pupuseria,Theresa's Polish American Restaurant,86,"1350 Flatbush Avenue, Brooklyn",Flatbush ave,90
New Golden,New Golden Restaurant,90,"1483 Flatbush Avenue, Brooklyn",Flatbush ave,90
Bake & Things,Bake & Things,100,"1489 Flatbush Avenue, Brooklyn",Flatbush ave,90
Fritaille 5 Star,Star,90,"1347 Flatbush Avenue, Brooklyn",Flatbush ave,90
El Pilon Italy,El Morro Restaurant & Bar,86,"1306 Flatbush Avenue, Brooklyn",Flatbush ave,90
El Ranchito Poblano,El Mexicano,86,"1306 Flatbush Avenue, Brooklyn",Flatbush ave,90
Exquisite Supreme,Taste Supreme Jamaican Restaurant,86,"2905 Glenwood Road, Brooklyn",brooklyn,90
McBeans,Bea,90,"1501 Flatbush Avenue, Brooklyn",Flatbush ave,90
El Paso,El Paso Restaurant,90,"1610 Newkirk Avenue, Brooklyn",1610 Newkirk Ave,90
Westwood Bar,El Morro Restaurant & Bar,86,"1715 Foster Avenue, Brooklyn",brooklyn,90
Family Kitchen,Happy Family Restaurant,86,"1709 Foster Avenue, Brooklyn",brooklyn,90
Don Burrito,Don Pepe Restaurant,86,"5 Newkirk Plaza, Brooklyn",brooklyn,90
Wattli Bar & Kitchen,Bar Sol De Quito Restaurant II,86,"1505 Newkirk Avenue, Brooklyn",brooklyn,90
Pablo's Diner,Diner,90,"43 Newkirk Plaza, Brooklyn",brooklyn,90
Tacos El Paisano,Tacos El Paisa,93,"East 16th st. Foster Ave East 16th st, Cortelyou Road, Brooklyn",brooklyn,90
Tacos El Paisano,Tacos El Paisa,93,"East 16th St and, Foster Avenue, Brooklyn",brooklyn,90
Sunset Bagels,Sunset Restaurant Diner,86,"1501 Foster Avenue, Brooklyn",brooklyn,90
BBQ,Korean BBQ Restaurant,90,Brooklyn,brooklyn,100
The Ox Tavern,The Golden Glass Restaurant,86,"1301 Newkirk Avenue, Brooklyn",brooklyn,90
El Charro de Morelos Cafe,Cafe 47,86,"1228 Flatbush Avenue, Brooklyn",Flatbush ave,90
Koko,Tokyo Steak,68,"375 Marlborough Road, Brooklyn",brooklyn,90
Albaik Express Halal Food,Express Halal Food,95,"E 16 Cortelyou Road, Brooklyn",brooklyn,90
Dacta Bird,Golden Bird Chinese Food,86,"1553 Ralph Avenue, Brooklyn",brooklyn,90
New Style Pappa's Fried,Theresa's Polish American Restaurant,86,"5930 Glenwood Road, Brooklyn",brooklyn,90
Golden Village,"Golden Forest Chinese Restaurant, Brooklyn Ny",86,"5912 Glenwood Road, Brooklyn",brooklyn,90
Kam Fung Kitchen,Kam Luang Kitchen,91,"5221 Avenue N, Brooklyn",brooklyn,90
Tony Pepperoni II,Bar Sol De Quito Restaurant II,86,"5011 Avenue N, Brooklyn",brooklyn,90
George's Luncheonette,Theresa's Polish American Restaurant,86,"2157 Utica Avenue, Brooklyn",brooklyn,90
Katou,katou restaurant,90,"5012 Avenue M, Brooklyn",brooklyn,90
Bellyful Bar & Grill,Bar Sol De Quito Restaurant II,86,"2102 Utica Avenue, Brooklyn",2102 Utica Ave,90
876,876 Jamaican Restaurant,90,"2102 Utica Avenue, Brooklyn",2102 Utica Ave,90
Spring Garden,Spring Gardens Jamaican Restaurant,90,"4710 Avenue N, Brooklyn",brooklyn,90
New Bok Choy & Roll,New Fulin Kwok Seafood Restaurant,86,"4703 Avenue N, Brooklyn",brooklyn,90
Battista,Battista Restaurant,90,"4602 Avenue N, Brooklyn",4602 Avenue N,90
Saigon Grill & Bar,Bar Sol De Quito Restaurant II,86,"4521 Avenue N, Brooklyn",brooklyn,90
China New Star,China New Star,100,"2212 Flatbush Avenue, Brooklyn",Flatbush ave,90
Floridian Diner,Diner,90,"2301 Flatbush Avenue, Brooklyn",Flatbush ave,90
Halsey Bar & Grill,Bar Sol De Quito Restaurant II,86,"4404 Avenue H, Brooklyn",brooklyn,90
CZEN Restaurant,Ocean Restaurant,90,"4410 Avenue H, Brooklyn",brooklyn,90
Lello's Pizza,Pizza Pizza,95,"4018 Glenwood Road, Brooklyn",brooklyn,90
JJ's Fritaille,Theresa's Polish American Restaurant,86,"4021 Glenwood Road, Brooklyn",brooklyn,90
Bklyn Prime,PRIME Rooftop Lounge at the Bentley,86,"4315 Farragut Road, Brooklyn",brooklyn,90
Blue Mountain,Blue Mountain Farm,95,"1695 Utica Avenue, Brooklyn",brooklyn,90
Bean & Bean Queens,Queen,90,"252-29 Northern Boulevard, Little Neck",147-18 Northern Blvd,86
Turquoise Seafood Restaurant,Restaurant,90,"25309 Northern Boulevard, Little Neck",147-18 Northern Blvd,86
Little Saigon Restaurant,Restaurant,90,"25309 Northern Boulevard, Little Neck",147-18 Northern Blvd,86
La Baraka,La Baraka Restaurant,90,"25509 Northern Boulevard, Flushing",147-18 Northern Blvd,86
Bangkok Avenue,Church Avenue Restaurant,86,"253-21 Northern Boulevard, Queens",147-18 Northern Blvd,86
Greek Islands,Greek Islands,100,"25317 Northern Boulevard, Little Neck",147-18 Northern Blvd,86
Little MooshuÊûóËÆ∞Á≥ñÂç§È∏≠,Little Bandgladesh Restaurant,86,"253-13 Northern Boulevard, Queens",147-18 Northern Blvd,86
Caf√© 1 of a Kind,Lucky 1 Chinese Restaurant,86,"255-13 Northern Boulevard, Queens",147-18 Northern Blvd,86
Kebab House,Hunan House Chinese Restaurant,86,"255-05 Northern Boulevard, New York",New York,90
Yasaya,Maya,68,"253-250 Northern Boulevard, New York",New York,90
Yasaiya,Maya,68,"25211 Northern Boulevard, New York",New York,90
La Parada Express,La Parada,90,"460 3rd Avenue, Brooklyn",brooklyn,90
Table 87,"The Round Table Restaurant, at The Algonquin",86,"473 3rd Avenue, Brooklyn",brooklyn,90
Michael & Ping's,Theresa's Polish American Restaurant,86,"437 3rd Avenue, Brooklyn",437 3rd Ave,90
Villa Mia Pizza,Villa Pizza,95,"526 3rd Avenue, Brooklyn",brooklyn,90
Number One Deli,Deli,90,"536 3rd Avenue, Brooklyn",536 3rd Ave,90
Surfish Bistro,Fish,90,"550 3rd Avenue, Brooklyn",brooklyn,90
Gueros,Eros,90,"494 4th Avenue, Brooklyn",4th Ave,90
Shelsky's Brooklyn Bagels,Moti's,86,"453 4th Avenue, Brooklyn",4th Ave,90
Olivier Bistro,Luna Asian Bistro and Japanese Rooftop Restaurant Êó•Êú¨ÊñôÁêÜ,86,"469 4th Avenue, Brooklyn",4th Ave,90
Pulia Restaurant,Puglia Restaurant,97,"548 4th Avenue, Brooklyn",4th Ave,90
Athena Mediterranean Cuisine,Athena Mediterranean Cuisine,100,"535 6th Avenue, Brooklyn",535 6th Ave,90
Belli Osteria,Osteria Gelsi Restaurant,86,"522 6th Avenue, Brooklyn",brooklyn,90
Piccoli Trattoria,Maria's Trattoria Restaurant,86,"522 6th Avenue, Brooklyn",brooklyn,90
Princess,Princess Pizzeria,90,"535 5th Avenue, Brooklyn",535 5th Ave,90
Sidecar,Hillside Car Wash,77,"560 5th Avenue, Brooklyn",5th Avenue,90
King Royal Fried Chicken,King Hing,86,"590 5th Avenue, Brooklyn",5th Avenue,90
Lenny's Pizzeria,Lenny's Pizzeria,100,"594 5th Avenue #5436, Brooklyn",5th Avenue,90
Empanada Loca,Boca Loca Restaurant,86,"606 5th Avenue, Brooklyn",5th Avenue,90
Mariella,Labella Mariella Pizzeria,90,"492 6th Avenue, Brooklyn",brooklyn,90
Fonda,Fonda,100,"434 7th Avenue, Brooklyn",434 7th Ave,90
Soigne,Soigne,100,"486 6th Avenue, Brooklyn",486 6th Ave,90
Baciccia Pizza e Cucina,Pizza,90,"426A 7th Avenue, Brooklyn",7th Ave,90
Colony 274,Canlon's,56,"274 4th Avenue, Brooklyn",4th Ave,90
Daigo Sushi Roll Bar,Bar Sol De Quito Restaurant II,86,"527 Carroll Street, Brooklyn",brooklyn,90
Gowanus Gardens,Spring Gardens Jamaican Restaurant,86,"256 4th Avenue, Brooklyn",4th Ave,90
My Cuban Spot,Cuba,90,"488 Carroll Street, Brooklyn",brooklyn,90
Cottabene Well Done Pizza Corporation,Pizza,90,"488 Carroll Street, Brooklyn",brooklyn,90
Rice & Beans,Rice 'n' Beans,95,"234 4th Avenue, Brooklyn",234 4th Ave,90
Baba's Pierogies,Theresa's Polish American Restaurant,86,"295 3rd Avenue, Brooklyn",brooklyn,90
Pizza Cotta Bene,Pizza Pizza,95,"291 3rd Avenue, New York","New York, New York",95
Runner & Stone,One & One,86,"285 3rd Avenue, Brooklyn",brooklyn,90
Union Street Pizza,Pizza,90,"226 4th Avenue, Brooklyn",4th Ave,90
Dinosaur Bar-B-Que,Bar Sol De Quito Restaurant II,86,"604 Union Street, Brooklyn",brooklyn,90
Taheni,PARIS Authentic Vietnamese Restaurant,75,"224 4th Avenue, Brooklyn",224 4th Ave,90
Littleneck,Li Li,86,"288 3rd Avenue, Brooklyn",brooklyn,90
Claro,Carlos Restaurant Equipment,72,"284 3rd Avenue, Brooklyn",brooklyn,90
Brownstone Bagels,One & One,86,"671 Union Street, Brooklyn",brooklyn,90
PDA Pizza,Pizza Pizza,95,"669 Union Street, Brooklyn",brooklyn,90
Wangs,China Wang,80,"671 Union Street, Brooklyn",brooklyn,90
Joe's Pizza of Park Slope,Pizza,90,"483 5th Avenue, Brooklyn",5th Avenue,90
New Far East,New Fulin Kwok Seafood Restaurant,86,"471A 5th Avenue, Brooklyn",5th Avenue,90
Peppino's,Peppino's Italian Family Restaurant,90,"469 5th Avenue, Brooklyn",5th Avenue,90
Nuevo Mexico,Mexico Magico Restaurant,86,"489 5th Avenue, Brooklyn",5th Avenue,90
South Slope Eatery,95 South Soul Food Restaurant,86,"486 5th Avenue, Brooklyn",5th Avenue,90
Bar Toto,El Morro Restaurant & Bar,86,"411 11th Street, Brooklyn",brooklyn,90
Daisy's Diner,Diner,90,"452 5th Avenue, Brooklyn",5th Avenue,90
Dram Shop,O N Coffee Shop Restaurant,86,"339 9th Street, Brooklyn",brooklyn,90
Pitas and Sticks,Ghoroa Sweets and Restaurant,86,"321 9th Street, Brooklyn",brooklyn,90
Fatty Daddy Taco,Big Daddy's Caribbean Taste Restaurant,86,"310 9th Street, Brooklyn",brooklyn,90
Empire Express,Empire Express Chinese Restaurant,90,"319 9th Street, Brooklyn",319 9th St,90
El Viejo Yayo 2,El Viejo Yayo,95,"317 9th Street, Brooklyn",317 9th St,90
SkyIce 9th St.,St. John's University Hostel,86,"437 5th Avenue, Brooklyn",5th Avenue,90
Crumbs & Coffee,Crumbs & Coffee,100,"423 5th Avenue, Brooklyn",5th Avenue,90
Fifth Avenue Diner,Fifth Avenue Diner,100,"432 5th Avenue, Brooklyn",432 5th Ave,90
Do√±a Zita,Plaza Mexico Dona Zita,86,"568 4th Avenue, Brooklyn",568 4th Ave,90
Supreme Memorials,Taste Supreme Jamaican Restaurant,86,"610 4th Avenue, Brooklyn",4th Ave,90
Taste of Oriental,Taste,90,"614 4th Avenue, Brooklyn",4th Ave,90
Angelina's Restaurant,Angelina's Pizza Restaurant,95,"399 Ellis Street, Staten Island",Street,90
Moe's 1 Gourmet Deli,Moe's 1 gourmet deli,100,"2738 Frederick Douglass Boulevard, New York",New York,90
Garcia's Tulcingo Mexican Products,Tulcingo,90,New York,New York,100
People's Choice,People's Choice Food Truck,90,"2733 Frederick Douglass Boulevard, New York",New York,90
PEQUE Vinos & Tapas,Sangria Tapas Bar & Restaurant,86,"231 West 145th Street, New York",45th street,90
Tsion Cafe,Stars Cafe & Restaurant,86,"763 Saint Nicholas Avenue, New York",New York,90
New Garden Empire,Empire Garden,95,"757 Saint Nicholas Avenue, New York",757 Saint Nicholas Ave,90
Yatenga,TANG,68,"3023, 2269 Adam Clayton Powell Junior Boulevard #1, New York",New York,90
Africa Kine,Africa Kine Restaurant,90,"2267 Adam Clayton Powell Junior Boulevard, New York",New York,90
Harlem Hops,El Nuevo Harlem Restaurant,86,"2268 Adam Clayton Powell Junior Boulevard, New York",New York,90
Meet Me at Mama's,Theresa's Polish American Restaurant,86,"2308 Adam Clayton Powell Junior Blvd Front 1, New York",New York,90
Mini Market best wey,Seafish Market Seafood Restaurant,86,"2320 Adam Clayton Powell Jr Blvd, 136 street Adam Clayton Powell Junior Boulevard, New York",Adam Clayton Powell,90
88,88 Palace,90,"133 West 134th Street, New York",New York,90
Palomino Halal Food,Palomino Halal Food Truck,95,"101 West 135th Street, New York",New York,90
Family Coffee Truck,Coffee  Truck,95,"101 West 135th Street, New York",New York,90
Island Spice Grill Caribbean cuisine,Spice,90,"492 Malcolm X Boulevard, New York",New York,90
Jumbo Hamburgers,Jumbo Chinese Restaurant,86,"274 West 145th Street, New York",45th street,90
Cityone,City One Chinese Restaurant,77,"2726 Frederick Douglass Boulevard A, New York",New York,90
"My Queen, Halal Food",My Queen Halal Food Truck,95,"300 West 145th Street, New York",45th street,90
Parfect halal food,Halal Food,90,"300 West 145th Street, New York",45th street,90
House of Seafood Express 2,Food Express,90,"2496 Adam Clayton Powell Junior Boulevard, New York",New York,90
Jacob's,Jacob's Restaurant,90,"2695 Frederick Douglass Boulevard, New York",New York,90
King Barka,King Barka Restaurant,90,"2515 Adam Clayton Powell Junior Boulevard, New York",New York,90
Ho Lee Restaurant,Ho Lee Restaurant,100,"2493 Adam Clayton Powell Junior Boulevard, New York",New York,90
United Fried Chicken,Restaurant Opportunities Center United,86,"2519 Adam Clayton Powell Junior Boulevard, New York",New York,90
Hong Garden,Garden 13 Dairy Restaurant and Pizza,86,"2515 Adam Clayton Powell Junior Boulevard, New York",New York,90
Yuzu Premium Sushi Restaurant,Restaurant,90,"350 Malcolm X Boulevard STE, New York",New York,90
Babbalucci,Lucien,66,"331 Malcolm X Boulevard, New York",New York,90
Ricky's Hardee,Theresa's Polish American Restaurant,86,"429 Mother Gaston Boulevard, Brooklyn",brooklyn,90
International Coffee Shop,International Coffee Shop,100,"556 Wortman Avenue, Brooklyn",brooklyn,90
Boston Raw Food,Raw,90,"1078 Essex Street, Brooklyn",brooklyn,90
New Wah On,New Fulin Kwok Seafood Restaurant,86,"986 Sutter Avenue, Brooklyn",brooklyn,90
Golden China,Golden China,100,"1013 Sutter Avenue, Brooklyn",brooklyn,90
Santo Domingo Restaurant,Santo Domingo Restaurant,100,"862 New Lots Avenue, Brooklyn",862 New Lots Ave,90
LA BONA PIZZA & PASTA,La Pizza & La Pasta,95,"2426 Pitkin Avenue, Brooklyn",brooklyn,90
New Foo Shun,New Fulin Kwok Seafood Restaurant,86,"2538 Pitkin Avenue, Brooklyn",2538 Pitkin Ave,90
Cachapas Brooklyn,"Golden Forest Chinese Restaurant, Brooklyn Ny",86,"2311 Pitkin Avenue, Brooklyn",brooklyn,90
New Ming Fat,New Fulin Kwok Seafood Restaurant,86,"1155 Sutter Avenue, Brooklyn",brooklyn,90
Papi's Food & Grille,Papi's Food & Grille,100,"1161 Sutter Avenue, Brooklyn",brooklyn,90
Fusion East,C&L Of East Ocean Restaurant,86,"1179 Elton Street, Brooklyn",brooklyn,90
Anthony's,Anthony's Italian Restaurant,90,"799 Stanley Avenue, Brooklyn",799 Stanley Ave,90
Gyro King,King Chinese Restaurant,86,"403 Crescent Street, Brooklyn",brooklyn,90
Grace Delicious Kitchen,Deli,90,"2687 Pitkin Avenue, Brooklyn",brooklyn,90
Maria on the grill,The Golden Glass Restaurant,86,"2678 Pitkin Avenue, Brooklyn",2678 Pitkin Ave,90
El Nuevo Jarabacoa,El Coyote Mexican Restaurant,86,"2678 Pitkin Avenue, Brooklyn",2678 Pitkin Ave,90
El Gran Mar de Plata,ATA,90,"3175 Fulton Street, Brooklyn",Fulton,90
Lee Good Taste,Good Taste,95,"2686 Pitkin Avenue, Brooklyn",brooklyn,90
Sin Tabu Chimi Bar,Bar Sol De Quito Restaurant II,86,"3221 Fulton Street, Brooklyn",Fulton,90
Crown Fried Chicken & Cleveland Donut,Crown Fried Chicken,90,"2962 Fulton Street, Brooklyn",Fulton,90
THE BKLYN JUICE BAR,Bar Sol De Quito Restaurant II,86,"2873 Atlantic Avenue, Brooklyn",brooklyn,90
Oracle Lounge,Taipan Fusion Restaurant and Hookah Lounge,86,"2937 Atlantic Avenue, Brooklyn",2937 Atlantic Ave,90
Halal food,Halal Food,100,Brooklyn,brooklyn,100
Fulkole Restaurant,Restaurant,90,"1211 Liberty Avenue, Brooklyn",brooklyn,90
Liberty Grant Caffe,Grant Caffe,90,"1170 Liberty Avenue, Brooklyn",brooklyn,90
Brooklyn Halal Grill,Halal,90,"1148 Liberty Avenue, Brooklyn",brooklyn,90
Joe's Pizzeria,Joe's Pizzeria,100,"1121 Liberty Avenue, Brooklyn",1121 Liberty Ave,90
Hing Long Kitchen,Hong Kong Kitchen,88,"1102 Liberty Avenue, Brooklyn",brooklyn,90
Crown Fried Chicken & Pizza-Nearby Restaurants Menu.,Restaurant,90,"640 Conduit Boulevard, Brooklyn",brooklyn,90
KEA CAFE,Stars Cafe & Restaurant,86,"1073 Liberty Avenue, Brooklyn",1073 Liberty Ave,90
IL Carino Restaurant,Restaurant,90,"1710 2nd Avenue, New York","New York, New York",95
Selena Rosa,Selena Restaurant,86,"1712 2nd Avenue, New York","New York, New York",95
Tenzan,El Tenanpa Restaurant,75,"1714 2nd Avenue, New York","New York, New York",95
Midnight Express Diner,Diner,90,"1715 2nd Avenue, New York","New York, New York",95
The Writing Room,The Golden Glass Restaurant,86,"1703 2nd Avenue, New York","New York, New York",95
Shoga Sushi & Oyster Bar,La Kuchara Ecuadorian Restaurant Bar,86,"300 East 88th Street, New York",New York,90
Ashoka,Pasha,73,"1718 2nd Avenue, New York","New York, New York",95
Libertador,Li Li,86,"1725 2nd Avenue, New York","New York, New York",95
suki ichiro sushi,Ichiro,90,"1694 2nd Avenue, New York","New York, New York",95
Mughlai,Mehak Mughlai Cuisine,90,"1724 2nd Avenue, New York","New York, New York",95
San Matteo Takeaway,San Marino Restaurant at Sheraton Four Points,86,"1731 2nd Avenue, New York","New York, New York",95
Noche de Margaritas,Bar Sol De Quito Restaurant II,86,"1726 2nd Avenue, New York","New York, New York",95
M√≥le,Hamlet Coffee Company,90,"1735 2nd Avenue, New York","New York, New York",95
San Matteo,San Matteo Pizza Espresso Bar,90,"1739 2nd Avenue, New York","New York, New York",95
Tacos zapata,ATA,90,"2 Av/E 87 St, New York","New York, New York",95
Luigi's,Luigi's,100,"1701 1st Avenue, New York","New York, New York",95
3 Decker,3 Decker Restaurant,90,"1746 2nd Avenue, New York","New York, New York",95
Nica Trattoria,Maria's Trattoria Restaurant,86,"354 East 84th Street, New York",New York,90
Felice 83,One 83 Restaurant,86,"1593 1st Avenue, New York","New York, New York",95
Gracie's Corner Diner,Diner,90,"352 East 86th Street, New York",New York,90
Luna Rossa,La Luna Restaurant,86,"347 East 85th Street, New York",New York,90
83 1/2,83 1/2,100,"345 East 83rd Street, New York",New York,90
MazMezcal,Maz Mezcal,95,"316 East 86th Street, New York",New York,90
Gracie's on 2nd Diner,Diner,90,"300 East 86th Street, New York",New York,90
Gracie's on 2nd Diner,Diner,90,"300 East 86th Street, New York",New York,90
Schaller's Stube Sausage Bar,Moti's,86,"1652 2nd Avenue, New York","New York, New York",95
Heidelberg,Heidelberg Restaurant,90,"1648 2nd Avenue, New York","New York, New York",95
Tal Bagels,Kosher Pizza & Bagels,86,"333 East 86th Street #1, New York",New York,90
Bondurants,Dera,68,"303 East 85th Street, New York",New York,90
The Daisy,The Golden Glass Restaurant,86,"1641 2nd Avenue, New York","New York, New York",95
Wilson‚Äôs Coffee House,Coffee House,90,"300 East 85th Street, New York",New York,90
Poke,Poke Restaurant,90,"343 East 85th Street, New York",New York,90
David's Cuban Express,Cuba,90,"1633 2nd Avenue, New York","New York, New York",95
Mexicoma,Mexico Magico Restaurant,79,"1633 2nd Avenue, New York","New York, New York",95
Budapest cafe,Budapest Cafe and Bakery,90,"1631 2nd Avenue, New York","New York, New York",95
Italianissimo,Italianissimo,100,"307 East 84th Street, New York",New York,90
Bagel Shop,O N Coffee Shop Restaurant,86,"1659 3rd Avenue, New York","New York, New York",95
Third Avenue Ale House,Dumpling House,86,"1644 3rd Avenue, New York","New York, New York",95
Delizia 92,Delizia 92,100,"1762 2nd Avenue, New York","New York, New York",95
Yummy Sushi,Yummy Sushi,100,"1758 1st Avenue, New York","New York, New York",95
Pinocchio,Pinocchio Pizza,90,"1748 1st Avenue, New York","New York, New York",95
Pio Pio 3,Pio Pio,95,"1746 1st Avenue, New York","New York, New York",95
Gourmet Deli,Gourmet Deli,100,"1741 1st Avenue, New York","New York, New York",95
Mellow Yellow,Mellow Yellow - coffee & vibes,90,"1729 1st Avenue, New York","New York, New York",95
Bonchon,Bouchon Bakery & Cafe,77,"189-08 Northern Boulevard, Flushing",147-18 Northern Blvd,86
The Sweet Sap,The Golden Glass Restaurant,86,"189-11 Northern Boulevard, Queens",147-18 Northern Blvd,86
Muhsin's Halal Food,Muhsins Halal Food,97,"43-2-43-16 Utopia Parkway, Flushing",2-01 50th Ave,86
Good Luck Kitchen Chinese Cuisine,Cin Chinese Restaurant,86,"171 Northern Boulevard, Flushing",147-18 Northern Blvd,86
Sushi Takeout Enjoy,Umi Sushi,86,"171-15A Northern Boulevard, Flushing",147-18 Northern Blvd,86
ÊªãÂë≥Â∞èÂêÉ,Shu Jiao Fu Zhou Cuisine ÊΩ≠È†≠ÁéãÁ¶èÂ∑ûÂ∞èÂêÉ (Shu Jiao Fu Zhou Cuisine),30,"45-70 Kissena Boulevard, Flushing",Kissena,90
New Gold Dragon,New Golden Dragon,94,"1078 Boston Road, The Bronx",Boston Road,90
Family First Fish & Chips / Juice Bar,Happy Family Restaurant,86,"1151 Boston Road, The Bronx",Boston Road,90
Al Iman Grill and Bakery,bakery,90,"1460 Boston Road, The Bronx",Boston Road,90
Spanish Food Breakfast & Lunch,Spanish Food,90,"East 172nd Street, The Bronx",72nd Street,90
Halal Kennedy Fried Chicken,Halal Kennedy Fried Chicken,100,The Bronx,"1095 Prospect Ave, Bronx, NY 10459",86
Empire King,Empire King Chinese Food,90,"1374 Boston Road, The Bronx",Boston Road,90
Kennedy Fried Chicken and Pizza,Kennedy Fried Chicken and Pizza,100,"1335 Prospect Avenue, The Bronx",311 Avenue X,86
Long Xin Chinese Kitchen,"Golden Forest Chinese Restaurant, Brooklyn Ny",86,"1687 Boston Road, The Bronx",Boston Road,90
Jared Pizza,Pizza Pizza,95,"1693 Boston Road, The Bronx",Boston Road,90
"Bronx, NY 10456 | Pizza",Pizza,90,"1167 Boston Road, The Bronx",Boston Road,90
Parada Tropical,Spice Island Tropical Restaurant,86,"2700 Bailey Avenue, The Bronx",311 Avenue X,86
New Young Hong Kitchen,New Hong Kong Kitchen,88,"2800 Bailey Avenue #271, The Bronx",196 23 Jamaica Avenue,86
Grandpa's Brick Oven Pizza,Grandpa's Brick Oven Pizza,100,"4973 Broadway, New York","New York, New York",95
Cocina Latina Restaurant,Cocina Latina Restaurant Corp,95,"4986 Broadway, New York","New York, New York",95
Made In Mexico,Mexico Magico Restaurant,86,"3950 10th Avenue, New York","New York, New York",95
Garden Caf√©,El Garden Cafe Restaurant,90,"4961 Broadway, New York","New York, New York",95
Yummy Thai,Yummy Yummy,95,"4959 Broadway, New York","New York, New York",95
Broadway Plaza Outparcel,Broadway Pizzeria Italian Restaurant,86,"5510 Broadway, The Bronx",Broadway,90
Halal Brothers,Halal,90,"Kimberly Place, The Bronx",5372 65th Place,86
Monkey Brothers Lab,Brothers Pizza and Restaurant,86,"292 Sherman Avenue, New York",New York,90
Junior's Tacos,Theresa's Polish American Restaurant,86,"253 Sherman Avenue, New York",New York,90
Tubby Hook Tavern,The Porterhouse at Fraunces Tavern,86,"4946 Broadway, New York","New York, New York",95
Frying Pan,Frying Pan Brooklyn Coffee Bar,90,"207 12th Avenue, New York","New York, New York",95
Takumi Taco,Mister Taco Mexican Restaurant,86,"Starrett-Lehigh Building, 601 West 26th Street 12th Floor, New York",4417 New Utrecht Ave,86
Agavi,La Gaiete Restaurant,72,"Inside The Terminal Warehouse, 271 11th Avenue, New York",New York,90
Enfes NYC,The NYC Bull - Restaurant & Rotisserie,86,"269 11th Avenue, New York","New York, New York",95
Kimchi Grill,Golden Krust Caribbean Bakery and Grill,86,"269 11th Avenue, New York","New York, New York",95
Avocaderia,ZAVO,68,"269 11th Avenue, New York","New York, New York",95
IL Bastardo,Star,90,"544 West 27th Street, New York",New York,90
Gallow Green,Green Pavilion Restaurant,86,"542 West 27th Street, New York",New York,90
The Heath,The Heath,100,"542 West 27th Street, New York",New York,90
Lady Mara Bar Restaurant,Restaurant,90,"518 West 27th Street, New York",New York,90
MAR,Mario's Pizza,90,"10 Hudson Yards, 347 10th Avenue, New York",New York,90
Il Piccolo Ristoro Cafe,Cafe 47,86,"508 West 28th Street, New York",New York,90
Highline Pizzeria,High Line Pizza,88,"503 West 28th Street, New York",New York,90
Porte√±o,Portofino Restaurant,75,"299 10th Avenue, New York","New York, New York",95
Spanish Diner,Diner,90,"435 West 30th Street, New York",New York,90
Death Ave,Park Ave Chinese,86,"315 10th Avenue, New York","New York, New York",95
Jun-Men,Jun Bo Restaurant,86,"249 9th Avenue, New York","New York, New York",95
Dunkin' Donuts,Dunkin',90,"243 9th Avenue, New York","New York, New York",95
Grand Sichuan,Grand Sichuan International,90,"229 9th Avenue, New York","New York, New York",95
Txikito,Kito Gourmet Deli,61,"240 9th Avenue, New York","New York, New York",95
10th Avenue Pizza & Cafe,10th Ave. Pizza & Cafe,91,"256 10th Avenue, New York","New York, New York",95
Sullivan Street Bakery and Pizza,Sullivan Street Bakery,95,"236 9th Avenue, New York","New York, New York",95
Chop-Shop,O N Coffee Shop Restaurant,86,"254 10th Avenue, New York","New York, New York",95
Bottino,Bottino Restaurant,90,"246 10th Avenue, New York","New York, New York",95
King Cab Halal Food Cart,King Cab Halal Food,95,"10th Ave &, West 28th Street, New York",New York,90
Rail Line Diner,The Rail Line Diner,95,"400 West 23rd Street, New York",New York,90
The Drunken Horse,The Golden Glass Restaurant,86,"225 10th Avenue, New York","New York, New York",95
Chelsea Square,Sea,90,"368 West 23rd Street, New York",New York,90
New York Burger Co.,New Fulin Kwok Seafood Restaurant,86,"470 West 23rd Street, New York",New York,90
The Chef's Table at Brooklyn Fare,Brooklyn Fare,90,"431 West 37th Street, New York",37th,90
Starlight Diner,Star,90,"402 West 34th Street, New York",New York,90
Skylight Diner,Diner,90,"402 West 34th Street #2321, New York",New York,90
Sergimmo Salumeria,Salumeria Biellese Delicatessen,86,"456 9th Avenue, New York","New York, New York",95
Zoob Zib Thai Authentic Noodle Bar,N & J Bar Restaurant,86,"460 9th Avenue, New York","New York, New York",95
Hudson Station,The Shops & Restaurants at Hudson Yards,86,"440 9th Avenue, New York","New York, New York",95
Sushi Catering by Sushi Star¬Æ,Star,90,"462 9th Avenue, New York","New York, New York",95
McGarry‚Äôs,McGarry's Bar & Restaurant,90,"417 9th Avenue, New York","New York, New York",95
B&W Deli and Pizzeria,B&W Deli & Pizzeria,95,"373 West 34th Street, New York",New York,90
Treadwell Park,Evergreen Park Restaurant,86,"510 West 42nd Street, New York",New York,90
Rustic table,"The Round Table Restaurant, at The Algonquin",86,"504 West 42nd Street, New York",New York,90
Happy Family Restaurant,Happy Family Restaurant,100,"500 West 43rd Street, New York",New York,90
Social Drink and Food,Social Drink and Food,100,"570 10th Avenue #3001, New York",570 10th Ave,90
M&m,M√©m√© Mediterranean,90,"470 West 41st Street, New York",New York,90
Gourmet Unlimited,Gourmet Unlimited Deli,95,"593 10th Avenue, New York","New York, New York",95
YOTEL New York,New Fulin Kwok Seafood Restaurant,86,"570 10th Avenue, New York","New York, New York",95
Green Fig,Green Pavilion Restaurant,86,"570 10th Avenue #3001, New York",570 10th Ave,90
Spirit of New York by Hornblower Cruises & Events,C&L Of East Ocean Restaurant,86,"61 Chelsea Piers, New York","New York, New York",95
Bateaux New York by Hornblower Cruises & Events,New Ho Wah,86,"Chelsea Piers Pier 61, New York",New York,90
Bowlmor Chelsea Piers,Sea,90,"Chelsea Piers-Pier 60, New York",New York,90
Toro NYC,The NYC Bull - Restaurant & Rotisserie,86,"85 10th Avenue Entrance on 15th St and, 11th Avenue, New York",New York,90
Star On 18,Star,90,"128 10th Avenue, New York","New York, New York",95
Hearth NYC on the High Line,Hearth,90,"US-NYC-8510, 85 10th Avenue, New York",New York,90
Artichoke Basille's Pizza,Artichoke Basille's Pizza,100,"114 10th Avenue, New York","New York, New York",95
L'Atelier de Jo√´l Robuchon,El Rinconcito De Los Sabores Restaurant & Deli,86,"85 10th Avenue, New York","New York, New York",95
Okuda New York,New Fulin Kwok Seafood Restaurant,86,"458 West 17th Street, New York",New York,90
Pepe Giallo,Don Pepe Restaurant,86,"195 10th Avenue, New York","New York, New York",95
Juban,Las Juanas Restaurant Asadero,72,"207 10th Avenue, New York","New York, New York",95
Mao's Bao,Theresa's Polish American Restaurant,86,"4059 High Line, New York","New York, New York",95
Empire Diner,Diner,90,"210 10th Avenue, New York","New York, New York",95
Le Song,Le Fatima Bar & Grill Restaurant,86,"443 West 15th Street, New York",New York,90
Don Giovanni,Don Giovanni Ristorante,90,"214 10th Avenue, New York","New York, New York",95
Waverly Inn,Sizzle Inn Restaurant,86,"16 Bank Street, New York","New York, New York",95
Shuraku,Sharaku,86,"47 8th Avenue, New York","New York, New York",95
La Contenta Oeste,La Strada Pizzeria & Restaurant,86,"78 West 11th Street, New York",New York,90
Shu Han Ju,Shu Han Ju Chinese Restaurant,90,"465 6th Avenue, New York","New York, New York",95
E.A.K. Ramen West Village,A-HO RESTAURANT,86,"469 6th Avenue, New York","New York, New York",95
Juice & Joy Organic Coffee,Coffee,90,"434 6th Avenue, New York","New York, New York",95
Kubeh,Due,60,"464 6th Avenue, New York","New York, New York",95
Sergimmo Salumeria,Salumeria Biellese Delicatessen,86,"462 6th Avenue, New York","New York, New York",95
Pinto Garden,Garden 13 Dairy Restaurant and Pizza,86,"117 West 10th Street, New York",New York,90
Gene's,Gene's,100,"73 West 11th Street, New York",New York,90
Osteria 57,Osteria Gelsi Restaurant,86,"57 West 10th Street, New York",New York,90
Alta,Alta,100,"64 West 10th Street, New York",New York,90
Rosemary's,Rosemary's,100,"18 Greenwich Avenue, New York",New York,90
Le Baratin,Le Fatima Bar & Grill Restaurant,86,"26 Greenwich Avenue, New York",New York,90
Mah-Ze-Dahr Bakery,Mah-Ze-Dahr Bakery,100,"28 Greenwich Avenue, New York",New York,90
Oak Tuscan Truffle Lounge,Taipan Fusion Restaurant and Hookah Lounge,86,"28 Greenwich Avenue, New York",New York,90
O Cafe,Gusto Latino Cafe Restaurant,90,"482 6th Avenue, New York","New York, New York",95
American Bar - New York,Theresa's Polish American Restaurant,86,"33 Greenwich Avenue, New York",New York,90
Niu Noodle House,Hunan House Chinese Restaurant,86,"15 Greenwich Avenue, New York",New York,90
Hector's cafe diner,Diner,90,"44 Little West 12th Street, New York",New York,90
Sugar Factory American Brasserie,"Caribbean American Ent. Bar, Lounge & Restaurant",86,"835 Washington Street, New York",New York,90
FIG & OLIVE,Fig & Olive,100,"420 West 13th Street, New York",New York,90
Ella Brasileira,Via Brasil,72,"436 West 15th Street, New York",New York,90
STK Downtown,STK Downtown,100,"26 Little West 12th Street, New York",New York,90
Sarabeth's,Sarabeth's East,90,"75 9th Avenue, New York","New York, New York",95
Untitled,Untitled,100,"99 Gansevoort Street, New York",99 Gansevoort St,90
STK Rooftop,Caribbean Soul Restaurant Rooftop & Lounge,86,"26 Little West 12th Street, New York",New York,90
Doughnuttery,Special $1 Coffee & Doughnut Cart,68,"425 West 15th Street, New York",New York,90
Miznon,Minton's Restaurant,75,"435 West 15th Street, New York",New York,90
Beyond Sushi,Ginpachi Sushi Restaurant,86,"75 9th Avenue, New York","New York, New York",95
Bar Suzette,El Morro Restaurant & Bar,86,"425 West 15th Street, New York",New York,90
Tings,Bip America Restaurant Listings,90,"75 9th Avenue, New York","New York, New York",95
Washington Square Diner,Diner,90,"150 West 4th Street, New York",New York,90
Galanga,Galanga,100,"149 West 4th Street # 2, New York",New York,90
Go Zen,Zen's Caribbean Restaurant,86,"144 West 4th Street, New York",New York,90
Volare,Volare,100,"147 West 4th Street A, New York",New York,90
BAO TEA HOUSE - Greenwich village,Village Restaurant,86,"140 West 4th Street, New York",New York,90
Red Bamboo,Red Star Chinese Restaurant,86,"140 West 4th Street, New York",New York,90
Sammy‚Äôs Halal food,Sammy's Halal Food,100,"6th Ave &, West 4th Street, New York",New York,90
Papaya Dog,Salty Dog Bar and Restaurant,86,"333 6th Avenue, New York","New York, New York",95
Ramen Universe,Food Universe Marketplace,86,"133 West 3rd Street, New York",New York,90
Caribbean King Food Trucks Inc,King Foo,90,"329 6th Avenue, New York","New York, New York",95
Anton's Dumplings,Anton's,90,"151 West 3rd Street, New York",New York,90
Anton's Dumplings,Anton's,90,"151 West 3rd Street, New York",New York,90
King‚Äôs Halal food,King's Halal Food,100,New York,New York,100
W4 Pizza,Pizza Pizza,95,"162 West 4th Street, New York",New York,90
Ramen-Ya,Ota-Ya Japanese Restaurant,86,"133 West 3rd Street, New York",New York,90
Artistic pizza,Artistic Pizza,100,"123 West 3rd Street, New York",New York,90
Uncle Chop Chop,Uncle Mike's Caf√© & Restaurant,86,"7 Cornelia Street, New York",New York,90
Menkoi Sato È∫∫ÊÅã‰ΩêËó§,Sato Japanese Restaurant,86,"7 Cornelia Street, New York",New York,90
Sushi Katsuei,Ginpachi Sushi Restaurant,86,"357 6th Avenue, New York","New York, New York",95
Burrito Loco,Burrito Loco,100,"166 West 4th Street A, New York",New York,90
Sim√≤ Pizza,Sim√≤ Pizza,100,"90-92 Gansevoort Street, New York",New York,90
Barbuto,Haru,68,"113 Horatio Street, New York",New York,90
Chelsea halal food,Sea,90,"11th ave, West 26th Street, New York",New York,90
Bubby's,Bubby's,100,"73 Gansevoort Street, New York",New York,90
Old Rose,Old Brooklyn Pizza Restaurant,86,"113 Jane Street, New York","New York, New York",95
Common Ground Bar,Bar Sol De Quito Restaurant II,86,"63 Gansevoort Street, New York",New York,90
Pastis,Tasties Caribbean American Restaurant,75,"52 Gansevoort Street, New York",New York,90
I Tre Merli,Tre Stelle Italian Restaurant&Bar,86,"10 Little West 12th Street, New York",10 Little West 12th St,90
Revel,Revel Restaurant and Garden,90,"10 Little West 12th Street, New York",10 Little West 12th St,90
5 Ninth,Kyoto Sushi 5,86,"5 9th Avenue, New York","New York, New York",95
Serafina Meatpacking,Tak king,68,"7 9th Avenue, New York","New York, New York",95
Brodo - Upper West Side,C B Finger Licking Jamaican and West Indian Restaurant,86,"2144 Broadway, New York","New York, New York",95
Viand Cafe,Stars Cafe & Restaurant,86,"2130 Broadway, New York","New York, New York",95
The Owl's Tail,Theresa's Polish American Restaurant,86,"215 West 75th Street, New York",New York,90
Westside Market,Westside Market,100,"2589 Broadway, New York","New York, New York",95
Texas Rotisserie & Grill,Golden Krust Caribbean Bakery and Grill,86,"2581 Broadway, New York","New York, New York",95
Lenny's Bagels,Theresa's Polish American Restaurant,86,"2601 Broadway, New York","New York, New York",95
Regional,Regional,100,"2607 Broadway, New York","New York, New York",95
Cafe Viva Gourmet Pizza,Cafe Viva Gourmet Pizza,100,"2578 Broadway, New York","New York, New York",95
Earth Caf√©,Crotona's Caf√© Restaurant,86,"2578 Broadway, New York","New York, New York",95
Awadh,Awash,80,"2588 Broadway, New York","New York, New York",95
West End Taqueria,Mi Barrio Taqueria Restaurant,86,"301 West 96th Street, New York",New York,90
West End Taqueria,Mi Barrio Taqueria Restaurant,86,"301 West 96th Street, New York",New York,90
Halal Food Truck,Halal Food Truck,100,New York,New York,100
Au Jus,Au Bon Coin Restaurant,86,"2621 Broadway, New York","New York, New York",95
La Vera,La Vera Pizza,90,"2547 Broadway, New York","New York, New York",95
Filicori Zecchini Coffee,Coffee,90,"2541 Broadway, New York","New York, New York",95
Moonrise Izakaya,Nori,68,"774 Amsterdam Avenue, New York",Amsterdam avenue,90
Ozen Asian Fusion Cuisine,Annie Chan's Japanese Cuisine Restaurant,86,"760 Amsterdam Avenue, New York",Amsterdam avenue,90
Guacamole NYC,The NYC Bull - Restaurant & Rotisserie,86,"768 Amsterdam Avenue, New York",Amsterdam avenue,90
Naruto Ramen,Haru,68,"2634 Broadway, New York","New York, New York",95
Manhattan Valley,Manhattan Valley,100,"2636 Broadway, West 100th Street, New York",2636 Broadway,90
Metro Diner,Diner,90,"2641 Broadway #1, New York","New York, New York",95
Telio,Telio Restaurant,90,"2481 Broadway, New York","New York, New York",95
Cleopatra's Needle,Theresa's Polish American Restaurant,86,"2485 Broadway, New York","New York, New York",95
Perfecto Pizza,Perfecto Pizza,100,"2479 Broadway, New York","New York, New York",95
Manhattan Diner,Diner,90,"2532 Broadway, New York","New York, New York",95
Whispers,Eros,77,"210 West 94th Street, New York",New York,90
Vino Levantino,Tarallucci e Vino Restaurant,86,"210 West 94th Street, New York",New York,90
Vins Tapas,Sangria Tapas Bar & Restaurant,86,"203 West 95th Street, New York",New York,90
Kasbah Grill,Golden Krust Caribbean Bakery and Grill,86,"251 West 85th Street, New York",New York,90
Mamma's Famous Ristorante,Amma,90,"2345 Broadway, New York","New York, New York",95
Tasty Burrito Ny,"Golden Forest Chinese Restaurant, Brooklyn Ny",86,"2333 Broadway, New York","New York, New York",95
5 Napkin Burger,Ginny's $5 To $9 Restaurant,86,"2315 Broadway, New York","New York, New York",95
Maison Pickle,Maison May,71,"2315 Broadway, New York","New York, New York",95
Cafe 86,Stars Cafe & Restaurant,86,"2350 Broadway, New York","New York, New York",95
PERFECT HALAL FOOD,Halal Food,90,"2379 W Broadway, New York","New York, New York",95
Elea,Olea,75,"217 West 85th Street, New York",New York,90
Han Dynasty,Dynasty Chinese Restaurant,86,"215 West 85th Street, New York",New York,90
Hot In Crusty,CRUST,90,"2393 Broadway, New York","New York, New York",95
Uptown Poke,Uptown African Restaurant,86,"506 Amsterdam Avenue, New York",Amsterdam avenue,90
New Green Leaf Deli,New Green Leaf Deli,100,"518 Amsterdam Avenue, New York",Amsterdam avenue,90
New kam lai,New Kam Lai,100,"514 Amsterdam Avenue, New York",Amsterdam avenue,90
Cafe Eighty Two,Stars Cafe & Restaurant,86,"2282 Broadway, New York","New York, New York",95
House Pizza,House Pizza,100,"246 East 204th Street, The Bronx",Street,90
Sun ‚Äôn Grill Teriyaki & Wings,N and J Restaurant,86,"250 East 204th Street, The Bronx",Street,90
Lona pizza inc,Pizza Pizza,95,"373 East 204th Street, The Bronx",Street,90
No.1 Chinese Kitchen,No. 1 Chinese Kitchen,98,"301 East 204th Street, The Bronx",Street,90
Kam Man Chinese Kitchen,"Golden Forest Chinese Restaurant, Brooklyn Ny",86,"311 East 204th Street, The Bronx",Street,90
Curry & Kebab,Curry & Kebab,100,"3111 Bainbridge Avenue, The Bronx",bainbridge ave,90
Marconi's Pizza & Restaurant,Restaurant,90,"181 East Gun Hill Road, The Bronx",823 East 169th Street,86
Anthony's Famous Deli,Deli,90,"169 East Gun Hill Road, The Bronx",823 East 169th Street,86
Deyar Food Court,Food Court,90,"147 East Gun Hill Road, The Bronx",147-18 Northern Blvd,86
Avocado Salad Saloon Mexican Grilled,MEXICAN RESTAURANT RESTAURANTE MEXICANO GUATEMALTECO MEXICAN FOOD,86,"147 East Gun Hill Road, The Bronx",147-18 Northern Blvd,86
Tasty caribbean buffet,Bea,90,"3505 Rochambeau Avenue, The Bronx",3505 Rochambeau Ave,90
Aman,Samanta's Restaurant,90,"3594 Jerome Avenue, The Bronx",3594 Jerome Ave,90
Gino's Pizzeria Restaurant,Gino's Pizzeria & Restaurant,96,"3700 Jerome Avenue, The Bronx",3700 Jerome Ave,90
Andiamo Cafe,Stars Cafe & Restaurant,86,"2467 Grand Concourse, The Bronx",Grand Concourse,90
188 Bakery Cuchifritos,188 Bakery Cuchifritos,100,"158 East 188th Street, The Bronx",Street,90
Fresh Smoothies & Cafe,Cafe 47,86,"2450 Creston Avenue, The Bronx",Creston Ave,90
Tropilyz Restaurant,Tropilyz Restaurant,100,"2462 Grand Concourse, The Bronx",Grand Concourse,90
Fordham Food,famous restaurant Chinese food,86,"2468 Grand Concourse, The Bronx",Grand Concourse,90
Finix Cafe & Juice Bar,Cafe 47,86,"2419 Grand Concourse, The Bronx",Grand Concourse,90
Kennedy,Kennedy's,95,"224 East 188th Street, The Bronx",Street,90
Total Seasoning Fish Market Inc.,Fish Market,90,"2395 Gd Concourse, The Bronx",Grand Concourse,86
AAA CARIDAD,Caridad,90,"3108 Webster Avenue, The Bronx",3108 Webster Ave,90
SND Deli Plus Grocery Corporation,Deli Plus,90,"115 East 184th Street, The Bronx",Street,90
Kawah,Kawah Chinese Restaurant,90,"3044 Valentine Avenue, The Bronx",3044 Valentine Ave,90
El Lider,El Lider Bar & Restaurant,90,"4535 Park Avenue, The Bronx",4535 Park Ave,90
Xin Xing,Xin Xing Chinese Restaurant,90,"2352 Tiebout Avenue, The Bronx",2352 Tiebout Ave,90
Kings Chef,King's Chef,95,"2258 Webster Avenue, The Bronx",2258 Webster Ave,90
Osei Krom African Restaurant,Restaurant,90,"2254 Webster Avenue, The Bronx",2254 Webster Ave,90
FRIED CHICKEN & PIZZA,Kennedy Fried Chicken & Pizza,95,"2280 Bathgate Avenue A, The Bronx",29-30  A Union St,86
Los Balbuena Restaurant jugadita de billar,Restaurant,90,"235 East 184th Street, The Bronx",Street,90
Best Italian Pizza,Pizza,90,"2367 Grand Concourse, The Bronx",Grand Concourse,90
New Concept Juice,New Fulin Kwok Seafood Restaurant,86,"2347 Grand Concourse, The Bronx",Grand Concourse,90
Lupitas,Lupita Food Corp.,79,"2366 Grand Concourse, The Bronx",2366 Grand Concourse,90
Susie's Pies Pizzeria,Theresa's Polish American Restaurant,86,"2308 Grand Concourse, The Bronx",Grand Concourse,90
Papaye,Papaye Restaurant,90,"2300 Grand Concourse, The Bronx",Grand Concourse,90
The Dulce Esquina,The Golden Glass Restaurant,86,"340 East 174th Street, The Bronx",Street,90
Casa Del Mar Seafood Restaurant & Bar,Casa Del Mar Seafood Restaurant & Bar,100,"1779 Webster Avenue, The Bronx",1779 Webster Ave,90
Pop Up Hope,The Mix Up Restaurant,86,"241 Mount Hope Place, The Bronx",241 Ralph Ave,86
Gotta Getta Pizza,Ott,90,"1735 Townsend Avenue Store A, The Bronx",29-30  A Union St,86
Galagala New York Restaurant,New York Restaurant,95,"1745 Townsend Avenue, The Bronx",311 Avenue X,86
Uptown,Uptown African Restaurant,90,"13 East 175th Street, The Bronx",13 East 175th Street,90
Wing Wong,Wing Wong Restaurant,90,"1702 Grand Avenue, The Bronx",Grand Avenue,90
La casa del marisco restaurant,La Casa Delmarisco Restaurant,98,"1862 Webster Avenue, The Bronx",Webster Ave,90
Munchies The Best Taste,Taste,90,"396 East Tremont Avenue, The Bronx",196 23 Jamaica Avenue,86
Kennedy fried Chicken and Pizza,Kennedy Fried Chicken and Pizza,100,"249 East Tremont Avenue, The Bronx",196 23 Jamaica Avenue,86
El Grande Chef,El Grande Chef Restaurant & Pizzeria,90,"237 East Tremont Avenue, The Bronx",196 23 Jamaica Avenue,86
Embajada Esperance√±a,Esperanto,70,"1884 Monroe Avenue, The Bronx",311 Avenue X,86
Min's Fish Market,Fish Market,90,"221 East Tremont Avenue, The Bronx",196 23 Jamaica Avenue,86
La Parada 24/7,La Parada,90,"217E East Tremont Avenue, The Bronx",196 23 Jamaica Avenue,86
Caridad Seafood Restaurant,Caridad Restaurant,95,"410 East Tremont Avenue, The Bronx",196 23 Jamaica Avenue,86
Yaroa,Zyara Restaurant & Cafe,72,"1881 Grand Concourse, The Bronx",Grand Concourse,90
Kiary Deli Grocery,Deli & Grocery,95,"1881 Grand Concourse, The Bronx",Grand Concourse,90
Guang Hui,Guang Hui Chinese Restaurant,90,"125 Dreiser Loop, The Bronx",125 Dreiser Loop,90
Prime 33 Banquet hall #1,World Fair Marina Restaurant & Banquet,86,"3323 Merritt Avenue, The Bronx",311 Avenue X,86
Cozy Cottage,Cozy Cottage Restaurant,90,"4105 Boston Road, The Bronx",Boston Road,90
"Fish N' Ting Restaurant, Bar & Lounge",Restaurant,90,"4063 Boston Road, The Bronx",Boston Road,90
Mingles Express Grill,Golden Krust Caribbean Bakery and Grill,86,"4018 Boston Road, The Bronx",Boston Road,90
Mingles,Mingle Restaurant,77,"4012 Boston Road, The Bronx",Boston Road,90
Luna Pizza,Luna Pizza,100,"4006 Boston Road, The Bronx",Boston Road,90
Ranch Restaurant,Ranch Restaurant,100,"1773 Southern Boulevard, The Bronx",901 Southern Blvd,86
Cafe Colonial,Cafe Colonial,100,"2072 White Plains Road, The Bronx",White Plains Road,90
Oasis Mediterranean Restaurant,Oasis Mediterranean restaurant (ŸÖÿ∑ÿπŸÖ ÿßŸÑŸàÿßÿ≠ÿ©),95,"1907 White Plains Road, The Bronx",White Plains Road,90
2 Paradise,Paradise Restaurant,86,"700 Rhinelander Avenue, The Bronx",196 23 Jamaica Avenue,86
Tacos El Bronco 2,Tacos El Bronco,95,"2140 White Plains Road, The Bronx",White Plains Road,90
Kennedy Chicken & Sandwichs,Chicken Festival,86,"707 Lydig Avenue, The Bronx",Between 39th and 40th street on 13th Avenue,86
Nathan's,Jonathan's Restaurant,90,"2148 White Plains Road, The Bronx",White Plains Road,90
El Torito de Tlaxcala,La Roja de Todos Restaurant & Bakery,86,"2132 Cruger Avenue, The Bronx",2132 Cruger Ave,90
El Acatlan,El Acatlan,100,"2132 Cruger Avenue, The Bronx",2132 Cruger Ave,90
La Masa Bakery,bakery,90,"726 Lydig Avenue, The Bronx",Between 39th and 40th street on 13th Avenue,86
Lydig Coffee House,Lydig Coffee House,100,"721 Lydig Avenue, The Bronx",721 Lydig Ave,90
Kabab Curry,Prince Kabab & Chinese Restaurant,86,"2052 Wallace Avenue, The Bronx",311 Avenue X,86
Paco's Pizza,Pizza Pizza,95,"2086 Arthur Avenue, The Bronx",Arthur Ave,90
Jade Stone Pizzeria and Deli,Deli,90,"4457 3rd Avenue, The Bronx",3rd Ave.,90
Sana'a Deli and Grocery,A&A Deli and Grocery,95,"611 East 182nd Street, The Bronx",Street,90
Los Amigos Restaurant & Catering,Restaurant,90,"674 East 180th Street, The Bronx",Street,90
EL CAPITAN SEA FOOD RESTAURANT,Restaurant,90,"643 East 182nd Street, The Bronx",Street,90
Mocano's Juice Bar & Grill,Moti's,86,"609 East Tremont Avenue, The Bronx",196 23 Jamaica Avenue,86
Dragon sea,Sea,90,"703 East 180th Street, The Bronx",Street,90
L‚Äô Caney Restaurant.,Restaurant,90,"610 East 183rd Street, The Bronx",Street,90
Dynasty Taste,Taste,90,"539A East Tremont Avenue, The Bronx",196 23 Jamaica Avenue,86
La Nueva Estrella,La Nueva Estrella Restaurant,90,"655 Crescent Avenue, The Bronx",311 Avenue X,86
Antonio's Trattoria,Theresa's Polish American Restaurant,86,"2370 Belmont Avenue, The Bronx",311 Avenue X,86
El Nuevo Pollo Sabroso 2,Pollo Sabroso,90,"651 Morris Park Avenue, The Bronx",park avenue,90
Morris Park Pizzeria,Morris Park,90,"656 Morris Park Avenue, The Bronx",park avenue,90
Fine Food Cuisine,Fine Food Cuisine,100,"671 Morris Park Avenue, The Bronx",park avenue,90
Arth Alsaeedah | ŸÖÿ∑ÿπŸÖ ÿ£ÿ±ÿ∂ ÿßŸÑÿ≥ÿπŸäÿØÿ©,Hearth,71,"680 Morris Park Avenue, The Bronx",park avenue,90
Golden Eagle II Diner,Diner,90,"682 Morris Park Avenue, The Bronx",park avenue,90
Kennedy chicken pizza & kabab,Kennedy Pizza & Chicken,95,"686 Morris Park Avenue, The Bronx",park avenue,90
Joy Garden,Joy Garden,100,"687 Morris Park Avenue, The Bronx",park avenue,90
White Plains Deli Market,Deli,90,"1810 White Plains Road, The Bronx",White Plains Road,90
Hemo's Spot 3,Theresa's Polish American Restaurant,86,"713 Morris Park Avenue, The Bronx",park avenue,90
Emmons Palace,China palace chinese restaurant,86,"2265 Emmons Avenue, Brooklyn",brooklyn,90
Opera Cafe Lounge,Cafe 47,86,"2255 Emmons Avenue, Brooklyn",brooklyn,90
Seafood Buffet,Sea,90,"2027 Emmons Avenue #10, Brooklyn",2027 Emmons Ave,90
Amberjack V,Amber,90,"2100 Emmons Avenue, Brooklyn",brooklyn,90
Penthouse Lounge Bar,Bar Sol De Quito Restaurant II,86,"2027 Emmons Avenue 3rd floor, Brooklyn",2027 Emmons Ave,90
EmOcean,Oceana,77,"2027 Emmons Avenue, Brooklyn",2027 Emmons Ave,90
Seaport Buffet,Sea,90,"2027 Emmons Avenue, Brooklyn",2027 Emmons Ave,90
Randazzo's Clam Bar,Theresa's Polish American Restaurant,86,"2017 Emmons Avenue, Brooklyn",brooklyn,90
Falada Lounge,Taipan Fusion Restaurant and Hookah Lounge,86,"2011 Emmons Avenue, Brooklyn",brooklyn,90
Next Door,next door italian restaurant,90,"2005 Emmons Avenue, Brooklyn",brooklyn,90
Signature,Signature Restaurant,90,"2007 Emmons Avenue, Brooklyn",2007,90
Chinatown Restaurant,Chinatown Restaurant,100,"2306 Voorhies Avenue, Brooklyn",2306 Voorhies Ave,90
Knapp Street Pizza,Pizza,90,"2157 Knapp Street, Brooklyn",brooklyn,90
Knapp Lucky Star,Star,90,"2149 Knapp Street, Brooklyn",brooklyn,90
Kennedy's,Kennedy's,100,"406 Bayside, New York","New York, New York",95
Dugout,Dugout Sports Bar & Restaurant,90,"57 Point Breeze Avenue, Queens",311 Avenue X,86
Blarney Castle,Castle Hill Food Corp.,86,"20224 Rockaway Point Boulevard, Breezy Point",Cristofordo Columbo Boulevard,86
Country Heart Cooking,Belky's Home Style Cooking Restaurant,86,"2020 Rockaway Point Boulevard, Queens",13861 Queens Blvd,86
The Bayhouse of Breezy Point (Take out and Delivery Only),Delivery,90,"500 Bayside, Breezy Point",500 W 43rd St,86
Breezy Point Surf Club,Sugar Hill Restaurant & Supper Club,86,"1 Beach 227th Street, Breezy Point",27th Street,90
Silver Gull Beach Club,Bea,90,"1 Beach 193rd Street, Breezy Point",93rd street,90
Grassy Point,One Point Five Restaurant,86,"18-02 Cross Bay Boulevard, Far Rockaway",147-18 Northern Blvd,86
Tommy's Pizza,Tommy's Pizza,100,"915 Cross Bay Boulevard, Broad Channel",915 Avenue St John,86
La Playa,La Strada Pizzeria & Restaurant,86,"87-16 Rockaway Beach Boulevard, Far Rockaway",Cristofordo Columbo Boulevard,86
Rockaway Sandwich Man pay using paypal,Fu Man Lou Restaurant,86,"84-14 Rockaway Beach Boulevard #6g, Far Rockaway",Cristofordo Columbo Boulevard,86
The sandwich spot,The Golden Glass Restaurant,86,"8718 Rockaway Beach Boulevard, Far Rockaway",133 Rockaway Ave,86
Joe's Pizza By The Sea,Sea,90,"87-14 Rockaway Beach Boulevard, New York",New York,90
Best Caribbean,Choices Caribbean Restaurant,86,"9102 Rockaway Beach Boulevard, Far Rockaway",133 Rockaway Ave,86
Oasis,Oasis restaurant,90,"92-08 Rockaway Beach Boulevard, Far Rockaway",Cristofordo Columbo Boulevard,86
La Caba√±a Peruana,La Strada Pizzeria & Restaurant,86,"91-17 Rockaway Beach Boulevard, New York",New York,90
Kimo's Kitchen Rockaway Beach,Moti's,86,"92-16 Rockaway Beach Boulevard, Rockaway Beach",Cristofordo Columbo Boulevard,86
Uma's,Theresa's Polish American Restaurant,86,"92-07 Rockaway Beach Boulevard, Far Rockaway",Cristofordo Columbo Boulevard,86
Elegante,Elegante Pastry Shop,90,"92-01 Rockaway Beach Boulevard, New York",New York,90
Three Brothers Pizzeria,Gino's Pizzeria,86,"189 Broad Street, Staten Island",Street,90
Campo Bello,Campo Bello Restaurante,90,"1 Tompkins Avenue, Staten Island",Tompkins Ave,90
Chieng Garden Kitchen,Garden 13 Dairy Restaurant and Pizza,86,"183 Broad Street, Staten Island",Street,90
Da Noi,Da Wong Chinese Restaurant,86,"138 Fingerboard Road, Staten Island",2670 Coney Island Ave,86
Halal Bros Grill,Halal,90,"247-14 South Conduit Avenue, Queens",196 23 Jamaica Avenue,86
CJ Cafe Rosedale (formerly C&J Jamaican Restaurant),Restaurant,90,"247-12 South Conduit Avenue, Queens",152-12 Northern Blvd,86
Island Fusion Foods,Taipan Fusion Restaurant and Hookah Lounge,86,"139-20 243rd Street, Queens",139-20 243rd St,90
Burgers Tacos Wings,Tacos Puebla,86,"143-67 243rd Street, Rosedale",Street,90
Dora's,Dora's Restaurant,90,"24513 Francis Lewis Boulevard, Rosedale",33-25 Francis Lewis Blvd,86
China Gourmet,China Gourmet Chinese Restaurant,90,"24515 Francis Lewis Boulevard, Rosedale",33-25 Francis Lewis Blvd,86
Ali's Roti shop,Theresa's Polish American Restaurant,86,"246-04 Francis Lewis Boulevard, Rosedale",33-25 Francis Lewis Blvd,86
Bayhouse,Bathhouse,82,"155-57 Bayview Avenue, Rosedale",311 Avenue X,86
Revolucion,Revolucionarios Restaurant,90,"JFK Access Road, Jamaica","207-13 Jamaica Ave, Queens, NY 11428",86
New York Sports Grill,New Fulin Kwok Seafood Restaurant,86,Jamaica,196 23 Jamaica Avenue,90
Chinese Cuisine,18 Chinese Cuisine,95,"200 New Dorp Lane, Staten Island",4417 New Utrecht Ave,86
Pizzeria Giove,La Strada Pizzeria & Restaurant,86,"278 New Dorp Lane, Staten Island",4417 New Utrecht Ave,86
Fresh Tortillas & Taco,Fresh Meadows Pizzeria and Restaurant,86,"304 New Dorp Lane, Staten Island",4417 New Utrecht Ave,86
Beans Cafe' & Grill,Bea,90,"2026 Hylan Boulevard, Staten Island",Hylan Boulevard,90
Wing World New Dorp,New Fulin Kwok Seafood Restaurant,86,"355 New Dorp Lane, Staten Island",4417 New Utrecht Ave,86
Jade Asian Bistro,Jade Fountain Chinese Cuisine,86,"331 New Dorp Lane, Staten Island",4417 New Utrecht Ave,86
Wing World,Wing xin chinese restaurant,86,"332 New Dorp Lane, Staten Island",4417 New Utrecht Ave,86
Taste of India II,Taste,90,"287 New Dorp Lane, Staten Island",4417 New Utrecht Ave,86
Chiara's Pizzeria (Formerly Danny's Pizza II),Moti's,86,"176 Graham Avenue, Brooklyn",brooklyn,90
Faith's Food,Faith,90,"170 Graham Avenue #2170, Brooklyn",brooklyn,90
Win Son Bakery,Win Son Bakery,100,"164 Graham Avenue, Brooklyn",brooklyn,90
Carthage Must Be Destroyed,Be Smart Food Inc,86,"222 Bogart Street, Brooklyn",brooklyn,90
Manny's,Manny's Cafe Family Restaurant,90,"1110 Metropolitan Avenue, Brooklyn",brooklyn,90
Arrogant Swine,Wine Restaurant,66,"173 Morgan Avenue, Brooklyn",brooklyn,90
Aura Cocina,Cocina Latina Restaurant Corp,86,"315 Meserole Street, Brooklyn",brooklyn,90
Newtown,New Tony BBQ Restaurant,77,"55 Waterbury Street, Brooklyn",brooklyn,90
Del Sur Cocina,El Monstro del Sazon Pizzaria & Restaurant,86,"260 Meserole Street, Brooklyn",brooklyn,90
Chimu bistro,Luna Asian Bistro and Japanese Rooftop Restaurant Êó•Êú¨ÊñôÁêÜ,86,"482 Union Avenue, Brooklyn",brooklyn,90
Yummy Yummy In My Tommy truck,Yummy Yummy,90,"476 Union Avenue, Brooklyn",brooklyn,90
M Noodle Shop,O N Coffee Shop Restaurant,86,"549 Metropolitan Avenue, Brooklyn",brooklyn,90
Pomp & Circumstance,CRUST,72,"577 Lorimer Street, Brooklyn",brooklyn,90
Hana Food,Hana Food,100,"534 Metropolitan Avenue, Brooklyn",brooklyn,90
London Tandoori,Tandoor Oven,70,"524 Metropolitan Avenue, Brooklyn",brooklyn,90
CHEERS,Cheers Thai,90,"568 Metropolitan Avenue, Brooklyn",568 Metropolitan Ave,90
Zona Rosa,Rosa II Pizzeria & Restaurant,86,"571 Lorimer Street, Brooklyn",brooklyn,90
Kellogg's Diner,Diner,90,"518 Metropolitan Avenue, Brooklyn",brooklyn,90
Royal Cucina,Port Royal Jamaican Restaurant,86,"1352 Hylan Boulevard, Staten Island",Hylan Boulevard,90
Perkins Restaurant & Bakery,Perkins Restaurant & Bakery,100,"1409 Hylan Boulevard, Staten Island",Hylan Boulevard,90
Primo Pizza,Pizza Pizza,95,"1282 Richmond Road, Staten Island",2670 Coney Island Ave,86
Shishito,Fish,68,"1434 Richmond Road, Staten Island",2670 Coney Island Ave,86
DOUGH By Licastri,The Mark Restaurant by Jean-Georges,86,"1456 Richmond Road #2319, Staten Island",2670 Coney Island Ave,86
Zara Cafe Grill,Stars Cafe & Restaurant,86,"1995 Hylan Boulevard, Staten Island",Hylan Boulevard,90
Nakata Japanese Fusion,ATA,90,"1775-D, Richmond Road, Staten Island",2670 Coney Island Ave,86
The KOVA,The Golden Glass Restaurant,86,"1775B Richmond Road, Staten Island",2670 Coney Island Ave,86
Nakata,ATA,90,"1775 Richmond Road, Staten Island",2670 Coney Island Ave,86
New Garden,New Garden,100,"1755 Richmond Road, Staten Island",2670 Coney Island Ave,86
M & K P'chacho's Restaurant,O S Restaurant,90,"1727 Richmond Road, Staten Island",2670 Coney Island Ave,86
R & D Deli And Grill,deli and grill,95,Staten Island,"1118 Castleton Ave, Staten Island, NY 10310",90
Torino Pizza Cafe,Pizza & Cafe,95,"1694 Richmond Road, Staten Island",2670 Coney Island Ave,86
Heights Cafe,Stars Cafe & Restaurant,86,"84 Montague Street, Brooklyn",brooklyn,90
Fresh Start Marketplace,Star,90,"180 Montague Street #1, Brooklyn",brooklyn,90
Park Plaza,Park Plaza Restaurant,90,"220 Cadman Plaza West, Brooklyn",220 Cadman Plaza W,90
Iron Chef House,Hunan House Chinese Restaurant,86,"92 Clark Street, Brooklyn",brooklyn,90
Mashawi xpress,Xpress Power Lunch Halal Food,86,"100 Henry Street, Brooklyn",brooklyn,90
Cafecito To Go,Good to Go Restaurant,86,"100 Henry Street Clark Street 2/3 train Station, Brooklyn",brooklyn,90
Clark's,Clark's Restaurant,90,"80 Clark Street, Brooklyn",80 Clark St,90
Sushi Gallery,Ginpachi Sushi Restaurant,86,"71 Clark Street, Brooklyn",brooklyn,90
Ozu Japanese Cuisine & Lounge,"Caribbean American Ent. Bar, Lounge & Restaurant",86,"78 Clark Street #2402, Brooklyn Heights",brooklyn,90
Starbucks,Starbucks,100,"228 Duffield Street, Brooklyn",brooklyn,90
Sandy Beaches,Bea,90,"139A Lawrence Street, Brooklyn",brooklyn,90
Circa Brewing Co.,Hyco Restaurant Supply Co,86,"141 Lawrence Street, Brooklyn",brooklyn,90
Momo King,King Chinese Restaurant,86,"139 Lawrence Street, Brooklyn",brooklyn,90
Koji Izakaya,Maya,68,"140 Lawrence Street, Brooklyn",brooklyn,90
Brooklyn Brewhouse,"Golden Forest Chinese Restaurant, Brooklyn Ny",86,"229 Duffield Street, Brooklyn",brooklyn,90
Dining Room,The National Bar & Dining Rooms,90,"56 Willoughby Street, Brooklyn",brooklyn,90
Yaso Tangbao,TANG,90,"148 Lawrence Street, Brooklyn",148 Lawrence St,90
Lee's Villa,Lee's Villa,100,"152 Lawrence Street, Brooklyn",152 Lawrence St,90
Hibachi King Express,King's Chef Chinese Restaurant,86,"150 Lawrence Street, Brooklyn",brooklyn,90
Lin's Yummy Taco Inc.,Theresa's Polish American Restaurant,86,"52 Willoughby Street, Brooklyn",brooklyn,90
Tony Luke's,Theresa's Polish American Restaurant,86,"6 Flatbush Avenue, Brooklyn",Flatbush ave,90
Teriyaki Burrito House,Dumpling House,86,"96a Dekalb Avenue, Brooklyn",brooklyn,90
Java,Java Indonesian Rijsttafel,90,"9 Bond Street, Brooklyn",brooklyn,90
Pipitone's,Pipitone's Pizza & Pasta,90,"100 Dekalb Avenue, Brooklyn",brooklyn,90
Fortina,Fortuna,86,"445 Albee Square West, Brooklyn",brooklyn,90
Nevins foodmart inc.,Foodmart,90,"26 Nevins Street, Brooklyn",brooklyn,90
Bunsmith,Blu,60,"445 Albee Square West, Brooklyn",brooklyn,90
Daigo Hand Roll Bar,Bar Sol De Quito Restaurant II,86,"Dekalb Market Hall, 445 Albee Square West, Brooklyn",brooklyn,90
Fulton Landing Seafood Co.,Q Town (Taiwanes/Chinese/Seafood)Restaurant,86,"445 Albee Square West, Brooklyn",brooklyn,90
Los Tios,Los Pollitos III,86,"206 Hoyt Street, Brooklyn",brooklyn,90
Carroll Gardens Classic Diner,Diner,90,"155 Smith Street, Brooklyn",brooklyn,90
El Nuevo Cibao,Cibao,90,"172 Smith Street, Brooklyn",brooklyn,90
Uglyduckling,Li Li,86,"166 Smith Street, Brooklyn",brooklyn,90
Xochitl Taqueria,Mi Barrio Taqueria Restaurant,86,"176 Smith Street, Brooklyn",brooklyn,90
Ssam Korean Bistro,146-13 Northern Blvd Korean Restaurant,86,"170 Smith Street, Brooklyn",brooklyn,90
Fatty Daddy,Big Daddy's Caribbean Taste Restaurant,86,"152 Smith Street, Brooklyn",brooklyn,90
Caruso's,Caruso's Italian Restaurant,90,"150 Smith Street, Brooklyn",150 Smith St,90
Burrito Bowl Grill,Golden Krust Caribbean Bakery and Grill,86,"230 Hoyt Street, Brooklyn",brooklyn,90
Numero 28,Hee Win Lai / Delight 28,86,"68 Bergen Street, Brooklyn",brooklyn,90
Wanisa Home Kitchen,Home's Kitchen,87,"142 Smith Street, Brooklyn",142 Smith St,90
Atrium DUMBO,under the arch DUMBO food,86,"15 Main Street, Brooklyn",brooklyn,90
Miso,Miso Sushi,90,"40 Main Street, Brooklyn",40 Main St,90
AlMar,Alma,89,"111 Front Street, Brooklyn",1 Front St,90
Front Street Pizza,Pizza,90,"80 Front Street, Brooklyn",brooklyn,90
Juliana's,Juliana's Pizza,90,"55 Water Street, Brooklyn",brooklyn,90
Loco Coco,Jis Coco Restaurant,86,"55 Water Street, Brooklyn",brooklyn,90
55 Water St,St. John's University Hostel,86,"55 Water Street, Brooklyn",brooklyn,90
Bklyn Wild,Brooklyn Bowl,70,"55 Water Street, Brooklyn",brooklyn,90
Thai sidewalk,Mekong Thai & Vietnamese Restaurant,86,"Adams st and, Front Street",Front St,90
Cecconi's Dumbo,Ecco,90,"55 Water Street, Brooklyn",brooklyn,90
Little Ada,Little Bandgladesh Restaurant,86,"55 Water Street, Brooklyn",brooklyn,90
Westville,Westville Wall Street,90,"81 Washington Street, Brooklyn",brooklyn,90
RICE & MISO -Dumbo-,Sweet Rice,86,"139 Plymouth Street, Brooklyn",brooklyn,90
Fish Cheeks,Fish,90,"55 Water Street, Brooklyn",brooklyn,90
Mr Taka,Mr Triunfel Restaurant,86,"55 Water Street, Brooklyn",brooklyn,90
SUGARCANE raw bar grill,Sugarcane,90,"55 Water Street, Brooklyn",brooklyn,90
Archway Cafe,Stars Cafe & Restaurant,86,"57B Pearl Street, Brooklyn",brooklyn,90
Love & Dough,Mother Dough Pizza,86,"57 Pearl Street, Brooklyn",brooklyn,90
Lima Mill Basin,Lima Peruvian Restaurant,86,"6620 Avenue U, Brooklyn",6620 Avenue U,90
La Villa Pizzeria,La Villa Pizzeria & Restaurant,90,"6610 Avenue U, Brooklyn",Avenue U,90
Dagan Kosher Pizza,Kosher Pizza,90,"6187 Strickland Avenue, Brooklyn",brooklyn,90
Dagan Grill,Dagan Pizza & Dairy Restaurant,86,"6185 Strickland Avenue, Brooklyn",brooklyn,90
House Of Salads,C&L Of East Ocean Restaurant,86,"6167 Strickland Avenue, Brooklyn",brooklyn,90
Hunan West,Hunan House Chinese Restaurant,86,"6165 Strickland Avenue, Brooklyn",brooklyn,90
Main House kosher bar & restaurant,Restaurant,90,"6001 Strickland Avenue, Brooklyn",brooklyn,90
FUNFEST BAR &LOUNGE,Bar Sol De Quito Restaurant II,86,"6161 Strickland Avenue, Brooklyn",brooklyn,90
Kach√© Restaurant & Lounge,Kach√© Restaurant & Lounge,100,"2192 Flatbush Avenue, Brooklyn",Flatbush ave,90
2 In 1,2 In 1 Restaurant,90,"2108 Flatbush Avenue, Brooklyn",Flatbush ave,90
HILLS PLACE RESTAURANT BAR AND LOUNGE,Restaurant,90,"2112 Flatbush Avenue, Brooklyn",Flatbush ave,90
Legends Bar & Grill,Gen,90,"2128 Flatbush Avenue, Brooklyn",Flatbush ave,90
East Garden,East Garden,100,"2072 Flatbush Avenue, Brooklyn",Flatbush ave,90
Oasis,Oasis restaurant,90,"2132 Flatbush Avenue, Brooklyn",Flatbush ave,90
Salvi,Salvi's,95,"4220 Quentin Road, Brooklyn",brooklyn,90
Veggie Castle mini,El Guayaquileno Mini Picanteria Food Truck,86,"2085 Flatbush Avenue, Brooklyn",Flatbush ave,90
Lenny & John's Pizza,Lenny & John's Pizza,100,"2036 Flatbush Avenue, Brooklyn",Flatbush ave,90
Mashallha grill and hookah flatbush,C B Finger Licking Jamaican and West Indian Restaurant,86,"2368 Flatbush Avenue, Brooklyn",Flatbush ave,90
Kings Pastrami,Istanblue Kings Restaurant,86,"5119 - A Avenue U, Brooklyn",Avenue U,90
Brooklyn Eats,"Golden Forest Chinese Restaurant, Brooklyn Ny",86,"5119 Avenue U, Brooklyn",Avenue U,90
Mandarin House,Hunan House Chinese Restaurant,86,"2348 Flatbush Avenue, Brooklyn",Flatbush ave,90
Plaza King Coffee Shop,Plaza King Coffee Shop,100,"5117 Avenue U, Brooklyn",Avenue U,90
Corner Delhi,Corner Deli,96,"447 Bergen Street, Brooklyn",brooklyn,90
Bao Bao Tea,Ten Ren's Tea Time Â§©‰ªÅ,86,"5411 7th Avenue, Brooklyn",7th Ave,90
Miss Dong Burger,Da Dong Chinese Restaurant,86,"711 54th Street, Brooklyn",brooklyn,90
Chuan Tian Xia,Tian Jin,86,"5502 7th Avenue, Brooklyn",7th Ave,90
Taiwan Station,Jin Long Food Station,86,"5510 7th Avenue, Brooklyn",7th Ave,90
Rice N Shine,All Refrigeration 'N Restaurant Equipment,86,"5309 7th Ave Basement, Brooklyn",7th Ave,90
Xiang Zhi,Xiang Zhi Restaurant ÈÑâ‰πãÈ¶ôÂë≥,90,"5322 7th Avenue, Brooklyn",7th Ave,90
Hui Wei,Mei Wei Restaurant,86,"706 56th Street, Brooklyn",brooklyn,90
Tokyo Ya,Ota-Ya Japanese Restaurant,86,"5603 7th Avenue, Brooklyn",7th Ave,90
Lucky Happy,Lucky,90,"5602 7th Avenue, Brooklyn",7th Ave,90
Xun Yu Si Kao,Geo Si Gi Restaurant,86,"5609 7th Avenue, Brooklyn",7th Ave,90
Gia Lam,Gia Lam,100,"5414 8th Avenue, Brooklyn",5414 8th Ave,90
‰æùÈ¶ô,Xiang Zhi Restaurant ÈÑâ‰πãÈ¶ôÂë≥,30,Brooklyn,brooklyn,100
Maylin Garden Inc.,Garden 13 Dairy Restaurant and Pizza,86,"5506 8th Avenue, Brooklyn",brooklyn,90
D & Y,D & Y (Yi Xin Mei) Restaurant,90,"5616 7th Avenue, Brooklyn",7th Ave,90
Ê∏îÂ§´ Ai La Shi Dai,La Strada Pizzeria & Restaurant,86,"5209 7th Avenue, Brooklyn",7th Ave,90
Fuding Wok (Ê≠£ÂÆóÁ¶èÈºéËÇâÁâáÔºâ,King Wok Chinese Restaurant,86,"5216 7th Avenue, Brooklyn",7th Ave,90
Á¶è‰πãËàü,Fu Shen Restaurant Á¶èÁ•ûÁâõËÇâÈ§®,30,"5207 7th Avenue, Brooklyn",7th Ave,90
Long Won,Long Wong Bakery,90,"1845 Rockaway Parkway, Brooklyn",brooklyn,90
Richard's Diner,Diner,90,"9606 Avenue L, Brooklyn",brooklyn,90
Dougie's Jamaican Cuisine,Moti's,86,"9604 Avenue L, Brooklyn",brooklyn,90
Good Friend Woo,Friend's Villa Restaurant,86,"9528 Avenue L, Brooklyn",brooklyn,90
Original Pizza,Original Pizza,100,"9514 Avenue L, Brooklyn",brooklyn,90
Bamboo Garden,Bamboo Garden,100,"9501 Avenue L, Brooklyn",brooklyn,90
Chloe's,Theresa's Polish American Restaurant,86,"9413 Avenue L, Brooklyn",brooklyn,90
San Pedro Inn,Sizzle Inn Restaurant,86,"320 Van Brunt Street, Brooklyn",brooklyn,90
Brooklyn Ice House,brooklyn coffee house,87,"318 Van Brunt Street, Brooklyn",brooklyn,90
Mark's Red Hook Pizza,Pizza,90,"326 Van Brunt Street, Brooklyn",brooklyn,90
Red Hook Lobster Pound,Red Hook Lobster Pound,100,"284 Van Brunt Street, Brooklyn",brooklyn,90
Grindhaus,Haru,68,"275 Van Brunt Street, Brooklyn",brooklyn,90
Kevin's,Kevin's Deli,90,"277A Van Brunt Street, Brooklyn",brooklyn,90
Ling Gee,Wai Ling Tex-Mex Chinese Restaurant,86,"287 Van Brunt Street, Brooklyn",brooklyn,90
Red Hook Tavern,Red Star Chinese Restaurant,86,"329 Van Brunt Street, Brooklyn",brooklyn,90
The CopperPot,The Golden Glass Restaurant,86,"347 Van Brunt Street, Brooklyn",brooklyn,90
Somtum Der (Redhook-Brooklyn),"Golden Forest Chinese Restaurant, Brooklyn Ny",86,"380 Van Brunt Street, Brooklyn",brooklyn,90
Hoek Pizza,Pizza Pizza,95,"117 Ferris Street, Brooklyn",brooklyn,90
Fort Defiance,Fort Negril Jamaican Restaurant,86,"365 Van Brunt Street, Brooklyn",brooklyn,90
F & M Cafe,Stars Cafe & Restaurant,86,"383 Van Brunt Street #1007, Brooklyn",brooklyn,90
The Good Fork,Good Day Seafood Restaurant,86,"391 Van Brunt Street, Brooklyn",brooklyn,90
The Brooklyn Biscuit Company,"Golden Forest Chinese Restaurant, Brooklyn Ny",86,"24 Commerce Street, Brooklyn",brooklyn,90
Brooklyn Crab,"Golden Forest Chinese Restaurant, Brooklyn Ny",86,"24 Reed Street, Brooklyn",brooklyn,90
Hometown Bar-B-Que,Bar Sol De Quito Restaurant II,86,"454 Van Brunt Street, Brooklyn",brooklyn,90
Jamit Bistro,Luna Asian Bistro and Japanese Rooftop Restaurant Êó•Êú¨ÊñôÁêÜ,86,"367 Columbia Street, Brooklyn",brooklyn,90
Monte's,Monte's Restaurant,90,"451 Carroll Street, Brooklyn",451 Carroll St,90
Pig Beach,Bea,90,"480 Union Street, Brooklyn",brooklyn,90
Sisig City,Green City Restaurant,86,"305 Nevins Street, Brooklyn",brooklyn,90
MIRROR tea house,Hunan House Chinese Restaurant,86,"575 Union Street, Brooklyn",brooklyn,90
Joya,Joya,100,"215 Court Street, Brooklyn",Court st.,90
BurgerIM,Prime Burger,77,"187 Court Street, Brooklyn",Court st.,90
Oh Dumplings,Li Li,86,"6 Bergen Street, Brooklyn",brooklyn,90
Defonte's Sandwich Shop,Theresa's Polish American Restaurant,86,"379 Columbia Street, Brooklyn",brooklyn,90
Phil's Crummy Corner,Theresa's Polish American Restaurant,86,"323 Columbia Street, Brooklyn",brooklyn,90
Veranda,Veranda Restaurant/ Lounge,90,"20801 Northern Boulevard, Bayside",147-18 Northern Blvd,86
(Grand) Song San Chinese Restaurant,Chinese Restaurant,90,"43-30 Corporal Kennedy Street, Bayside",Street,90
ÏµúÍ∞ÄÎÉâÎ©¥,403 Restaurant,0,"20939 Northern Boulevard, Bayside",147-18 Northern Blvd,86
choiga naengmyeon(ÏµúÍ∞ÄÎÉâÎ©¥),TANG,68,"20941 Northern Boulevard, Bayside",147-18 Northern Blvd,86
Bayside Diner,Bayside Diner,100,"20707 Northern Boulevard, Bayside",147-18 Northern Blvd,86
Korean Noodle House | ÎÑå ÏßúÏû• ÎÇú Ïß¨ÎΩï,ÎÑå ÏßúÏû• ÎÇú Ïß¨ÎΩï,90,"210-09 Northern Boulevard, Queens",147-18 Northern Blvd,86
ÎÑå ÏßúÏû• ÎÇú Ïß¨ÎΩï,ÎÑå ÏßúÏû• ÎÇú Ïß¨ÎΩï,100,"21009 Northern Boulevard, Bayside",147-18 Northern Blvd,86
Cafe 48 & Restaurant,Cafe Restaurant,95,"212-09 48th Avenue, Bayside",8th Ave.,90
Nan Bei Ho,A-HO RESTAURANT,86,"212-22 48th Avenue, Bayside",8th Ave.,90
Guh Sung Chinese Restuarant,"Golden Forest Chinese Restaurant, Brooklyn Ny",86,"45-46 Bell Boulevard, Bayside",45-21 Parsons Blvd,86
New Mei Hua,New Fulin Kwok Seafood Restaurant,86,"212 32 48th Ave, Bayside",8th Ave.,90
Shiba Hotpot,iCook Hotpot Restaurant,86,"21232 48th Avenue, Bayside",8th Ave.,90
MMM That's A Wrap,Theresa's Polish American Restaurant,86,"45-52 Bell Boulevard, Bayside",45-21 Parsons Blvd,86
To Soc Chon,You-Chon Korean Restaurant,86,"45-30 Bell Boulevard, Flushing",45-21 Parsons Blvd,86
Chow Chinese Food,Chinese Food,95,"20503 35th Avenue #1245, Bayside",5th Avenue,90
Luigi Pizza,Luigi's Pizza,95,"20515 35th Avenue, Flushing",5th Avenue,90
Li's Garden Restaurant,Garden Restaurant,95,"38-05 Bell Boulevard, Flushing",142-38 Roosevelt Ave,86
Ayna Agra,Ayna Agra Indian Restaurant,90,"213-35 39th Avenue, Queens",39th,90
Aperitif,Print,72,"213-41 39th Avenue, Bayside",39th,90
Ayna Agra,Ayna Agra Indian Restaurant,90,"213-35 39th Avenue, Queens",39th,90
Maria's Mediterranean,Maria's,90,"38-11 Bell Boulevard, Bayside",40-11 150th St,86
Supper Room & International Bar,National,90,"38-17 Bell Boulevard, Bayside",38 w,86
Avli the little Greek kafe,Little Sagion International Restaurant Group Â∞èË•øÈæöË∂äÂçóÁæéÈ£üÈõÜÂúò,86,"38-29 Bell Boulevard, Bayside",29-30  A Union St,86
Avli the little Greek tavern,Avli Little Greek Tavern,95,"38-31 Bell Boulevard, Bayside",38 w,86
Sushi Bell,Ginpachi Sushi Restaurant,86,"36-28 Bell Boulevard, Bayside",223-28 Union Tpke,86
Jade Sea Restaurant,Jade Sea Restaurant,100,"3514 Bell Boulevard, Flushing",603 Flushing Ave,86
Thai 101,Thai 101,100,"39-15 Bell Boulevard, Bayside",91-15 31st Ave,86
Pho Grand Bayside,Pho Bac,86,"38-40 Bell Boulevard, Queens",40-11 150th St,86
FINO,Portofino Restaurant,90,"39-13 Bell Boulevard, Queens",188-13 Jamaica Ave,86
The Cuban,Cuba,90,"39-17 Bell Boulevard, Queens",13861 Queens Blvd,86
Trattoria 35,Malatesta Trattoria,86,"213-15 35th Avenue, Queens",5th Avenue,90
Amy & Cathy's Chinese Restaurant,Amy's Chinese Restaurant,95,"47-46 Bell Boulevard, Queens",211-47 Jamaica Ave,86
Giant Foodsystem,New Giant chinese restaurant,86,"355 Exterior Street #1, The Bronx",355 Exterior St,90
Julia's Coffee Shop,Julia's Coffee Shop,100,"232 East 144th Street, The Bronx",Street,90
Yankee Twin Eatery,Twin Ponds Restaurant & Bakery,86,"844 River Avenue, The Bronx",844 River Ave,90
Justin's Pizza,Pizza Pizza,95,"840 River Avenue, The Bronx",Between 39th and 40th street on 13th Avenue,86
Bullpen Deli,Deli,90,"66 East 161 Street, The Bronx",Street,90
Sun Flower,Sun Shine Restaurant,86,"900 Gerard Avenue, The Bronx",900 Gerard Ave,90
Eating Tree,Plum Tree restaurant & catering,86,"892 Gerard Avenue, The Bronx",892 Gerard Ave,90
Meiya Kitchen,Halal Chinese Kitchen,86,"858 Gerard Avenue, The Bronx",Between 39th and 40th street on 13th Avenue,86
Lechonera Pollo Sabroso,Pollo Sabroso,90,"850 Gerard Avenue, The Bronx",Between 39th and 40th street on 13th Avenue,86
Flavas International Grill,National,90,"854 Gerard Avenue, The Bronx",Between 39th and 40th street on 13th Avenue,86
Molino Rojo Restaurant,Restaurant,90,"101 East 161 Street, The Bronx",Street,90
Lillys Cafe,Stars Cafe & Restaurant,86,"53 East 167th Street, The Bronx",167th St.,90
Dragon Concourse,Dragon Chinese Restaurant,86,"74 East 167th Street, The Bronx",167th St.,90
Giovanni's Pizza,Giovanni's Pizza,100,"76 East 167th Street, The Bronx",167th St.,90
Corner Style,Roti Corner Restaurant,86,"1195 Walton Avenue, The Bronx",311 Avenue X,86
"Jamaican & American, Inc Restaurant",Restaurant,90,"Walton Avenue, The Bronx",Between 39th and 40th street on 13th Avenue,86
Kennedy's,Kennedy's,100,"1218 Walton Avenue, The Bronx",311 Avenue X,86
Mi Pueblito,Mi Barrio Taqueria Restaurant,86,"111 East 167th Street, The Bronx",167th St.,90
Tony‚Äôs Billiard Cafe,Theresa's Polish American Restaurant,86,"185 East 167th Street, The Bronx",167th St.,90
Bar In Control,El Morro Restaurant & Bar,86,"1215 Grand Concourse, The Bronx",Grand Concourse,90
167 Street Pizza,Pizza Pizza,95,"190 East 167th Street, The Bronx",167th St.,90
Tai Wah,Fuh Wah Restaurant,86,"202 East 167th Street, The Bronx",167th St.,90
Happy Dragon,Happy Family Restaurant,86,"1279 Walton Avenue, The Bronx",311 Avenue X,86
Taqueria Rodriguez 2,Masala 2 Wok,86,"1152 Sheridan Avenue, The Bronx",311 Avenue X,86
At The Wallace,AT&T,90,"3612 Broadway, New York","New York, New York",95
Sita Thai,Mekong Thai & Vietnamese Restaurant,86,"3609 Broadway, New York","New York, New York",95
The Handpulled Noodle,The Loft BKNY Restaurant & Lounge,86,"3600 Broadway, New York","New York, New York",95
Jumbos Pizza Coffee Shop,Jumbo Pizza Coffee Shop,98,"3594 Broadway, New York","New York, New York",95
Broadway Wholesome Food & Beer Garden,Pizza Garden,86,"3578 Broadway, New York","New York, New York",95
La Fiesta,La Fiesta Restaurant,90,"3789 Broadway, New York","New York, New York",95
El Patio Mexicano,Patio,90,"3764 Broadway, New York","New York, New York",95
Oriental,Oriental Restaurant,90,"3774 Broadway, New York","New York, New York",95
Hilltop Park Alehouse,The Restaurant At 432 Park Avenue,86,"3821 Broadway, New York","New York, New York",95
O Y B DELI GROCERI CORP,Deli,90,"559 west 158 streed ENTRE, BROADWAY ANSTERDAND, New York",New York,90
Dylan's Delicious Deli Grocery,Deli Grocery,90,"900 Riverside Drive # 1, New York",New York,90
Guadalupana Mexican Restaurant,Guadalupana Mexican Restaurant,100,"3829 Broadway, New York","New York, New York",95
Sugar Kitchen And Bar,Ambrosia Italian and Albanian Restaurant,86,"500 West 145th Street, New York",45th street,90
One Stop Patty Shop,Number One Chinese Restaurant,86,"1708 Amsterdam Avenue, New York",Amsterdam avenue,90
Kim Tong,Very Tong Seafood Restaurant,86,"4645, 1722 Amsterdam Avenue # 145, New York",Amsterdam avenue,90
Jesus Taco,Mister Taco Mexican Restaurant,86,"501 West 145th Street, New York",501 West 145th Street,95
Las Carisias Restaurant,Restaurant,90,"1693 Amsterdam Avenue, New York",Amsterdam avenue,90
Chopped Parsley,IHOP,68,"500 West 146th Street, New York",New York,90
Wats On Your Plate,620 on Caton Pizzeria and Restaurant,86,"513 West 145th Street, New York",45th street,90
Village Chicken & Burger,Hibiscus Restaurant and Bar - Queens Village,86,"1739 Amsterdam Avenue, New York",Amsterdam avenue,90
L'Artista Italian kitchen Bar,Ming Hing Kitchen,86,"142 Hamilton Place, New York",New York,90
Ecuatoriana,Ecuatoriana,100,"1685 Amsterdam Avenue, New York",Amsterdam avenue,90
P & M Classic Pizza and Restaurant,pizza and restaurant,90,"1747 Amsterdam Avenue, New York",Amsterdam avenue,90
Maria Piadina,Maria's Pizzeria & Restaurant,86,"128 Hamilton Place, New York",New York,90
Brisa Dominicana,Laflor Dominicana Restaurant,86,"1764 Amsterdam Avenue, New York",Amsterdam avenue,90
River Thai & Beyond,Mekong Thai & Vietnamese Restaurant,86,"1766 Amsterdam Avenue, New York",Amsterdam avenue,90
Sugar Hill Cafe,Stars Cafe & Restaurant,86,"410 West 145th Street b1, New York",45th street,90
Mumbai Masala,Tikka Masala Restaurant,86,"1768 Amsterdam Avenue, New York",Amsterdam avenue,90
Golden Wok,Wok Wok,95,"1770 Amsterdam Avenue #1, New York",Amsterdam avenue,90
Sing Wah Kitchen,Sing Wah Sing,95,"3575 Broadway, New York","New York, New York",95
Tacos Azteca Food Truck,Food Truck,90,"3568 Broadway, New York","New York, New York",95
Mamasushi,Kodama Sushi,76,"3569 Broadway, New York","New York, New York",95
Island Bites,Mike's Island Grill Restaurant,86,"2107 1st Avenue, New York","New York, New York",95
Ollin,Famous Pollio Restaurant,72,"339 East 108th Street, New York",New York,90
Mr Chow,Mr Triunfel Restaurant,86,"324 East 57th Street, New York",New York,90
Dai Hachi Sushi,Ginpachi Sushi Restaurant,86,"1074 2nd Avenue, New York","New York, New York",95
Margari Pizza,Pizza Pizza,95,"1072 2nd Avenue, New York","New York, New York",95
Paname,Paname,100,"1068 2nd Avenue, New York","New York, New York",95
The Shadmoor,The Golden Glass Restaurant,86,"1066 2nd Avenue, The Shadmoor",2nd Ave,90
Pita Grill,Pasha Pizza Pita Grill,90,"1083 2nd Avenue, New York","New York, New York",95
Boilery,Olea,68,"1047A 2nd Avenue, New York","New York, New York",95
The Juicy Seafood,Sea,90,"1047A 2nd Avenue, New York","New York, New York",95
Grand Sichuan Eastern,Nano Grand Sweets and Restaurant,86,"1049 2nd Avenue, New York","New York, New York",95
Kurant,403 Restaurant,75,"1091 2nd Avenue, New York","New York, New York",95
UN,Kam Hung,90,"875 1st Avenue, New York","New York, New York",95
Copinette,Print,72,"891 1st Avenue, New York","New York, New York",95
IL Postino,Il Miglio Pizza & Italian Restaurant,86,"337 East 49th Street A, New York",New York,90
TsuKuShi,Matsu Sushi,74,"357 East 50th Street, New York",New York,90
Ali Baba,Ali Baba Turkish Cuisine,90,"862 2nd Avenue, New York","New York, New York",95
Deux Amis,Camilos Deli and Grocery,67,"356 East 51st Street, New York",New York,90
Yaso - Midtown East,East Ocean Seafood Restaurant,86,"220 East 42nd Street, New York",New York,90
HARD ROCK CAFE RESTARANT,Star,90,"225 East 41st Street, New York",New York,90
Pietros,Pietro's,93,"232 East 43rd Street, New York",New York,90
Sakura of Japan,Sakura,90,"819 2nd Avenue, New York","New York, New York",95
MIGHTY Bowl,Campus Sugar Bowl Restaurant,86,"817 2nd Avenue, New York","New York, New York",95
Fresco Tortillas,Fresh Tortillas (Tex-Mex Express) & Japanese Restaurant,86,"819 2nd Avenue, New York","New York, New York",95
Sushi Time,Ginpachi Sushi Restaurant,86,"821 2nd Avenue, New York","New York, New York",95
Alcala,Paulala Restaurant,75,"246 East 44th Street, New York",New York,90
Osteria Laguna,Osteria Laguna,100,"209 East 42nd Street, New York",New York,90
Tsushima,Roy's Fish and Sushi Market,79,"210 East 44th Street, New York",New York,90
Bento Sushi,Ginpachi Sushi Restaurant,86,"685 3rd Avenue, New York","New York, New York",95
Overlook,Overlook,100,"225 East 44th Street, New York",New York,90
Pickler & Co,Hyco Restaurant Supply Co,86,"216 East 45th Street, New York",45th street,90
Sushi Yasuda,Ginpachi Sushi Restaurant,86,"204 East 43rd Street, New York",New York,90
Fantastic Pizza,Pizza Pizza,95,"700 3rd Avenue, New York","New York, New York",95
Bow Ramen,ACME,68,"212 East 45th Street, New York",45th street,90
Slice Pizza,Pizza Pizza,95,"700 3rd Avenue, New York","New York, New York",95
Zaika New York,New Fulin Kwok Seafood Restaurant,86,"230 East 44th Street, New York",New York,90
Cafe Hestia J&J,Stars Cafe & Restaurant,86,"686 3rd Avenue #2, New York",New York,90
Amaze Asian Fusion Cuisine,Annie Chan's Japanese Cuisine Restaurant,86,"694 3rd Avenue, New York","New York, New York",95
Chick-N-Teriyaki,All Refrigeration 'N Restaurant Equipment,86,"Inside Cafe at Deli, 162 East 44th Street, New York",New York,90
INDAY,Xing hui linda,80,"708 3rd Avenue, New York","New York, New York",95
NY Express Halal Food,Express Halal Food,95,"201 East 45th Street, New York",45th street,90
The Grill at tasty cafe,AT&T,90,"162 East 44th Street, New York",New York,90
Hot & Tasty Cafe,Cafe 47,86,"162 East 44th Street, New York",New York,90
Wok to Walk,King Wok Chinese Restaurant,86,"684 3rd Avenue, New York","New York, New York",95
Bagels and Co,Ghoroa Sweets and Restaurant,86,"1428 York Avenue, New York","New York, New York",95
Chez les Frenchies,Les Ambassades Bar & Restaurant,86,"501 East 75th Street, New York",East 75th street,90
Cafe York,Stars Cafe & Restaurant,86,"1384 York Avenue, New York","New York, New York",95
Tanoshi Sushi Sake Bar,Tanoshi Sushi,90,"1372 York Avenue, New York","New York, New York",95
Tanoshi Bento,Benno,72,"1372 York Avenue, New York","New York, New York",95
The Alvin Public House,Public House,90,"406 East 64th Street, New York",St 6,90
Angkor Cambodian Bistro,IKEA Bistro,86,"408 East 64th Street, New York",St 6,90
Sophie's Cuban Cuisine,Sophie's Cuban Cuisine,100,"401 East 68th Street, New York",St 6,90
Felice 64,Li Li,86,"1166 1st Avenue, New York","New York, New York",95
Ginger Root Vegan,Ginger Root Vegan Restaurant,90,"1164 1st Avenue, New York","New York, New York",95
Lunetta Pizza,Pizza Pizza,95,"1162 1st Avenue, New York","New York, New York",95
Milk & Hops Ramen Bar,La Kuchara Ecuadorian Restaurant Bar,86,"1159 1st Avenue, New York","New York, New York",95
Moti Mahal Delux,Moti's,86,"1149 1st Avenue, New York","New York, New York",95
Ahana Asian Fusion Cuisine,Annie Chan's Japanese Cuisine Restaurant,86,"1154 1st Avenue, New York","New York, New York",95
Totoya,Totoya,100,"1144 1st Avenue, New York","New York, New York",95
Sushi Seki,Ginpachi Sushi Restaurant,86,"1143 1st Avenue, New York","New York, New York",95
Ravagh,Ravagh Persian Grill,90,"1135 1st Avenue, New York","New York, New York",95
Best Pizza #2,Best Pizza,95,"1140 1st Avenue #2, New York",New York,90
Imli,Imli Urban Indian Food,90,"1136 1st Avenue, New York","New York, New York",95
AREPA,Marea,80,"369 East 62nd Street, New York",St 6,90
Ritz Diner,Diner,90,"1133 1st Avenue, New York","New York, New York",95
Casablanca Grill NYC,Casa,90,"1132e 1st Avenue, New York","New York, New York",95
Space 62 Market,Seafish Market Seafood Restaurant,86,"1130 1st Avenue, New York","New York, New York",95
Farah Newyork,NewYork-Presbyterian - Labor and Delivery,86,"401 East 62nd Street, New York",St 6,90
Little Gem Catering,Little Bandgladesh Restaurant,86,"345 East 62nd Street, New York",St 6,90
Treadwell Park,Evergreen Park Restaurant,86,"1125 1st Avenue, New York","New York, New York",95
Salvo's Pizzabar,Salvo's Pizzabar,100,"1477 York Avenue, New York","New York, New York",95
Hunan Delight Matsuya,Deli,90,"1467 York Avenue, New York","New York, New York",95
Gotham Pizza,Gotham Pizza,100,"1443 York Avenue, New York","New York, New York",95
Yefsi Estiatorio,Torigo,82,"1481 York Avenue, New York","New York, New York",95
Hero Certified Burgers,American Hero,86,"453 East 78th Street, New York",New York,90
Le Moulin √† Caf√©,Le Fatima Bar & Grill Restaurant,86,"1439 York Avenue, New York","New York, New York",95
Green Bean Caf√©,Bean & Bean,95,"1413 York Avenue, New York","New York, New York",95
Jones Wood Foundry,Layla Jones,86,"401 East 76th Street, New York",New York,90
Italian Village Pizza,Italian Village Pizzeria,93,"1494 1st Avenue #1, New York",New York,90
Canyon Road,Canyon Road Grill,90,"1470 1st Avenue, New York","New York, New York",95
East Side Bagel & Appetizing,East Far,86,"1496 1st Avenue, New York","New York, New York",95
Momokawa,Kar,60,"1466 1st Avenue, New York","New York, New York",95
Bel-Aire Diner,Diner,90,"31 91 21st Street, Queens",Street,90
Arepas Grill,Golden Krust Caribbean Bakery and Grill,86,"21-19, Broadway",Broadway,90
La Sala,La Strada Pizzeria & Restaurant,86,"32-05 Crescent Street, Queens",Crescent St.,90
Boulis Cafe,Stars Cafe & Restaurant,86,"30-15 31st Avenue, Astoria",1st ave.,90
Salerno Pizza,Pizza Pizza,95,"29-24 30th Avenue, Queens",30th Avenue,90
China buffet,China Gourmet Chinese Restaurant,86,Queens,"207-13 Jamaica Ave, Queens, NY 11428",90
Tastee Corner,Taste,90,"30-20 30th Avenue, Astoria",30th Avenue,90
Athens,Athens Restaurant,90,"30-11 30th Avenue, Long Island City",30th Avenue,90
Petey‚Äôs Burger,Theresa's Polish American Restaurant,86,"30-17 30th Avenue, Long Island City",30th Avenue,90
Pita Hot,Hot Pot Jamaican & American Restaurant,86,"25-13 30th Avenue, Astoria",30th Avenue,90
No. 1 Kitchen,No. 1 Kitchen,100,"30-23 30th Avenue, Long Island City",30th Avenue,90
Crescent Kitchen,Crescent Kitchen,100,"2342 30th Avenue, Long Island City",30th Avenue,90
3 Bros 99 Cent Pizza,Pizza,90,"2503 30th Avenue, Astoria",30th Avenue,90
La Flor Vieja Taqueria üåµ,La Roja de Todos Restaurant & Bakery,86,"32-03 31st Avenue, Queens",1st ave.,90
Namaste of Astoria,C&L Of East Ocean Restaurant,86,"31-15 30th Avenue, Astoria",30th Avenue,90
Merzouka Cafe,Stars Cafe & Restaurant,86,"29-14 Crescent Street, Queens",Crescent St.,90
Burger Club,Club Deli Restaurant,86,"32-02 30th Avenue, Astoria",30th Avenue,90
Astoria Pizza,Pizza Pizza,95,"32-04 30th Avenue, Long Island City",30th Avenue,90
Orale!! Tacos!!,Tacos Puebla Restaurant,86,23-23 30th Avenue,30th Avenue,90
Duke Ellington Gourmet Deli,Deli,90,"934 Columbus Avenue, New York",New York,90
Casa Mexicana,Casa,90,"894 Amsterdam Avenue, New York",Amsterdam avenue,90
New Kam Lai,New Kam Lai,100,"890 Amsterdam Avenue, New York",Amsterdam avenue,90
Colosseo Romano,Colosseo Romano Restaurant Pizzeria,90,"886 Amsterdam Avenue, New York",Amsterdam avenue,90
Living Thai Cuisine,Mekong Thai & Vietnamese Restaurant,86,"931 Amsterdam Avenue, New York",Amsterdam avenue,90
Bosino,Bosino Brick Oven Pizza,90,"201 West 103rd Street, New York",New York,90
Grain House,Hunan House Chinese Restaurant,86,"929 Amsterdam Avenue, New York",Amsterdam avenue,90
Mighty Catch,Something Catchy Seafood Restaurant,60,"940 Columbus Avenue, New York",New York,90
Curry King,King Chinese Restaurant,86,"942 Columbus Avenue, New York",New York,90
The Tang,TANG,90,"920 Amsterdam Avenue, New York",Amsterdam avenue,90
125th Pizza of Harlem,Pizza,90,"256 East 125th Street, New York",New York,90
Lechonera La Isla,Lechonera La Isla,100,"254 East 125th Street, New York",New York,90
Tropical Grill,Tropical Grill & Restaurant,90,"2419 2nd Avenue, New York","New York, New York",95
Mott Haven Bar & Grill,Ott,90,"1 Bruckner Boulevard, The Bronx",1 Worlds Fair Marina,86
Charlies Bar & Kitchen,La Kuchara Ecuadorian Restaurant Bar,86,"112 Lincoln Avenue, The Bronx",311 Avenue X,86
Hudson Smokehouse,The Shops & Restaurants at Hudson Yards,86,"37 Bruckner Boulevard, The Bronx",37-10 114th St,86
Ceetay,Century,62,"129 Alexander Avenue, The Bronx",311 Avenue X,86
Beatstro,Bea,90,"135 Alexander Avenue, The Bronx",311 Avenue X,86
Don Pancho's,Theresa's Polish American Restaurant,86,"43 Bruckner Boulevard, The Bronx",729 Bruckner Blvd,86
Hang Chou,Hang Chou,100,"2266 3rd Avenue, New York","New York, New York",95
Big Boyz Burgerz,Big D's Old Harbor Restaurant,86,"2054 Lexington Avenue, New York",New York,90
El Maco,El Morro Restaurant & Bar,86,"1481 Jerome Avenue, The Bronx",311 Avenue X,86
La Estrella,La estrella,100,"1470 Jerome Avenue, The Bronx",1470 Jerome Ave,90
Ningbo Cafe,Stars Cafe & Restaurant,86,"21 South End Avenue, New York",New York,90
Miramar,Miramar Seafood Restaurant,90,"21 South End Avenue, New York",New York,90
Gigino At Wagner Park,Gigino at Wagner Park,100,"20 Battery Place, New York","New York, New York",95
Inatteso Pizzabar,Inatteso Pizzabar Casano,95,"28 West Street, New York","New York, New York",95
Benvenuti Pizzeria,La Strada Pizzeria & Restaurant,86,"235 South End Avenue, New York",New York,90
Treadwell Park,Evergreen Park Restaurant,86,"301 South End Avenue, New York",New York,90
Picasso Pizza,Pizza Pizza,95,"303 South End Avenue, New York",New York,90
Home JJG,Belky's Home Style Cooking Restaurant,86,"225 Rector Place, New York","New York, New York",95
West Bank Gourmet Deli,West Bank Gourmet,95,"21 West Street, New York","New York, New York",95
Suno Sushi,Sumo Sushi,90,"17 Battery Place, New York","New York, New York",95
Sauce & Barrel,ACME,68,"97 Washington Street, New York",New York,90
Bliss Bowl,Bliss restaurant and karaoke,86,"89 Washington Street, New York",New York,90
St. George Tavern,St. John's University Hostel,86,"103 Washington Street, New York",New York,90
El Taquitos Steak House,Tokyo Steak,86,"2511 3rd Avenue, The Bronx",3rd Ave.,90
Monte's Brick Oven,Theresa's Polish American Restaurant,86,"136 Alexander Avenue, The Bronx",311 Avenue X,86
Balimaya,Maya,90,"2535 3rd Avenue, The Bronx",2535 3rd Ave,90
Freshly Made,Made In New York Pizza,86,"2535 3rd Avenue, The Bronx",2535 3rd Ave,90
Bricks & Hops,IHOP,68,"65 Bruckner Boulevard, The Bronx",729 Bruckner Blvd,86
Angies Cafe & Pizza,Pizza,90,"2559 3rd Avenue, The Bronx",3rd Ave.,90
Chung Ching,Chung Ching Restaurant,90,"262 Alexander Avenue, The Bronx",311 Avenue X,86
Jing Xin,Jing Xin Chinese Restaurant,90,"359 East 138th Street #2, The Bronx",38th St,90
Taco Veloz VIP,Mister Taco Mexican Restaurant,86,"359 East 138th Street, The Bronx",38th St,90
Ela Taverna Astoria,Astoria Restaurant Supply Store,86,"26-19 23rd Avenue, Queens",3rd Ave.,90
Sandros Latin Food Restaurant,Restaurant,90,"2703 23rd Avenue, Astoria",2703 23rd Ave,90
KOF NYC King Of Falafel & Shawarma,King Hing,86,"30-16 Ditmars Boulevard, Queens",29-30  A Union St,86
Gregory's 26 Corner Taverna,Moti's,86,"26-02 23rd Avenue, Long Island City",3rd Ave.,90
Houssine Halal Food Cart,Halal Food,90,"22-14 31st Street, Astoria",31st Street,90
Porto Bello,Porto Bello Pizza and Restaurant,90,"43-18 Ditmars Boulevard, Queens",147-18 Northern Blvd,86
Taverna Kos,Akrotiri Seafood Taverna Restaurant,86,"41-19 23rd Avenue, Astoria",3rd Ave.,90
Christos Steak House,Hunan House Chinese Restaurant,86,"4108 23rd Avenue, Queens",3rd Ave.,90
Brothers Taverna,Brothers Pizza and Restaurant,86,"23-01 Steinway Street, Queens",Steinway Street,90
Hong Kong & Amei House,Hong Kong,90,"23-07 Steinway Street, Queens",Steinway Street,90
El-Zahraa Beer & Halal Food,Halal Food,90,"2311 Steinway Street, Astoria",Steinway Street,90
Alembi Hookah Bar,Bar Sol De Quito Restaurant II,86,"23-63 Steinway Street, Astoria",Steinway Street,90
East Coast Street Tacos,Queen of Tacos,86,"41-06 Astoria Boulevard South, Long Island City",Cristofordo Columbo Boulevard,86
Azur lounge,Taipan Fusion Restaurant and Hookah Lounge,86,"33-29 Astoria Boulevard, Queens",29-30  A Union St,86
Harpell's Ditmars Pharmacy,Moti's,86,"23-25 31st Street, Astoria",31st Street,90
Dionysos Restaurant,Dionysos Restaurant,100,"23-15 31st Street, Astoria",23-15 31st St,90
Balkh Shish Kabab House,Dumpling House,86,"23-10 31st Street, Astoria",31st Street,90
Rivercrest,Milk River Restaurant,81,"33-15 Ditmars Boulevard, Queens",91-15 31st Ave,86
Local Kitchen,Halal Chinese Kitchen,86,"3507 Ditmars Boulevard, Astoria",10015 Astoria Blvd,86
Nino‚Äôs AQ,Nino's,90,"35-01 Ditmars Boulevard, Queens",171-01 Northern Blvd,86
Brooklyn Bagel & Coffee Company,Brooklyn Bagel & Coffee Company,100,"35-09 Ditmars Boulevard, Long Island City",2670 Coney Island Ave,86
Boon Chu 2,Chu Jiang Chinese Restaurant,86,"35-13 Ditmars Boulevard, Astoria",10015 Astoria Blvd,86
Taverna Kyclades,Akrotiri Seafood Taverna Restaurant,86,"33-07 Ditmars Boulevard, Astoria",33-07,90
Burgerology,Eros,68,"31-29 Ditmars Boulevard, Astoria",29-30  A Union St,86
Kilo Astoria,Astoria Restaurant Supply Store,86,"31-27 Ditmars Boulevard, Astoria",10015 Astoria Blvd,86
Bubba's Bistro,Theresa's Polish American Restaurant,86,"31-13A Ditmars Boulevard, Astoria",10015 Astoria Blvd,86
Fresca Tortilla,Esca,90,"31-15 Ditmars Boulevard, Astoria",10015 Astoria Blvd,86
New York Sports Bar,New Fulin Kwok Seafood Restaurant,86,"Terminal 8, Gate 10, JFK Airport",37-10 114th St,86
ABITINO'S PIZZA,Abitino's Pizza & Cafe,95,Jamaica,196 23 Jamaica Avenue,90
Bagel Boss,Bagel Restaurant,86,"69-48 Main Street, Flushing",Main Street,90
Carlos and Gabby's,Ghoroa Sweets and Restaurant,86,"69-44 Main Street, Queens",Main Street,90
Grill Point,Grill Point,100,"69-54 Main Street, Flushing",Main Street,90
The New Pizza Professor,The New Pizza Professor,100,"141-25 Jewel Avenue, Flushing",25-25 Parsons Blvd,86
Bravo,Bravo African Restaurant,90,"69-26 Main Street, Flushing",69-26 Main St,90
Naomi's Kosher Pizza,Kosher Pizza,90,"68-28 Main Street, Flushing",Main Street,90
SOYSAUCE Kosher Chinese Takeout,Chinese Restaurant,86,"68-22 Main Street, Flushing",Main Street,90
Shimon's Kosher Pizza,Kosher Pizza,90,"7124 Main Street, Flushing",Main Street,90
Sushi kingdom & Asian Fusion,Taipan Fusion Restaurant and Hookah Lounge,86,"71-30 Main Street, Flushing",Main Street,90
Main Bakhtar Halal Kabab,Halal,90,"6729 Main Street, Flushing",Main Street,90
The Upper Crust Queens,CRUST,90,"67-11 Main Street, Flushing",Main Street,90
Sammy's Beach Bar & Grill,Moti's,86,"Terminal 4, 7, Jamaica","207-13 Jamaica Ave, Queens, NY 11428",86
Kobeyaki,Sea,60,"1 Central Terminal Area, Jamaica",1 Worlds Fair Marina,86
Burger joint New York,New Fulin Kwok Seafood Restaurant,86,"1 Central Terminal Area, Jamaica",1 Worlds Fair Marina,86
Brindle Room,Living Room Lounge,86,"1 Central Terminal Area, Jamaica",1 Worlds Fair Marina,86
Bayside Marina,World Fair Marina Restaurant & Banquet,86,"28-05 Cross Island Parkway, Bayside",152-28 Northern Blvd,86
Tropilyz,Tropilyz Restaurant,90,"164 West 116th Street, New York",New York,90
Assinie,Passiones Restaurant,77,"201 West 116th Street, New York",New York,90
Crepe Master,Crepe Suzette Restaurant,86,"139 West 116th Street, New York",New York,90
Make My Fish,Fish,90,"120 West 116th Street, New York",New York,90
Le Baobab Gouygui,Le Banquet,86,"120 West 116th Street, New York",New York,90
Harlem Pizza Co.,Pizza Pizza,95,"135 West 116th Street, New York",New York,90
Keur Coumba,Cuba,68,"125 West 116th Street, New York",New York,90
Jumbo Hamburgers,Jumbo Chinese Restaurant,86,"112 West 116th Street, New York",New York,90
Safari,Safari Carribean American Restaurant,90,"219 West 116th Street, New York",New York,90
Juke Box Juice & Salads,Lobster Box,86,"1943 Adam Clayton Powell Junior Boulevard, New York",New York,90
Seasoned Vegan,Sea,90,"55 Saint Nicholas Avenue, New York",New York,90
Greedy Pot,Hot Pot Jamaican & American Restaurant,86,"1944 Adam Clayton Powell Junior Boulevard, New York",New York,90
Amy Ruth's,Amy Ruth's,100,"113 West 116th Street, New York",New York,90
Minton's Playhouse,Theresa's Polish American Restaurant,86,"206 West 118th Street, New York",New York,90
Lolo's Seafood Shack,Sea,90,"303 West 116th Street, New York",New York,90
Harlem Tavern,El Nuevo Harlem Restaurant,86,"2153 Frederick Douglass Boulevard, New York",New York,90
Mama's Fried Chicken,Theresa's Polish American Restaurant,86,"2150 Frederick Douglass Boulevard, New York",New York,90
"Chubby's Burger, Chicken Pizza & Grill",Chubby Burger Chicken & Pizza,95,"2158 Frederick Douglass Boulevard, New York",New York,90
Peking Kitchen II,Peking Kitchen,95,"2162 Frederick Douglass Boulevard, New York",New York,90
Spaha Soul & Bone Broth,Caribbean Soul Restaurant Rooftop & Lounge,86,"2294 2nd Avenue, New York","New York, New York",95
The London Irish Pub,The Loft BKNY Restaurant & Lounge,86,"355 East 116th Street, New York",New York,90
Sapoara,Parm,68,"2262 1st Avenue, New York","New York, New York",95
Teng Dragon,Dragon Chinese Restaurant,86,"2260 1st Avenue #1, New York",New York,90
Cassava House,Hunan House Chinese Restaurant,86,"2270 1st Avenue, New York","New York, New York",95
Evelyn's Kitchen,Theresa's Polish American Restaurant,86,"2317 1st Avenue, New York","New York, New York",95
Lady's Seafood & Soulfood,Moti's,86,"2321 1st Avenue, New York","New York, New York",95
La Avenida,La Strada Pizzeria & Restaurant,86,"2247 1st Avenue, New York","New York, New York",95
New Kennedy Fried Chicken & Pizza,Kennedy Fried Chicken & Pizza,95,"1 West 137th Street, New York",37th,90
Lynx Kitchen,Halal Chinese Kitchen,86,"1 West 137th Street, New York",37th,90
Stingray‚Äôs,Theresa's Polish American Restaurant,86,"2150 5th Avenue, New York","New York, New York",95
Strictly roots vegan roti/juices,Roti Boti,86,"486 Malcolm X Boulevard, New York",New York,90
Great wall,Great Wall,100,"527-9 Malcolm X Boulevard, New York",New York,90
Pizza Stop,Pizza Stop,100,"531 Malcolm X Boulevard, New York",New York,90
Lowe's Eatery,Theresa's Polish American Restaurant,86,"101 West 136th Street, New York",New York,90
Easy Corner,Roti Corner Restaurant,86,"101 West 136th Street, New York",New York,90
Callie‚Äôs Taqueria & Tequila Bar,Moti's,86,"547 Lenox Avenue, New York","New York, New York",95
Presto Fresh Cafe,Cafe 47,86,"559 Malcolm X Boulevard, New York",New York,90
Daily G Inc.,Sunshine Restaurant Food & Catering Inc,86,"34-12 Union Street, Flushing",Street,90
ÎåÄÌôîÏñëÍº¨Ïπò,Î≥ëÏ≤úÏûêÎß§ÏàúÎåÄ (Byun Chung Soon Dae Restaurant) (Byun Chung Soon Dae Restaurant),12,"34-40 Union Street, Queens",Street,90
DA HUA CHUAN DIAN Â§ßÂçé‰∏≤Â∫ó,New Rong Hua,86,"34-40 Union Street, Flushing",Street,90
Maple Garden,Garden 13 Dairy Restaurant and Pizza,86,"42-09 Main Street, Flushing",Main Street,90
Pho Best,Best Food Restaurant,86,"42-35 Main Street #1k, Flushing",Main Street,90
Niu Pot,Hot Pot Jamaican & American Restaurant,86,"42-35 Main Street, Flushing",Main Street,90
Dumpling Galaxy,Galaxy Chinese Restaurant,86,"42-35 Main Street, Flushing",Main Street,90
Teaus Sushi Burrito,Umi Sushi,86,"42-35 Main Street, Queens",Main Street,90
Leaf Garden,Garden 13 Dairy Restaurant and Pizza,86,"42-35 Main Street, Flushing",Main Street,90
Âë≥‰πãÂ±ã Hua & Zhen Inc,Sunshine Restaurant Food & Catering Inc,86,"41-82 Main Street, Flushing",Main Street,90
‰∏âÂÆùÁÉßÁÉ§‰∏≤,403 Restaurant,0,"1-99 41st Avenue, Flushing",1st ave.,90
Hunan Kitchen of Grand Sichuan,Hunan K,90,"42-47 Main Street, Queens",Main Street,90
Kabul Kabob House,Hunan House Chinese Restaurant,86,"42-51 Main Street, Flushing",Main Street,90
Tong's Cafe,Theresa's Polish American Restaurant,86,"4151 Main Street, Flushing",Main Street,90
NiuddoÁâõÈÅìÁ≤âÈù¢,Ippudo,60,"41-42 Main Street, Queens",Main Street,90
Sheng Jin,Jin Cheng Restaurant,86,"41-40 Main Street, Flushing",40 Main St,90
changle cuisine inc,Annie Chan's Japanese Cuisine Restaurant,86,"41-42A Main Street, Flushing",Main Street,90
Jing Feng Fish Ball Inc.,Fish,90,"41-40 Main Street, Flushing",40 Main St,90
Latin Bakery,bakery,90,"4141 Main Street, Flushing",Main Street,90
Cafe Rustico,Cafe R,90,"726 149th Street, Whitestone",9th St,90
Taco Azul,Mister Taco Mexican Restaurant,86,"1008 Clintonville Street, Whitestone",Street,90
Bubbas Spot,T&G Restaurant Spot,86,"10-15 Clintonville Street, Whitestone",Street,90
The Clinton,The Golden Glass Restaurant,86,"9-17 Clintonville Street, Whitestone",Street,90
Sergimmo Salumeria Whitestone,One & One,86,"150-39 14th Avenue, Whitestone",4th Ave,90
Max Deli & Grill,Deli & Grill,95,"14-02 Clintonville Street, Whitestone",Street,90
Springfield & La Bari Pizzeria,Gino's Pizzeria,86,"13613 Farmers Boulevard, Queens",13030 Farmers Blvd,86
Kelly Fire House Wings,Dumpling House,86,"169-75 137th Avenue, Jamaica",7th Ave,90
Yummy Garden,Yummy Yummy,95,"169-91 137th Avenue, Jamaica",7th Ave,90
Scaddies Caribbean Fuzion,Caribbean Flavor & American Restaurant,86,"147-04 Foch Boulevard, Jamaica",147-18 Northern Blvd,86
Golden Imperial Palace,"Golden Forest Chinese Restaurant, Brooklyn Ny",86,"618 62nd Street, Brooklyn",618 62nd St,90
New fu shen restaurant,New Fu Sing Restaurant,91,"6110 7th Avenue, Brooklyn",7th Ave,90
Fu Shen,Fu Shen Restaurant Á¶èÁ•ûÁâõËÇâÈ§®,90,"6110 7th Avenue, Brooklyn",7th Ave,90
Wu La Bu Huan,La Strada Pizzeria & Restaurant,86,"6102 7th Avenue, Brooklyn",7th Ave,90
Pok√©Bowl Station + Mars Tea,Food Station,86,"6116 7th Avenue, Brooklyn",7th Ave,90
Thanh Da,Da Wong Chinese Restaurant,86,"6008 7th Avenue, Brooklyn",7th Ave,90
ÁæéÈ£üÊûóÊÄªÂ∫ó,Beef Bar RestaurantÁâõÂêßÁæéÈ£üÂùä,36,"6124 7th Avenue, Brooklyn",7th Ave,90
ÊúàËä±Âùämoon flower house,Hunan House Chinese Restaurant,86,"5912 7th Avenue, Brooklyn",7th Ave,90
Rich Village,Rich Village Restaurant,90,"6009 7th Avenue, Brooklyn",7th Ave,90
Toyama,Yamada Japanese Restaurant,71,"6001 7th Avenue, Brooklyn",7th Ave,90
ÔºàÊΩ≠Â§¥Ôºâ‰æùÁ´†È±º‰∏∏Â∫ó,D&D 2,28,"5919 7th Avenue, Brooklyn",7th Ave,90
ÔºàË∞≠Â§¥Ôºâ‰æùÁ´†È±º‰∏∏Â∞èÂêÉÂ∫ó,D&D 2,28,"5919 7th Avenue, Brooklyn",7th Ave,90
Jing Way,Yan Jing Chinese and Japanese Restaurant,86,"706 60th Street, Brooklyn",brooklyn,90
Holy Crab Boiling,Crab Shanty,86,"5915 7th Avenue, Brooklyn",7th Ave,90
Wei Mei Xian,Mei Hao Restaurant,86,"705 60th Street, Brooklyn",brooklyn,90
Tasty pot Âë≥Èºé,Hot Pot Jamaican & American Restaurant,86,"715 61st Street, Brooklyn",brooklyn,90
Âë≥ÂèØÂ±Ö,Henan Feng Wei Ê≤≥ÂçóÈ¢®Âë≥,30,"5820 7th Avenue, Brooklyn",7th Ave,90
D & D Coffee Shop,Double D's Coffee Shop,95,"4508 Fort Hamilton Parkway, Brooklyn",brooklyn,90
Meal Mart,Maspeth Mini Mart,86,"4521 Fort Hamilton Parkway, Brooklyn",brooklyn,90
AJ's Pizzeria & Restaurant,Pizzeria & Restaurant,95,"4412 Fort Hamilton Parkway, Brooklyn",brooklyn,90
Best Coffee Shop,Best Coffee Shop,100,"4410 Fort Hamilton Parkway, Brooklyn",brooklyn,90
China Xing,China Xing,100,"4419 New Utrecht Avenue, Brooklyn",brooklyn,90
Golden Dragon,Golden Dragon,100,"4413 New Utrecht Avenue, Brooklyn",brooklyn,90
Bar Sol De Quito Restaurant II,Bar Sol De Quito Restaurant II,100,"4417 New Utrecht Avenue, Brooklyn",4417 New Utrecht Ave,90
Zoom Kosher Food Station,Food Station,90,"4302 Fort Hamilton Parkway, Brooklyn",brooklyn,90
Mi Pequeno Ranchito,Mi Barrio Taqueria Restaurant,86,"46-14 New Utrecht Avenue, Brooklyn",brooklyn,90
Antonjitos De Mi Terra,La Roja de Todos Restaurant & Bakery,86,"4614 New Utrecht Avenue, Brooklyn",4614 New Utrecht Ave,90
3 In 1 Kitchen,3 In 1 Kitchen,100,"4902 Fort Hamilton Parkway, Brooklyn",brooklyn,90
Rancho San Miguel,Miguel Bautista Restaurant,86,"4109 New Utrecht Avenue, Brooklyn",brooklyn,90
J & J Hot Food & Salad,J & J Hot Food & Salads,98,"4916 Fort Hamilton Parkway, Brooklyn",brooklyn,90
Jimmy's Deli & Grill,Jimmy's Deli and Grill!,95,"4922 Fort Hamilton Parkway, Brooklyn",brooklyn,90
Chuan Yue,Tong Yue Restaurant,86,"842 64th Street, Brooklyn",brooklyn,90
Golden Bay House,"Golden Forest Chinese Restaurant, Brooklyn Ny",86,"6409 8th Avenue, Brooklyn",6409 8th Ave,90
David Pizza,Pizza Pizza,95,"6305 Fort Hamilton Parkway, Brooklyn",brooklyn,90
ÈáëÁÖåÂ§ßÈÖíÊ®ì,Jing Fong Restaurant ÈáëË±êÂ§ßÈÖíÊ®ì,72,"802 64th Street, Brooklyn",brooklyn,90
Lan zhou noodles,Lan King Chinese Restaurant,86,"6301 8th Avenue, Brooklyn",brooklyn,90
Yummy Chummy ‰ºçËÆ∞Â∞èÈ£ü,Yummy Yummy,86,"6301 8th Avenue, Brooklyn",brooklyn,90
Peng Shun,Shun Deck Restaurant,86,"6301 8th Avenue, Brooklyn",brooklyn,90
Shanghai Traditional Dumpling,Shanghai,90,"6301 8th Avenue #1, Brooklyn",brooklyn,90
Euphoria KTV,Kissena Restaurant KTV Lounge & Bar,86,"834 62nd Street, Brooklyn",834 62nd St,90
6321 Yuan Bao Gourmet,China Gourmet Chinese Restaurant,86,"6321 8th Avenue, Brooklyn",brooklyn,90
Top Taste,Top Taste Restaurant,90,"6307 8th Avenue, Brooklyn",6307 8th Avenue,90
CALATO Brooklyn Kitchen,"Golden Forest Chinese Restaurant, Brooklyn Ny",86,"508 55th Street, Brooklyn",brooklyn,90
El Viejo Jhons,El Morro Restaurant & Bar,86,"5603 5th Avenue, Brooklyn",5th Avenue,90
J&B Yummy Pizza,Yummy Yummy,95,"5507 5th Avenue, Brooklyn",5th Avenue,90
Palacio Chino,Palacio Chino,100,"5621 5th Avenue, Brooklyn",5th Avenue,90
Corona Great China,China Gourmet Chinese Restaurant,86,"5421 5th Avenue, Brooklyn",5th Avenue,90
Lang Qi,Lang Qi Chinese Restaurant,90,"5701 7th Avenue, Brooklyn",7th Ave,90
Tulcingo,Tulcingo,100,"5520 5th Avenue, Brooklyn",5th Avenue,90
Flor de izucar,Bar Sol De Quito Restaurant II,86,"4021 5th Avenue, Brooklyn",5th Avenue,90
Judy's,Judy's Restaurant,90,"4022 5th Avenue, Brooklyn",5th Avenue,90
Castillo Restaurant,Castillo Restaurant,100,"4020 5th Avenue, Brooklyn",4020 5th Ave,90
Rinconcito Familiar,El Rinconcito De Los Sabores Restaurant & Deli,86,"4118 5th Avenue, Brooklyn",4118 5th Ave,90
Sisters Sushi House,Sisters,90,"4228 5th Avenue, Brooklyn",5th Avenue,90
Dulce Imagen Corporation,Gen,90,"4415 5th Avenue, Brooklyn",4415 5th Ave,90
Modoo Chicken and Noodle Bar,Taipan Fusion Restaurant and Hookah Lounge,86,"216-17 Northern Boulevard, Bayside",147-18 Northern Blvd,86
Mammas Pizza & Restaurant,Mamma's Pizza and Restaurant,91,"47-40 Bell Boulevard, Bayside",40-11 150th St,86
Tea Station,Ten Ren's Tea Time Â§©‰ªÅ,86,"47-16 Bell Boulevard, Bayside",211-47 Jamaica Ave,86
Laterna Estiatorio + Catering,Laterna Restaurant,86,"47-20 Bell Boulevard, Bayside",144-20,86
Jimmy's Trattoria,Theresa's Polish American Restaurant,86,"45-73 Bell Boulevard, Bayside",45-21 Parsons Blvd,86
Panda Garden Chinese Restaurant,Panda Garden Chinese Restaurant,100,"215-10 Northern Boulevard, Bayside",147-18 Northern Blvd,86
O2 BBQ,Korean BBQ Restaurant,86,"45-53 Bell Boulevard, Bayside",45-21 Parsons Blvd,86
Chicken Lovers Bayside,Chicken Lovers,90,"215-09 Northern Boulevard, Queens",147-18 Northern Blvd,86
Pete's Brooklyn Eats,Theresa's Polish American Restaurant,86,"5620 1st Avenue, Brooklyn",brooklyn,90
Bari Sandwich Shop,Bari's,90,"135 58th Street, Brooklyn",brooklyn,90
Cafe 58,Stars Cafe & Restaurant,86,"169 58th Street, Brooklyn",brooklyn,90
NYU Lutheran Coffee Shop,Le Coffee Shop (NYU Lutheran),95,"5501 1st Avenue, Brooklyn",brooklyn,90
Tacos Carmelita Parientes,Queen of Tacos,86,"5701 2nd Avenue, Brooklyn",2nd Ave,90
Pickles & Olives,Li Li,86,"5601 2nd Avenue, Brooklyn",2nd Ave,90
Bistro Fifty Four,Two Four One St Cafe Restaurant,86,"5414 2nd Avenue, Brooklyn",2nd Ave,90
Lutheran Luncheonette,One & One,86,"5414 2nd Avenue, Brooklyn",2nd Ave,90
Sunset Coffee Shop,Sunset Coffee Shop,100,"5416 2nd Avenue, Brooklyn",2nd Ave,90
Yadi's catering,Theresa's Polish American Restaurant,86,"24 Devon Ter, Brooklyn",brooklyn,90
Los Compadres,Los Compadres Food - ATM,90,"5502 3rd Avenue, Brooklyn",5502 3rd Ave,90
Tonypizzeria61@gmail,Pizza,72,"6112 4th Avenue, Brooklyn",6112 4th Ave,90
Tony's Pizza and Restaurant,Tony's Pizza and Restaurant,100,"6112 4th Avenue, Brooklyn",6112 4th Ave,90
Reloko cafe,Stars Cafe & Restaurant,86,"371 62nd Street, Brooklyn",brooklyn,90
China 1,No 1 china,95,"5602 4th Avenue, Brooklyn",4th Ave,90
Metro Bagel & Cafe,Cafe 47,86,"5811 4th Avenue, Brooklyn",4th Ave,90
A and K,Ghoroa Sweets and Restaurant,86,"4408 3rd Avenue, Brooklyn",4408 3rd Ave,90
C-Xique,C-Xique Coffee Shop,90,"4420 3rd Avenue, Brooklyn",brooklyn,90
Los Poblanos,El Rinconcito De Los Sabores Restaurant & Deli,86,"4312 3rd Avenue, Brooklyn",4312 3rd Ave,90
La Ternura,La Strada Pizzeria & Restaurant,86,"4210 3rd Avenue, Brooklyn",4210 3rd Ave,90
Sunset Pizza,Pizza Pizza,95,"4704 3rd Avenue, Brooklyn",4704 3rd Ave,90
Gran Villa,Gran Villa Restaurant,90,"4002 3rd Avenue, Brooklyn",brooklyn,90
Zona Sur Bar Bistro,Bar Sol De Quito Restaurant II,86,"4314 4th Avenue, Brooklyn",4th Ave,90
Tacos El Bronco,Tacos El Bronco,100,"4324 4th Avenue, Brooklyn",4th Ave,90
Isabela's,Theresa's Polish American Restaurant,86,"4412 4th Avenue, Brooklyn",4412 4th Ave,90
Mi Castillo Ecuatoriano,El Castillo Restaurant Spanish Food,86,"4316 4th Avenue, Brooklyn",4316 4th Ave,90
Life Gourmet Deli & Grocery,Deli & Grocery,90,"4418 4th Avenue, Brooklyn",4th Ave,90
Yummy Yummy,Yummy Yummy,100,"4122 4th Avenue, Brooklyn",4th Ave,90
Yafa Cafe,Stars Cafe & Restaurant,86,"4415 4th Avenue, Brooklyn",4th Ave,90
Yafa Deli & Grill,Deli & Grill,95,"4423 4th Avenue, Brooklyn",4th Ave,90
Candelas,Candelas BK,95,"4413 4th Avenue, Brooklyn",4th Ave,90
Ta-Keto Restaurant,Restaurant,90,"314 39th Street, Brooklyn",brooklyn,90
Brooklyn Roots NYC,"Golden Forest Chinese Restaurant, Brooklyn Ny",86,"4601 4th Avenue, Brooklyn",4th Ave,90
Alnoor halal deli,Halal,90,"710 4th Avenue, Brooklyn",4th Ave,90
Castillo De Jagua,El Castillo De Jagua,95,"721 4th Avenue, Brooklyn",4th Ave,90
Brothers Pizza,Brothers Pizza,100,"647 4th Avenue, Brooklyn",4th Ave,90
Metropolitano,Li Li,86,"133 17th Street, Brooklyn",brooklyn,90
YEMANI CUISINE Brooklyn NY,"Golden Forest Chinese Restaurant, Brooklyn Ny",86,"634 4th Avenue, Brooklyn",4th Ave,90
Taksim Square 2,Oliva Paraiso Restaurant No 2,86,"776 4th Avenue, Brooklyn",4th Ave,90
San Pedro Deli,Deli,90,"780 4th Avenue, Brooklyn",4th Ave,90
Bravazo,Bravo African Restaurant,64,"782 4th Avenue, Brooklyn",782 4th Avenue,90
Lima,Lima 33 Restaurant,90,"782 4th Avenue, Brooklyn",782 4th Avenue,90
El Sabor Latino,El Nuevo Sabor Latino,95,"620 4th Avenue, Brooklyn",4th Ave,90
Usuluteco,Restaurante Salvadoreno Usuluteco,90,"5014 3rd Avenue, Brooklyn",brooklyn,90
Los Poblanos,El Rinconcito De Los Sabores Restaurant & Deli,86,"4 Avenue, 36th Street, Brooklyn",brooklyn,90
Zeng's,Zeng's Restaurant,90,"950 4th Avenue, Brooklyn",4th Ave,90
Kay Cheong,Kay Cheong Restaurant,90,"950 4th Avenue, Brooklyn",4th Ave,90
Sunset Bagels Cafe & Grill,Cafe 47,86,"946 4th Avenue, Brooklyn",4th Ave,90
Spiro's,Spiro's Food Truck,90,"942 4th Avenue, Brooklyn",42 4th Ave,90
La Familia,La Familia Restaurant Mexicano,90,"938 4th Avenue, Brooklyn",4th Ave,90
Los Tres Potrillos,El Rinconcito De Los Sabores Restaurant & Deli,86,"1004 4th Avenue, Brooklyn",4th Ave,90
nacho crespo,Crispo,75,"3910 4th Avenue, Brooklyn",4th Ave,90
Cafe La Morena,La Strada Pizzeria & Restaurant,86,"950 3rd Avenue, Brooklyn",brooklyn,90
Reina De La Nube,Reina de La Nube Restaurant And Bakery,90,"922 4th Avenue, Brooklyn",4th Ave,90
Hero Champ Restaurant,Restaurant,90,"948 3rd Avenue, Brooklyn",brooklyn,90
Setagaya,Star,68,"934 3rd Avenue, Brooklyn",brooklyn,90
Campesino Dominicano Restaurant,Restaurant,90,"1987 University Avenue, The Bronx",196 23 Jamaica Avenue,86
Morris Heights Pizza,Pizza,90,"1987 University Avenue, The Bronx",196 23 Jamaica Avenue,86
Reyna Restaurant,Reyna Restaurant,100,"1969 University Avenue, The Bronx",196 23 Jamaica Avenue,86
Reina Restaurant,Reina Restaurant,100,"1969 Doctor Martin Luther King Junior Boulevard, The Bronx",Cristofordo Columbo Boulevard,86
New Xing Wang,New Xing Wang Chinese Restaurant,90,"62 West Burnside Avenue, The Bronx",196 23 Jamaica Avenue,86
Ming Ling,Ming Star Chinese Restaurant,86,"62 West Burnside Avenue, The Bronx",196 23 Jamaica Avenue,86
Accra,Accra Restaurant,90,"2041 Davidson Avenue, The Bronx",2041 Davidson Ave,90
Juniors,Boca Juniors Argentine Steakhouse,90,"20 West Burnside Avenue, The Bronx",144-20,86
Shopland Deli & Grill,Deli,90,"25 West Tremont Avenue, The Bronx",25-25 Parsons Blvd,86
Kennedy Fried chicken,Kennedy Fried Chicken,100,"1893 West Burnside Avenue, The Bronx",196 23 Jamaica Avenue,86
Gabi Juice Bar,El Morro Restaurant & Bar,86,"16 West Burnside Avenue, The Bronx",196 23 Jamaica Avenue,86
Diego's Pizza,Pizza Pizza,95,"1995 Jerome Avenue, The Bronx",311 Avenue X,86
Liberato Restaurant,Alberto Restaurant,92,"10 West Burnside Avenue, The Bronx",37-10 114th St,86
Elena's,Elena's 43,95,"5 West Tremont Avenue, The Bronx",196 23 Jamaica Avenue,86
Cuchara Restaurant,Restaurant,90,"182 West Burnside Avenue, The Bronx",196 23 Jamaica Avenue,86
Good Taste of Bronx,Good Taste,90,"187 West Burnside Avenue, The Bronx",196 23 Jamaica Avenue,86
El Sabro Son,El Sabroso,91,"148 West Burnside Avenue, The Bronx",196 23 Jamaica Avenue,86
Golan Heights,Purity Restaurant At Prospect Heights,86,"2553 Amsterdam Avenue, New York",Amsterdam avenue,90
Grandma's Pizza,Pizza Pizza,95,"2551 Amsterdam Avenue, New York",Amsterdam avenue,90
The Kettle Black,The Golden Glass Restaurant,86,"415 Forest Avenue, Staten Island",Forest Avenue,90
Kyoto Sushi V,Kyoto Sushi,95,"418 Forest Avenue, Staten Island",418 Forest Ave,90
Baya Bar,El Morro Restaurant & Bar,86,"416 Forest Avenue, Staten Island",Forest Avenue,90
Ho'Brah,A-HO RESTAURANT,86,"412 Forest Avenue, Staten Island",412 Forest Ave,90
Cafe Milano,Cafe M,90,"401 Forest Avenue, Staten Island",Forest Avenue,90
Liberty Tavern,Liberty Punjab Indian Restaurant,86,"382 Forest Avenue, Staten Island",Forest Avenue,90
New Diamond Forest,New Fulin Kwok Seafood Restaurant,86,"356 Forest Avenue, Staten Island",Forest Avenue,90
Jody's Club Forest,Theresa's Polish American Restaurant,86,"372 Forest Avenue, Staten Island",Forest Avenue,90
Marmar,Marmaris Restaurant,90,"370 Forest Avenue, Staten Island",Forest Avenue,90
Don Chucho,Don Pepe Restaurant,86,"1112 Forest Avenue, Staten Island",1112 Forest Ave,90
Cuzco,CuZco Peruvian Restaurant,90,"1190 Forest Avenue, Staten Island",1190 Forest Ave,90
Forest Kebab House,"Golden Forest Chinese Restaurant, Brooklyn Ny",86,"1190 Forest Avenue, Staten Island",1190 Forest Ave,90
Baroma Bistro and Bar,Ambrosia Italian and Albanian Restaurant,86,"1190 Forest Avenue, Staten Island",1190 Forest Ave,90
Call It A Wrap,a taberna Portuguese restaurant,86,"1198 Forest Avenue, Staten Island",Forest Avenue,90
Sumac,S'MAC,80,"1198 Forest Avenue B, Staten Island",Forest Avenue,90
Forest BBQ,"Golden Forest Chinese Restaurant, Brooklyn Ny",86,"1098 Forest Avenue, Staten Island",Forest Avenue,90
Dolce Fantasia,La Dolce Bakery & Pastry Shoppe,86,"1210 Forest Avenue, Staten Island",Forest Avenue,90
Forest Thai,"Golden Forest Chinese Restaurant, Brooklyn Ny",86,"1211 Forest Avenue, Staten Island",Forest Avenue,90
Crown Palace,China palace chinese restaurant,86,"1267 Forest Avenue, Staten Island",Forest Avenue,90
Gyro King (Staten Island ),King Hing,86,"1267 Forest Avenue, Staten Island",Forest Avenue,90
G-Knows Cheesesteaks,M&G Diner,86,"1310 Forest Avenue, Staten Island",1310 Forest Ave,90
Michelangelo's & Pizza,Pizza,90,"860 Post Avenue, Staten Island",311 Avenue X,86
Delafield Pizza,Pizza Pizza,95,"731 Delafield Avenue, Staten Island",196 23 Jamaica Avenue,86
Veronica's Bakery Inc.,bakery,90,"906 Post Avenue, Staten Island",311 Avenue X,86
Fortune Cookie,Fortune Cookies Chinese Restaurant,90,"1351 Forest Avenue #15, Staten Island",1351 Forest Ave,90
M & M Deli Superette,Deli,90,"234 Richmond Terrace, Staten Island",2670 Coney Island Ave,86
D & B Chinese Double,"Golden Forest Chinese Restaurant, Brooklyn Ny",86,"74A Westervelt Avenue, Staten Island",196 23 Jamaica Avenue,86
Mamoun's,Mamoun's Falafel,90,Staten Island,"1118 Castleton Ave, Staten Island, NY 10310",90
Waffle De Lys,Bar Sol De Quito Restaurant II,86,Staten Island,"1118 Castleton Ave, Staten Island, NY 10310",90
Ferris Wheel Yogurt Smoothie and Cafe,Stars Cafe & Restaurant,86,"1 Ferry Terminal Viaduct, Staten Island",1 Worlds Fair Marina,86
Famous New York Pizza,Pizza,90,"430 Jersey Street, Staten Island",Street,90
New Pair Jan,New Pair Jan Chinese Restaurant,90,"403 Jersey Street, Staten Island",403 Jersey St,90
Casa Blanca,Casa,90,"155 Lafayette Avenue, Staten Island",Lafayette Ave,90
Casa Blanca Restaurant Bar & Lounge,Casa Restaurant & Lounge,95,"151 Lafayette Avenue, Staten Island",Lafayette Ave,90
Lucky Garden,Lucky,90,"143 Lafayette Avenue, Staten Island",Lafayette Ave,90
Mixteca Poblana,Taqueria La Mixteca Restaurant,86,"104 Victory Boulevard, Staten Island",2670 Coney Island Ave,86
El Bronkito,El Morro Restaurant & Bar,86,"97 Victory Boulevard, Staten Island",2670 Coney Island Ave,86
Mi Tierra Mexican Restaurant,Mi Tierra Restaurant,95,"31 Corson Avenue, Staten Island",311 Avenue X,86
Indian Xpres Staten Island,C B Finger Licking Jamaican and West Indian Restaurant,86,"19 Corson Avenue, Staten Island",165-19 Northern Blvd,86
Tony's Original's Pizzeria,Original Tony's Pizza,88,"11 Corson Avenue, Staten Island",40-11 150th St,86
Long River,Long River Chinese Restaurant,90,"101-6 88th Street, Ozone Park",Street,90
Martiniello's Pizzeria & Italian Restaurant III,Restaurant,90,"89-01 101st Avenue, New York",New York,90
Food Gems Ltd,famous restaurant Chinese food,86,"8423 Rockaway Boulevard, Ozone Park",133 Rockaway Ave,86
Don Pollo,Pica Pollo Restaurant,86,"83-02 95th Avenue, Ozone Park",5th Avenue,90
Asian Cafe,Stars Cafe & Restaurant,86,"158-28 Cross Bay Boulevard, Howard Beach",152-28 Northern Blvd,86
Bruno Ristorante,Nonno's Pizzeria Ristorante,86,"158-22 Cross Bay Boulevard, Queens",13861 Queens Blvd,86
Pacific Kitchen,Chang Jiang Kitchen Chinese Restaurant,86,"4255 Amboy Road, Staten Island",563 Coney Island Ave,86
Leo‚Äôs Pizza,Leo's pizza,100,"4275 Amboy Road, Staten Island",563 Coney Island Ave,86
Joyce's Tavern,Theresa's Polish American Restaurant,86,"3823 Richmond Avenue, Staten Island",Richmond Avenue,90
Frank And Danny's,Ghoroa Sweets and Restaurant,86,"4369 Amboy Road, Staten Island",563 Coney Island Ave,86
Giovannis Trattoria,Gino's Brick Oven Pizza and Trattoria,86,"3800 Richmond Avenue, Staten Island",Richmond Avenue,90
Patrizia's Of Staten Island,Moti's,86,"4255 Amboy Road, Staten Island",563 Coney Island Ave,86
Original Giuseppes Pizza,Pizza,90,"4300 Amboy Road, Staten Island",563 Coney Island Ave,86
Arirang Hibachi Steakhouse,Duke's Steakhouse,86,"23A Nelson Avenue, Staten Island",196 23 Jamaica Avenue,86
Village Maria Pizzeria,X-tra Cheese Pizzeria & Restaurant,86,"3995 Amboy Road, Staten Island",563 Coney Island Ave,86
Nonna's Pizza Great Kills,Pizza,90,"27 Brower Court, Staten Island",178-27 Hillside Ave,86
Foo Sing,Food Sing,94,"3979 Amboy Road, Staten Island",563 Coney Island Ave,86
La Iguana Azul restaurant & lounge,Restaurant,90,"8 Giffords Lane, Staten Island",563 Coney Island Ave,86
Mercado Ariana deli,Ariana,90,"30 Giffords Lane, Staten Island",29-30  A Union St,86
Montefino,Monteforte Bakery,70,"842 Hunts Point Avenue, The Bronx",842 Hunts Point Ave,90
Xin Ya,Xin Ya Chinese Restaurant,90,"898 Hunts Point Avenue, The Bronx",898 Hunts Point Ave,90
Friendship Deli Grocery,Friendship Deli Grocery,100,"1043 East 163rd Street, The Bronx",Street,90
Colombian food DC,famous restaurant Chinese food,86,"103-19 52nd Avenue f 2, Queens",2nd Ave,90
Vinny's Pizzeria,Vinnie's Pizzeria,91,"9701 57th Avenue, Flushing",7th Ave,90
New Star,Star,90,"9703 57th Avenue, Flushing",7th Ave,90
East Dragon,C&L Of East Ocean Restaurant,86,"9517 57th Avenue, Queens",7th Ave,90
Bravazo Restaurante NY,Restaurant,90,"97-15 57th Avenue, Corona",7th Ave,90
Lefrak Pizza,Pizza Pizza,95,"97-17 57th Avenue, Corona",7th Ave,90
Ming's Kitchen,Ming Hing Kitchen,87,"5615 Junction Boulevard, Elmhurst",3452 Junction Blvd,86
Bravazo,Bravo African Restaurant,64,"97-15 57th Avenue, Queens",7th Ave,90
Ez‚Äôs Halal food cart,Halal Food Cart,95,"97-27 57th Avenue, Queens",7th Ave,90
Nutripan Bakery,Nutripan,90,"56-09 Junction Boulevard, Queens",3452 Junction Blvd,86
Silver Spoon Diner,Silver Spoon Diner,100,"5821 Junction Boulevard, Elmhurst",3452 Junction Blvd,86
Junction Halal food,Halal Food,90,"163 Horace Harding Expressway, Queens",13861 Queens Blvd,86
Miller's Ale House - Rego Park,Miller's Ale House - Rego Park,100,"6135 Junction Boulevard, New York",New York,90
Momentos Pizza,Pizza Pizza,95,"40-53 99th Street, Corona",9th St,90
Momentos Grill Bar Restaurant,Restaurant,90,"41-07 99th Street, Flushing",9th St,90
May Chun Garden,Garden 13 Dairy Restaurant and Pizza,86,"40-75 Junction Boulevard, Flushing",40-11 150th St,86
Nuevo Tacos Al Suadero,Queen of Tacos,86,"97-22 Roosevelt Avenue, Corona",Roosevelt Ave.,90
Nuevo Don Francisco Restaurant,Don Francisco Restaurant,95,"40-56 Junction Boulevard, Flushing",40-11 150th St,86
La Esquina De La Salchipapa Ecuatoriana 1,Ecuatoriana,90,"98-01 Roosevelt Avenue, Corona",Roosevelt Ave.,90
Charo Bros Restaurant,Charo Restaurant,95,"40-42 Junction Boulevard, Corona",40-11 150th St,86
Crystal's,Theresa's Polish American Restaurant,86,"9911 39th Avenue, Flushing",39th,90
LA POLLERA COLORADA III,La Roja de Todos Restaurant & Bakery,86,"40-15 Junction Boulevard, Corona",40-11 150th St,86
Tacos Mexico,Tacos Mexico,100,"4110 102nd Street, Corona",4110 102nd St,90
Quisqueya,Quisqueya Restaurant,90,"97-01 Roosevelt Avenue, Corona",Roosevelt Ave.,90
Rincon Criollo,El Rincon Restaurant & Grill,86,"40-09 Junction Boulevard, Corona",40-11 150th St,86
Los Tres Potrillos,El Rinconcito De Los Sabores Restaurant & Deli,86,"40-20 Junction Boulevard, Corona",40-11 150th St,86
Taco Veloz,Mister Taco Mexican Restaurant,86,"9606 Roosevelt Avenue, Corona",Roosevelt Ave.,90
Taste of Italy,Taste of Italy Pizza Restaurant,90,"40-05 Junction Boulevard, Corona",40-11 150th St,86
Joy Siang Garden,Joy Siang,90,"4121 National Street, Flushing",4121 National St,90
El Pollo Peruano,El Morro Restaurant & Bar,86,"4119 National Street, Flushing",Street,90
Chimi Express,Cam Tak Express Restaurant,86,"101-17 43rd Avenue, Corona",3rd Ave.,90
Amenecer Latino,Sabor Latino Cuchifrito Restaurant,86,"9638 Corona Avenue, Flushing",Between 39th and 40th street on 13th Avenue,86
IL Triangolo,Il Miglio Pizza & Italian Restaurant,86,"96-01 Corona Avenue, Corona",Between 39th and 40th street on 13th Avenue,86
La Esquina Criolla,La Esquina Criolla,100,"94-67 Corona Avenue, Elmhurst",94-67 Corona Ave,90
Junction Deli and Grill,Deli,90,"4910 Junction Boulevard, Queens",3452 Junction Blvd,86
El Gran Chimi Deli & Grill,El Gran Chimi Deli & Grill,100,"9466 Corona Avenue, Queens",Between 39th and 40th street on 13th Avenue,86
Costa Verde,La Costa Grill Restaurant,86,"94-59 Corona Avenue, Queens",Between 39th and 40th street on 13th Avenue,86
New Taste,New Taste Chinese Restaurant,90,"94-62 Corona Avenue, Queens",Between 39th and 40th street on 13th Avenue,86
El Gauchito,El Morro Restaurant & Bar,86,"94-60 Corona Avenue, Queens",Between 39th and 40th street on 13th Avenue,86
El Guayaquileno,El Guayaquileno Mini Picanteria Food Truck,90,"94-54 Corona Avenue, Elmhurst",311 Avenue X,86
El Cuencanito,El Morro Restaurant & Bar,86,"99-12 Alstyne Avenue, Corona",Between 39th and 40th street on 13th Avenue,86
Sarita's Bakery,sarita's bakery,100,"94-12 Corona Avenue, Elmhurst",99-12 Northern Blvd,86
Fansway Teriyaki & Sushi Kitchen,Halal Chinese Kitchen,86,"4304c Junction Boulevard, Queens",3452 Junction Blvd,86
Sabor Peruano,Sabor Latino Cuchifrito Restaurant,86,"98-53 Corona Avenue, Corona",Between 39th and 40th street on 13th Avenue,86
Chicken teriyaki,Crazy Chicken Restaurant & Coffee Shop,86,"43-4 Junction Boulevard, Queens",3452 Junction Blvd,86
Little Chinantla Rest Inc,Sunshine Restaurant Food & Catering Inc,86,"9606 43rd Avenue, Corona",3rd Ave.,90
Taste of Dolly's,Taste of Dolly's Pizza & Pasta Restaurant,90,"40-07 111th Street, Corona",40-07 111th St,90
El Gallo Negro,El Gallo Negro,100,"111-12 Roosevelt Avenue, Flushing",111-12 Roosevelt Ave,90
El Callao,El Morro Restaurant & Bar,86,"111-22 Roosevelt Avenue, Corona",Roosevelt Ave.,90
Los Tres Potrillos,El Rinconcito De Los Sabores Restaurant & Deli,86,"111-16 Roosevelt Avenue, Corona",Roosevelt Ave.,90
Mam√° Catalina,ATA,90,"111-20 Roosevelt Avenue, Queens",111-20 Roosevelt Ave,90
La Gitana,La Gitana Panaderia & Restaurant,90,"11103 Roosevelt Avenue, Flushing",Roosevelt Ave.,90
Victoria's Pizzeria Restaurant,Pizzeria & Restaurant,95,"111-17 Roosevelt Avenue, Queens",Roosevelt Ave.,90
New King House,New Fulin Kwok Seafood Restaurant,86,"11115 Roosevelt Avenue, Flushing",Roosevelt Ave.,90
The King Of Empanadas,The Loft BKNY Restaurant & Lounge,86,"37-55 108th Street, Flushing",Street,90
Vinicio's,Vinicio's Restaurant,90,"40-21 108th Street, Flushing",40-21 108th St,90
Los Amigos Chimichurry,El Rinconcito De Los Sabores Restaurant & Deli,86,"108-40 Roosevelt Avenue, Corona",Roosevelt Ave.,90
Luz De America,Bar Sol De Quito Restaurant II,86,"104-30 Roosevelt Avenue, Corona",Roosevelt Ave.,90
NEW MING GARDEN RESTAURANT,New Garden Restaurant,95,"10428 Roosevelt, Flushing",Roosevelt,90
Five Star Mart,Star,90,"4015 104th Street, Corona",Street,90
Tortilleria Nixtamal,Jian,68,"104-23 Roosevelt Avenue, Queens",Roosevelt Ave.,90
Tortas tacos y quesadillas Guerrero,J Y R Restaurant,86,"39 18 111th Street, Corona",11th Street,90
La Mitad Del Mundo,Mitad Del Mundo,95,"10410 Roosevelt Avenue, Corona",10410 Roosevelt Ave,90
Los Mismos Amigos,Los Mismos Amigos,100,"104-11 Roosevelt Avenue, Corona",104-11 Roosevelt Ave,90
Palo Bar,El Palo Bar & Restaurant,90,"38-12 104th Street, Corona",Street,90
El Encuentro Restaurant,El Reencuentro Restaurant,96,"3901 104th Street, Corona",Street,90
Estrella Latina bar & Grill,"Caribbean American Ent. Bar, Lounge & Restaurant",86,"39-07 104th Street, Corona",Street,90
Brisa Del Cibao,La Brisa Del Cibao,95,"37-79 103rd Street, Flushing",103rd Street,90
Angelo's Pizza,Angelo's Pizza,100,"39-03 103rd Street, Queens",103rd Street,90
La Caba√±a,La Caba√±a II Salvadore√±a Restaurante,90,"3917 103rd Street, Queens",103rd Street,90
Tamale cart,Orlando's Food Restaurant Cart,86,"10317 Roosevelt Avenue, Corona",Roosevelt Ave.,90
El Pasillo,El Pasillo Restaurant,90,"3769 103rd Street, Queens",3769 103rd St,90
Rio Bravo Restaurant,Rio Bravo Restaurant,100,"3782 103rd Street, Flushing",103rd Street,90
Tacos Al Suadero,Masters of Tacos Mexican Restaurant,86,"39-04 103rd Street, Corona",103rd Street,90
Restaurante Cositas Ricas,Restaurant,90,"Roosevelt Avenue, Corona",Roosevelt Ave.,90
Nueva Villa,Friend's Villa Restaurant,86,"39-10 103rd Street, Flushing",103rd Street,90
Rincon Latino,Rincon Latino Restaurant.,90,"39-12 103rd Street, Flushing",103rd Street,90
Jia Bao 103,Jia Fu Lou Chinese Restaurant,86,"37-61 103rd Street, Corona",103rd Street,90
Caravan Of Dreams,Caravan of Dreams,100,"405 East 6th Street, New York",St 6,90
Royal Bangladesh,Port Royal Jamaican Restaurant,86,"93 1st Avenue, New York","New York, New York",95
Panna II Garden,Panna II Garden Indian Restaurant,90,"93 1st Avenue #2, New York","New York, New York",95
Mancora,Mancora Peruvian Restaurant & Bar,90,"97 1st Avenue, New York","New York, New York",95
Sigiri,Sigiri Sri Lankan Cuisine,90,"91 1st Avenue, New York","New York, New York",95
MILON,Pavillon Restaurant,72,"93 1st Avenue # 2, New York",93 1st Ave,90
upstate craft beer & oyster bar,Craft,90,"95 1st Avenue, New York","New York, New York",95
Apna Masala,Tikka Masala Restaurant,86,"344 East 6th Street, New York",St 6,90
The Chippery NYC,The Golden Glass Restaurant,86,"85 1st Avenue, New York","New York, New York",95
Emmy Squared - East Village,Village Restaurant,86,"83 1st Avenue, New York","New York, New York",95
Tableside Italian Cook Shoppe,David's Pizzeria Restaurant Italian & Mexican Food Bakery,86,"345 East 6th Street, New York",St 6,90
Sushi Dojo,Ginpachi Sushi Restaurant,86,"110 1st Avenue, New York","New York, New York",95
Kindred,Indie,67,"342 East 6th Street, New York",St 6,90
Hunan Slurp,Hunan House Chinese Restaurant,86,"112 1st Avenue, New York","New York, New York",95
Ugly Kitchen,Halal Chinese Kitchen,86,"103 1st Avenue #2951, New York",New York,90
Kyo Ya,Ota-Ya Japanese Restaurant,86,"94 East 7th Street, New York",New York,90
O!nigiri NYC,O N Coffee Shop Restaurant,86,"94 Saint Marks Place, New York",New York,90
De may,Flor De Mayo,90,"96 Saint Marks Place, New York",New York,90
The Wild Son,The Golden Glass Restaurant,86,"132 1st Avenue, New York","New York, New York",95
Xe May Sandwich Shop,Loma restaurant and coffee shop,86,"96 Saint Marks Place, New York",New York,90
NIGHTMARKET Â§úÂ∏ÇÊπØÈ∫µ,Marea,72,"130 1st Avenue, New York","New York, New York",95
Dumpling Man NY,"Golden Forest Chinese Restaurant, Brooklyn Ny",86,"100 Saint Marks Place, New York",New York,90
Taberna 97,a taberna Portuguese restaurant,86,"97 Saint Marks Place, New York",New York,90
Pizza by Horus,Pizza Pizza,95,"99 Saint Marks Place, New York",New York,90
M√°L√† Project,The People Food Project,86,"122 1st Avenue, New York","New York, New York",95
Cafe Mogador,Cafe M,90,"101 Saint Marks Place # 1, New York",New York,90
Bubbleology,Blue,68,"120 1/2 1st Avenue, New York",New York,90
Caracas Arepa Bar,Bar Sol De Quito Restaurant II,86,"91 East 7th Street, New York",New York,90
Ravagh,Ravagh Persian Grill,90,"125 1st Avenue, New York","New York, New York",95
Stromboli Pizza,Stromboli Pizza,100,"83 Saint Marks Place, New York",New York,90
Drunken Dumpling,Kai Feng Fu Dumpling House,86,"137 1st Avenue, New York","New York, New York",95
Dan and John's Wings,Ambrosia Italian and Albanian Restaurant,86,"135 1st Avenue, New York","New York, New York",95
David's Caf√©,Theresa's Polish American Restaurant,86,"110 Saint Marks Place, New York",New York,90
The Organic Grill,The Golden Glass Restaurant,86,"123 1st Avenue, New York","New York, New York",95
Blue Ribbon Fried Chicken,Blue,90,"28 East 1st Street, New York",New York,90
Kollectiv,Pizza Collective,80,"21 East 1st Street, New York",New York,90
Naturees,Natures delights,80,"21 East 1st Street, New York",New York,90
Rosie's,Aunt Rosie's Restaurant,90,"29 East 2nd Street, New York",New York,90
Baar Baar,Bazar Tapas Bar and Restaurant,76,"13 East 1st Street, New York",New York,90
Anyway Cafe,Stars Cafe & Restaurant,86,"34 East 2nd Street, New York",New York,90
La Vie Lounge,La Strada Pizzeria & Restaurant,86,"64 East 1st Street, New York",New York,90
Proto's Pizza,Pronto's pizza,96,"50 2nd Avenue, New York","New York, New York",95
El Diablito Taqueria,El Mexicano,86,"60 East 3rd Street, New York",New York,90
Fools Gold NYC,The NYC Bull - Restaurant & Rotisserie,86,"145 East Houston Street, New York",New York,90
Divya's Kitchen,Theresa's Polish American Restaurant,86,"25 1st Avenue, New York","New York, New York",95
Genji Sushi,Gen,90,"95 East Houston Street, New York",New York,90
Lil' Frankie's,Theresa's Polish American Restaurant,86,"19 1st Avenue, New York","New York, New York",95
Bowery BBQ,Korean BBQ Restaurant,86,"95 East Houston Street, New York",New York,90
Bowery Pizza,Pizza Pizza,95,"95 East Houston Street, New York",New York,90
John's of 12th Street. OUR DINING ROOM IS CLOSED BUT WE ARE OPEN FOR DELIVERIES AND TAKEOUT. Add a BOTTLE OF WINE to your order!,John's of 12th Street,90,"302 East 12th Street, New York",New York,90
Dunhuang,Dun Huang Seafood Restaurant,79,"300 East 12th Street, New York",New York,90
Strings,Bip America Restaurant Listings,77,"188 2nd Avenue, New York","New York, New York",95
Sarita's Mac And Cheese,S'MAC,90,"343 East 12th Street, New York",New York,90
Sauce,El Sauce Restaurant,90,"345 East 12th Street, New York",New York,90
Pangea,Pangea,100,"178 2nd Avenue, New York","New York, New York",95
Cacio e Pepe,E and J Restaurant,86,"182 2nd Avenue, New York","New York, New York",95
Nirvana Cafe & Bar,Bar Sol De Quito Restaurant II,86,"176 2nd Avenue, New York","New York, New York",95
Motorino,Torigo,71,"349 East 12th Street, New York",New York,90
Numero 28 Pizzeria,La Strada Pizzeria & Restaurant,86,"176 2nd Avenue, New York","New York, New York",95
Thai Terminal,Mekong Thai & Vietnamese Restaurant,86,"349 East 12th Street, New York",New York,90
Yummy House,Yummy Yummy,95,"174 2nd Avenue, New York","New York, New York",95
Love Mama,Mama‚Äôs Coffee Shop & Restaurant,86,"174 2nd Avenue #5751, New York",New York,90
Plump Dumpling,Kai Feng Fu Dumpling House,86,"174 2nd Avenue, New York","New York, New York",95
PHO' Seng,SAPA Pho Vietnamese Restaurant,86,"174 2nd Avenue #5751, New York",New York,90
Ducks Eatery,Lowes Eatery Jamaican & Southern Style Cuisine,86,"351 East 12th Street, New York",New York,90
Wickedly Hot Thai Cuisine,Annie Chan's Japanese Cuisine Restaurant,86,"174 2nd Avenue, New York","New York, New York",95
S'MAC East Village,S'MAC,90,"197 1st Avenue, New York","New York, New York",95
Jeepney,Gen,60,"201 1st Avenue, New York","New York, New York",95
ICHI 88,88 Chinese Restaurant,86,"188 1st Avenue, New York","New York, New York",95
Sahara East,Sahara East,100,"184 1st Avenue, New York","New York, New York",95
Madina Deli Shop,Deli,90,"402 East 11th Street, New York",New York,90
Halal in East Village,Halal,90,"400 East 11th Street, New York",New York,90
Madina,Madina Restaurant and Sweets,90,"180 1st Avenue, New York","New York, New York",95
Koko Wings,Wings Chinese Restaurant,86,"192 1st Avenue, New York","New York, New York",95
Vegan Love,Ginger Root Vegan Restaurant,86,"263 East 10th Street, New York",New York,90
Joe & Pat‚Äôs NYC,Theresa's Polish American Restaurant,86,"168 1st Avenue, New York","New York, New York",95
Culture In A Bowl (Vegan),A-HO RESTAURANT,86,"263 East 10th Street, New York",New York,90
Ahimsa Garden,Garden 13 Dairy Restaurant and Pizza,86,"265 East 10th Street, New York",New York,90
Ferns,Jennifer's Restaurant,72,"166 1st Avenue, New York","New York, New York",95
Jintan,Tian Jin,82,"164 1st Avenue #164, New York",New York,90
Hearth,Hearth,100,"403 East 12th Street, New York",New York,90
Brodo - East Village,East Dynasty Chinese Restaurant,86,"200 1st Avenue, New York","New York, New York",95
Beron Beron,NumberOneChineseRestaurant,86,"164 1st Avenue, New York","New York, New York",95
Little Tong Noodle Shop,Little Sagion International Restaurant Group Â∞èË•øÈæöË∂äÂçóÁæéÈ£üÈõÜÂúò,86,"177 1st Avenue, New York","New York, New York",95
Iggy's,Ziggy's Mexican Beach Food and Bar,90,"173 1st Avenue, New York","New York, New York",95
Tatsu Ramen,Ajisen Ramen,70,"167 1st Avenue, New York","New York, New York",95
Toco,Poco,75,"1564 Westchester Avenue, The Bronx",Westchester ave,90
Back Home,Back Home Jamaican Restaurant,90,"750 East 169th Street, The Bronx",9th St,90
G & L Deli Pizza,Pizza Pizza,95,"634 East 169th Street, The Bronx",9th St,90
Sing Sing Kitchen,Sing Sing Kitchen,100,"638 East 169th Street, The Bronx",9th St,90
ZamZam Halal Gyro & Grill,Halal,90,"633 East 169th Street, The Bronx",9th St,90
Island Cafe,Stars Cafe & Restaurant,86,"949 Jewett Avenue, Staten Island",196 23 Jamaica Avenue,86
The LocaL,The Golden Glass Restaurant,86,"316 Manor Road, Staten Island",591 City Island Ave,86
Island Coffee Shop,Island Coffee Shop,100,"407 Manor Road, Staten Island",591 City Island Ave,86
Gottis Deli Grocery,Deli & Grocery,95,"262 Maine Avenue, Staten Island",311 Avenue X,86
Bella Mama Restaurant,Mama Bella Restaurant,95,"266 Morningstar Road, Staten Island",2670 Coney Island Ave,86
Con Yapa,Para Ti Colombia Con Sabor,86,"300 Morningstar Road, Staten Island",2670 Coney Island Ave,86
Mr. Rice,Mr Triunfel Restaurant,86,"5 Walker Street, Staten Island",Street,90
Johnny's Deli,John's Deli,92,"614 Port Richmond Avenue, Staten Island",Richmond Avenue,90
Denino‚Äôs Pizzeria & Tavern,Nino's,90,"524 Port Richmond Avenue, Staten Island",Richmond Avenue,90
Koten's Carribean and American Restaurant,Koten's Carribean and American Restaurant,100,"537 Port Richmond Avenue, Staten Island",537 Port Richmond Ave,90
Lacey's Bridge Tavern,Theresa's Polish American Restaurant,86,"75 Innis Street, Staten Island",Street,90
John's Famous Deli,Deli,90,"15 Innis Street, Staten Island",Street,90
Plaza San Jeronimo Deli,Deli,90,"465 Port Richmond Avenue, Staten Island",Richmond Avenue,90
Botanas,Botanas Restaurant,90,"463 Port Richmond Avenue, Staten Island",Richmond Avenue,90
Ramzi Gyro & Grill,"Airways Pizza, Gyro & Restaurant",86,"140 Morningstar Road, Staten Island",2670 Coney Island Ave,86
La Catracha,La Strada Pizzeria & Restaurant,86,"68 Van Riper Street, Staten Island",Street,90
Mandarin House,Hunan House Chinese Restaurant,86,"730 Port Richmond Avenue, Staten Island",Richmond Avenue,90
Brother's Pizzeria,Brother's II Pizzeria,95,"750 Port Richmond Avenue, Staten Island",Richmond Avenue,90
Basil Cucina & Catering,Sunshine Restaurant Food & Catering Inc,86,"1686 Forest Avenue, Staten Island",Forest Avenue,90
Lebanese Eatery,Lowes Eatery Jamaican & Southern Style Cuisine,86,"1686 Forest Avenue, Staten Island",Forest Avenue,90
Hook & Reel Cajun Seafood & Bar,"Caribbean American Ent. Bar, Lounge & Restaurant",86,"1756 Forest Avenue store 1, Staten Island",Forest Avenue,90
Venecia Pizza,Pizza Pizza,95,"1756 Forest Avenue, Staten Island",Forest Avenue,90
Mike‚Äôs Dakota Diner,Ako,90,"921 Richmond Avenue, Staten Island",Richmond Avenue,90
Papa's Halal Fried Chicken & Gyro,Halal,90,"1787 Forest Avenue, Staten Island",Forest Avenue,90
Mike's Unicorn Diner,Diner,90,"2944 Victory Boulevard, Staten Island",2670 Coney Island Ave,86
Bubbakoo‚Äôs Burritos,Ako,90,"1650 Richmond Avenue, Staten Island",1650 Richmond Ave,90
JSY Teriyaki Platter,SLATE,72,"50 Jay Street, Brooklyn",Jay St.,90
Le Kang,Le Fatima Bar & Grill Restaurant,86,"52 Jay Street, Brooklyn",Jay St.,90
Jimi's Market,Theresa's Polish American Restaurant,86,"54 Jay Street, Brooklyn",Jay St.,90
dumboLUV,Blue,68,"54 Jay Street, Brooklyn",Jay St.,90
CC's Cafe,Theresa's Polish American Restaurant,86,"41 Monroe Street, New York","New York, New York",95
Golden Diner,Diner,90,"123 Madison Street, New York",Madison St,90
Bamboo,De Bamboo Express Restaurant & Bakery,90,"30 Market Street, New York","New York, New York",95
Lanzhou Ramen,ACME,68,"107 East Broadway, New York",New York,90
Ume Williamsburg,"Williamsburg Pizza and Restaurant, Greens Pizza",86,"237 Kent Avenue, Brooklyn",brooklyn,90
Croxley's,Theresa's Polish American Restaurant,86,"63 Grand Street, Brooklyn",Grand street,90
La Nonna Ristorante & Bar,"Caribbean American Ent. Bar, Lounge & Restaurant",86,"184 Kent Avenue, Brooklyn",brooklyn,90
Aurora,Aurora Pizza,90,"70 Grand Street, Brooklyn",Grand street,90
Krispy Krust,La Nonna Krispy Krust Pizza,90,"175 Kent Avenue, Brooklyn",brooklyn,90
Passatempo cafe,Stars Cafe & Restaurant,86,"79 Grand Street, Brooklyn",Grand street,90
Cantina Royal,Port Royal Jamaican Restaurant,86,"58 North 3rd Street, Brooklyn",brooklyn,90
M√≥le,Hamlet Coffee Company,90,"178 Kent Avenue, Brooklyn",brooklyn,90
12 Chairs Cafe,Stars Cafe & Restaurant,86,"342 Wythe Avenue, Brooklyn",brooklyn,90
D√©panneur,Bann,68,"242 Wythe Avenue, Brooklyn",brooklyn,90
Sunday In Brooklyn,"Golden Forest Chinese Restaurant, Brooklyn Ny",86,"348 Wythe Avenue, Brooklyn",brooklyn,90
Mekelburg's,Theresa's Polish American Restaurant,86,"319 Kent Avenue, Brooklyn",brooklyn,90
Freehold,Coffee Holding Co,79,"45 South 3rd Street, Brooklyn",brooklyn,90
Elite Williamsburg Restaurant & Lounge,Restaurant,90,"128 Metropolitan Avenue, Brooklyn",brooklyn,90
North 3rd Street Market,North Cold Restaurant Equipment and Walking Boxes,86,"103 North 3rd Street, Brooklyn",brooklyn,90
East Wind Snack Shop,East Dynasty Chinese Restaurant,86,"103 North 3rd Street, Brooklyn",brooklyn,90
Piade,Basilon Restaurant and Picadero,72,"New York, 103 N 3rd St Shop #5",New York,90
Vish,Fish,75,"103 North 3rd Street, Brooklyn",brooklyn,90
Kashkar Cafe,Kar,90,"1141 Brighton Beach Avenue, Brooklyn",brooklyn,90
Luigi's Pizza,Luigi's Pizza,100,"1049 Brighton Beach Avenue, Brooklyn",brooklyn,90
Hot Potato House,Hunan House Chinese Restaurant,86,"109 Oriental Boulevard, Brooklyn",brooklyn,90
Omar Khayyam,Maya,68,"3159 Coney Island Avenue, Brooklyn",brooklyn,90
Tacos El Rey,El Morro Restaurant & Bar,86,"3168 Coney Island Avenue, Brooklyn",brooklyn,90
Georgian Food,famous restaurant Chinese food,86,"109 Brighton 11th Street A, Brooklyn",brooklyn,90
Nasheman,Pak Nasheman,90,"3149 Coney Island Avenue, Brooklyn",3149 Coney Island Ave,90
Neptune Pizza,Neptune Pizza,100,"3033 Coney Island Avenue, Brooklyn",brooklyn,90
Hi Food Cafe,Food & Cafe,95,"3078 Coney Island Avenue, Brooklyn",brooklyn,90
Peraltas Deli & Grill,Alta,90,"144 Neptune Avenue, Brooklyn",brooklyn,90
Coney Island Taste,Island Taste,90,"2580 Coney Island Avenue, Brooklyn",brooklyn,90
New Times,New Fulin Kwok Seafood Restaurant,86,"2578 Coney Island Avenue, Brooklyn",brooklyn,90
Eat N' Run Cafe,Stars Cafe & Restaurant,86,"2574 Coney Island Avenue, Brooklyn",brooklyn,90
Chateau De Capitaine,Bar Sol De Quito Restaurant II,86,"2570 Coney Island Avenue, Brooklyn",brooklyn,90
Retro Grill,Golden Krust Caribbean Bakery and Grill,86,"2556 Coney Island Avenue, Brooklyn",brooklyn,90
Lillian Pizzeria,Lilliani Pizza,87,"9601 69th Avenue, New York","New York, New York",95
Stone Deli,Deli,90,"66-75 Selfridge Street, Forest Hills",Street,90
Stone Deli & Grill,Deli,90,"66-75 Selfridge Street, Forest Hills",Street,90
Yellowstone Sushi Cuisine Restaurant,Restaurant,90,"6673 Selfridge Street, Forest Hills",Street,90
Village Grill,Golden Krust Caribbean Bakery and Grill,86,"7301 Yellowstone Boulevard, Forest Hills",6701 Forest Ave,86
Tov-Li Shawarma,Shun Li Chinese Restaurant,86,"64-47 108th Street, Forest Hills",Street,90
Cho-Sen Garden,Cho-sen Garden,100,"64-43 108th Street, Forest Hills",Street,90
Taco King,King Chinese Restaurant,86,"6405 108th Street, Forest Hills",Street,90
VR Bagelicious,Li Li,86,"6401 108th Street, Queens",Street,90
Pizza & Pasta City,Q City Pizza & Pasta,95,"64-44 108th Street, New York",New York,90
Salute,Salute,100,"6361 108th Street, Forest Hills",Street,90
Jerusalem Bagels,J and J's Nueva Jerusalem Restaurant,86,"64-48 108th Street, Forest Hills",Street,90
Mito,Mitoushi Japanese Restaurant,90,"64-18 108th Street, Forest Hills",Street,90
Fan Shun,Lucky Fan Shun Chinese Restaurant,90,"63-59 108th Street, Forest Hills",63-59 108th St,90
Masbia of Queens,Queen,90,"105 - 47 64th Road, Forest Hills",211-47 Jamaica Ave,86
Nadezhda,Nadezha Restaurant,79,"6406 108th Street, Forest Hills",Street,90
Sushi Fussion,Ginpachi Sushi Restaurant,86,"105-43 64th Road, Forest Hills",Rutland Road,86
Pizza Palace Cafe,Pizza Palace,95,"63-60 108th Street, Queens",Street,90
Tap House,Mudville Restaurant & Tap House,90,"5354, 7207 Austin Street, Forest Hills",Street,90
Mike's Pizzeria,Mike's Pizza,89,"71-75 Yellowstone Boulevard, Forest Hills",6701 Forest Ave,86
Forest Hills Indian Cuisine,"Golden Forest Chinese Restaurant, Brooklyn Ny",86,"71-51 Yellowstone Boulevard, Forest Hills",6701 Forest Ave,86
Red House Kitchen,Red House,90,"7147 Yellowstone Boulevard, Flushing",603 Flushing Ave,86
Sushi Akio,Ginpachi Sushi Restaurant,86,"71-45 Yellowstone Boulevard, Forest Hills",45-21 Parsons Blvd,86
Forest Hills Diner,Diner,90,"68-60 Austin Street, Forest Hills",Street,90
Memories Of Shanghai,Shanghai,90,"68-60 Austin Street #10A, Queens",Street,90
Amar Peruvian Kitchen,Chang Jiang Kitchen Chinese Restaurant,86,"68-60 Austin street store #6, Forest Hills",Street,90
Bamboo Ya,De Bamboo Express Restaurant & Bakery,86,"6912 Austin Street, New York",New York,90
Wholesome Organic Foods Russian Delicatessen and Live Fresh Fish Grocery Store,Organic Food,90,"67-05 Austin Street, Forest Hills",Street,90
"Ten Zen Asian Cuisine in Forest Hills, NY",Yang No. 1 Asian Restaurant,86,"6703 Austin Street, Forest Hills",Street,90
TGI Fridays,R/GA Friday Food Truck Fantastico,66,"7000 Austin Street, Forest Hills",Street,90
Forest Hills Bagels,"Golden Forest Chinese Restaurant, Brooklyn Ny",86,"104-41 Queens Boulevard, Queens",Queens Boulevard,90
Asian Fortune,Yang No. 1 Asian Restaurant,86,"103-35 Queens Boulevard, Forest Hills",Queens Boulevard,90
Tu Casa,Tu Casa Restaurant,90,"103-11 Queens Boulevard, Forest Hills",Queens Boulevard,90
Thai Pot,Mekong Thai & Vietnamese Restaurant,86,"103-07 Queens Boulevard, Forest Hills",Queens Boulevard,90
Rosalia's,Theresa's Polish American Restaurant,86,"103-15 Queens Boulevard, New York",New York,90
Da Mikelle,Da Wong Chinese Restaurant,86,"102-51 Queens Boulevard, Forest Hills",Queens Boulevard,90
L‚ÄôAmour Restaurant,Restaurant,90,"102-11 Queens Boulevard, Forest Hills",Queens Boulevard,90
T-Bone Diner,T-Bone Diner,100,"10748 Queens Boulevard, Forest Hills",Queens Boulevard,90
Express Soft Taco,Cam Tak Express Restaurant,86,"101-23 Queens Boulevard, Forest Hills",Queens Boulevard,90
Mikihana Sushi,Mikihana Sushi & Asian Cusine | Forest Hills Sushi | Sushi Restaurant Forest Hills,90,"101-10 Queens Boulevard, Forest Hills",Queens Boulevard,90
Boulevard Palace,China palace chinese restaurant,86,"101-19 Queens Boulevard, Forest Hills",Queens Boulevard,90
Hop Bo Palace,Food Bo Garden Chinese Restaurant,86,"101-19 Queens Boulevard, Forest Hills",Queens Boulevard,90
Stix,Stix Kosher Restaurant,90,"101-15 Queens Boulevard, Forest Hills",Queens Boulevard,90
NY Hot Bagels and Bialys,Ambrosia Italian and Albanian Restaurant,86,"101-01 Queens Boulevard, Forest Hills",Queens Boulevard,90
Asian Bowl,Yang No. 1 Asian Restaurant,86,"10111 Queens Boulevard, Forest Hills",Queens Boulevard,90
Cafe Arzu,Stars Cafe & Restaurant,86,"101-05 Queens Boulevard, Flushing",Queens Boulevard,90
MoCA Asian Bistro,Yang No. 1 Asian Restaurant,86,"107-18 70th Road, Queens",107-01 37th Ave,86
Bangkok Cuisine,Annie Chan's Japanese Cuisine Restaurant,86,"107-18 70th Road, Queens",107-01 37th Ave,86
Rokhat Restaurant,Restaurant,90,"65-35 Austin Street, Rego Park",Street,90
Victoria G's Pizzeria,Theresa's Polish American Restaurant,86,"8905 Metropolitan Avenue, New York",New York,90
Alfonso's Lasagna,Theresa's Polish American Restaurant,86,"120B East 40th Street, New York",New York,90
MakiMaki Sushi,Ginpachi Sushi Restaurant,86,"360 Lexington Avenue, New York",New York,90
MakiMaki Sushi,Ginpachi Sushi Restaurant,86,"360 Lexington Avenue, New York",New York,90
Patrizia's of Manhattan,Theresa's Polish American Restaurant,86,"462-466 2nd Avenue, New York",New York,90
Alidoro,Orso,77,"18 East 39th Street, New York",New York,90
Between the Bread Eatery - Bryant Park,The Pine Restaurant,86,"20A East 40th Street, New York",New York,90
Norikoh,Nori,90,"10 East 39th Street, New York",New York,90
Simit Sarayi,Star,68,"435 5th Avenue, New York","New York, New York",95
La Tamaleria Colombiana,La Roja de Todos Restaurant & Bakery,86,"3250 88th Street, Queens",Street,90
Riazor Blues,Blue,90,"89-05 Northern Boulevard, Queens",147-18 Northern Blvd,86
OM WOK,Wok Wok,95,"89-17 Northern Boulevard, Jackson Heights",147-18 Northern Blvd,86
Kennedy Chicken Pizza & Kabab,Kennedy Pizza & Chicken,95,"89-21 Northern Boulevard, New York",New York,90
Sol Inca,Sol Inca,100,"8707 Northern Boulevard, Queens",147-18 Northern Blvd,86
Addictive B√°nh M√¨,M and M El Buen Sabor Restaurant,86,"32-64 87th Street, Queens",Street,90
Addictive Wine and Tapas,Ambrosia Italian and Albanian Restaurant,86,"87-01 Northern Boulevard, Jackson Heights",147-18 Northern Blvd,86
El Pollo Inka Peru,El Coyote Mexican Restaurant,86,"8912 Northern Boulevard, Queens",147-18 Northern Blvd,86
Yeras,Las Perlas Restaurante Salvadore√±o,72,"86-09 Northern Boulevard, New York",New York,90
Pizza Sam,Sam's Pizza,95,"89-06 Northern Boulevard, Jackson Heights",147-18 Northern Blvd,86
Mingstar,Star,90,"89-16 Northern Boulevard, Jackson Heights",147-18 Northern Blvd,86
Caf√© Salamanca,Cafe salamanca,96,"7905 Northern Boulevard, Flushing",147-18 Northern Blvd,86
Los Toritos,El Rinconcito De Los Sabores Restaurant & Deli,86,"7909b Northern Boulevard, Jackson Heights",147-18 Northern Blvd,86
Maharaja Sweets,Ghoroa Sweets and Restaurant,86,"7310 37th Avenue, Jackson Heights",7th Ave,90
Salam Halal Food,Salma Halal Food,94,Jackson Heights,"80-02 Astoria Blvd, Jackson Heights, NY 11370",90
Raja Sweets & Fast Food,Raja Sweets And Fast Food,95,"7231 37th Avenue, Jackson Heights",7th Ave,90
Abdullah Sweets,Ghoroa Sweets and Restaurant,86,"73-06 37th Avenue, Queens",7th Ave,90
Rajbhog NY Sweets,Ghoroa Sweets and Restaurant,86,"7227 37th Avenue, Queens",7th Ave,90
